{
"type": "FeatureCollection",
"name": "geo_19_通所リハビリテーション",
"crs": { "type": "name", "properties": { "name": "urn:ogc:def:crs:OGC:1.3:CRS84" } },
"features": [
{ "type": "Feature", "properties": { "内容": "大津ケアセンター【通所リハビリテーション】山梨県甲府市大津町１５０９番地１", "url": "https://www.kaigokensaku.mhlw.go.jp/19/index.php?action_kouhyou_detail_004_kani=true&JigyosyoCd=1950180040-00&ServiceCd=160&Type=search", "url2": "http://www.geocities.jp/ootsuhope0202/index.htm" }, "geometry": { "type": "Point", "coordinates": [ 138.564382300000034, 35.5982885 ] } },
{ "type": "Feature", "properties": { "内容": "介護老人保健施設ＮＡＣ湯村【通所リハビリテーション】山梨県甲府市湯村３－１５－１３", "url": "https://www.kaigokensaku.mhlw.go.jp/19/index.php?action_kouhyou_detail_004_kani=true&JigyosyoCd=1950180024-00&ServiceCd=160&Type=search", "url2": "http://www.nac-yumura.com" }, "geometry": { "type": "Point", "coordinates": [ 138.546763899999974, 35.6833931 ] } },
{ "type": "Feature", "properties": { "内容": "医療法人　八香会　湯村温泉病院　指定通所リハビリテーション事業所【通所リハビリテーション】山梨県甲府市湯村3-3-4", "url": "https://www.kaigokensaku.mhlw.go.jp/19/index.php?action_kouhyou_detail_004_kani=true&JigyosyoCd=1970102842-00&ServiceCd=160&Type=search", "url2": "http://www.yumura-reha.com" }, "geometry": { "type": "Point", "coordinates": [ 138.549277599999982, 35.6805658 ] } },
{ "type": "Feature", "properties": { "内容": "ひかり通所リハビリテーション事業所【通所リハビリテーション】山梨県甲府市上町７５３－１", "url": "https://www.kaigokensaku.mhlw.go.jp/19/index.php?action_kouhyou_detail_004_kani=true&JigyosyoCd=1910112935-00&ServiceCd=160&Type=search", "url2": "http://www.kofujonan.or.jp/" }, "geometry": { "type": "Point", "coordinates": [ 138.5952263, 35.6294187 ] } },
{ "type": "Feature", "properties": { "内容": "甲府樂天堂通所リハ【通所リハビリテーション】山梨県甲府市朝気1-1-29樂天堂内科整形外科", "url": "https://www.kaigokensaku.mhlw.go.jp/19/index.php?action_kouhyou_detail_004_kani=true&JigyosyoCd=1910115821-00&ServiceCd=160&Type=search", "url2": "http://www.rakutendo.jp/koufu/index.html" }, "geometry": { "type": "Point", "coordinates": [ 138.5826102, 35.6544298 ] } },
{ "type": "Feature", "properties": { "内容": "望月整形外科クリニックデイ・ケアセンター【通所リハビリテーション】山梨県甲府市塩部４丁目１６番２号", "url": "https://www.kaigokensaku.mhlw.go.jp/19/index.php?action_kouhyou_detail_004_kani=true&JigyosyoCd=1910115128-00&ServiceCd=160&Type=search", "url2": "http://www.mochizukiclinic.com" }, "geometry": { "type": "Point", "coordinates": [ 138.553705, 35.6777776 ] } },
{ "type": "Feature", "properties": { "内容": "介護老人保健施設　甲府相川ケアセンター【通所リハビリテーション】山梨県甲府市塚原町359", "url": "https://www.kaigokensaku.mhlw.go.jp/19/index.php?action_kouhyou_detail_004_kani=true&JigyosyoCd=1950180032-00&ServiceCd=160&Type=search", "url2": "http://www.kashihokai.or.jp" }, "geometry": { "type": "Point", "coordinates": [ 138.569656099999946, 35.6941421 ] } },
{ "type": "Feature", "properties": { "内容": "通所リハビリテーションかぞく【通所リハビリテーション】山梨県甲府市上阿原487-1", "url": "https://www.kaigokensaku.mhlw.go.jp/19/index.php?action_kouhyou_detail_004_kani=true&JigyosyoCd=1910115425-00&ServiceCd=160&Type=search", "url2": "http://www.happy-clinic.jp/index.html" }, "geometry": { "type": "Point", "coordinates": [ 138.6042549, 35.6456603 ] } },
{ "type": "Feature", "properties": { "内容": "介護老人保健施設　甲府南ライフケアセンター【通所リハビリテーション】山梨県甲府市住吉５丁目２４－１４", "url": "https://www.kaigokensaku.mhlw.go.jp/19/index.php?action_kouhyou_detail_004_kani=true&JigyosyoCd=1950180016-00&ServiceCd=160&Type=search", "url2": "https://care-net.biz/19/kofuminamilife/" }, "geometry": { "type": "Point", "coordinates": [ 138.57811049999998, 35.635203 ] } },
{ "type": "Feature", "properties": { "内容": "今井整形外科介護通所リハビリ事業所【通所リハビリテーション】山梨県甲府市上阿原町1151", "url": "https://www.kaigokensaku.mhlw.go.jp/19/index.php?action_kouhyou_detail_004_kani=true&JigyosyoCd=1910113446-00&ServiceCd=160&Type=search", "url2": "https://imaiseikei.net/zaitaku" }, "geometry": { "type": "Point", "coordinates": [ 138.602986499999986, 35.6438823 ] } },
{ "type": "Feature", "properties": { "内容": "医療法人慶友会城東病院通所リハビリテーション【通所リハビリテーション】山梨県甲府市４丁目１３－１５", "url": "https://www.kaigokensaku.mhlw.go.jp/19/index.php?action_kouhyou_detail_004_kani=true&JigyosyoCd=1970102263-00&ServiceCd=160&Type=search", "url2": "https://www.joto-group.com/joto/" }, "geometry": { "type": "Point", "coordinates": [ 138.55984380000001, 35.6385973 ] } },
{ "type": "Feature", "properties": { "内容": "甲府かわせみ苑【通所リハビリテーション】山梨県甲府市横根町554", "url": "https://www.kaigokensaku.mhlw.go.jp/19/index.php?action_kouhyou_detail_004_kani=true&JigyosyoCd=1950180008-00&ServiceCd=160&Type=search", "url2": "http://seisyou-kai.com" }, "geometry": { "type": "Point", "coordinates": [ 138.615698, 35.6574311 ] } },
{ "type": "Feature", "properties": { "内容": "恵信甲府ケアセンター【通所リハビリテーション】山梨県甲府市上阿原町３９８", "url": "https://www.kaigokensaku.mhlw.go.jp/19/index.php?action_kouhyou_detail_004_kani=true&JigyosyoCd=1910114485-00&ServiceCd=160&Type=search", "url2": "http://www.keishin-group.net" }, "geometry": { "type": "Point", "coordinates": [ 138.61151540000003, 35.6459381 ] } },
{ "type": "Feature", "properties": { "内容": "通所リハビリテーションこくぼ【通所リハビリテーション】山梨県甲府市国母1-15-12", "url": "https://www.kaigokensaku.mhlw.go.jp/19/index.php?action_kouhyou_detail_004_kani=true&JigyosyoCd=1910115987-00&ServiceCd=160&Type=search", "url2": "https://www.sugaiseikeikokubo.com/" }, "geometry": { "type": "Point", "coordinates": [ 138.5572225, 35.6451482 ] } },
{ "type": "Feature", "properties": { "内容": "医療法人笹本会　笹本整形外科　おおくに通所リハビリテーション【通所リハビリテーション】山梨県甲府市古上条町446", "url": "https://www.kaigokensaku.mhlw.go.jp/19/index.php?action_kouhyou_detail_004_kani=true&JigyosyoCd=1910114360-00&ServiceCd=160&Type=search", "url2": "http://sasamotokai.net/" }, "geometry": { "type": "Point", "coordinates": [ 138.5607622, 35.6312753 ] } },
{ "type": "Feature", "properties": { "内容": "介護老人保健施設　白樺荘【通所リハビリテーション】山梨県富士吉田市新屋1552-3", "url": "https://www.kaigokensaku.mhlw.go.jp/19/index.php?action_kouhyou_detail_004_kani=true&JigyosyoCd=1951280005-00&ServiceCd=160&Type=search", "url2": "http://www.fgo.jp/~sirakaba" }, "geometry": { "type": "Point", "coordinates": [ 138.793153599999982, 35.4595859 ] } },
{ "type": "Feature", "properties": { "内容": "樂々堂通所リハ【通所リハビリテーション】山梨県富士吉田市上吉田東3-3-30", "url": "https://www.kaigokensaku.mhlw.go.jp/19/index.php?action_kouhyou_detail_004_kani=true&JigyosyoCd=1911211074-00&ServiceCd=160&Type=search", "url2": "http://www.rakutendo.jp/raku.html" }, "geometry": { "type": "Point", "coordinates": [ 138.7997876, 35.4735872 ] } },
{ "type": "Feature", "properties": { "内容": "樂天堂メディカルケアセンター【通所リハビリテーション】山梨県富士吉田市上吉田2-5-1富士急ターミナルビル5F", "url": "https://www.kaigokensaku.mhlw.go.jp/19/index.php?action_kouhyou_detail_004_kani=true&JigyosyoCd=1971200355-00&ServiceCd=160&Type=search", "url2": "www.rakutendo.jp" }, "geometry": { "type": "Point", "coordinates": [ 138.7958208, 35.4835658 ] } },
{ "type": "Feature", "properties": { "内容": "都留市立介護老人保健施設「つる」【通所リハビリテーション】山梨県都留市つる５－１－５５", "url": "https://www.kaigokensaku.mhlw.go.jp/19/index.php?action_kouhyou_detail_004_kani=true&JigyosyoCd=1951180007-00&ServiceCd=160&Type=search", "url2": "https://www.city.tsuru.yamanashi.jp/" }, "geometry": { "type": "Point", "coordinates": [ 138.9030871, 35.5626288 ] } },
{ "type": "Feature", "properties": { "内容": "ツル虎ノ門通所リハビリテーションそよかぜ【通所リハビリテーション】山梨県都留市四日市場字瀬中188", "url": "https://www.kaigokensaku.mhlw.go.jp/19/index.php?action_kouhyou_detail_004_kani=true&JigyosyoCd=1911110474-00&ServiceCd=160&Type=search", "url2": "https://www.toranomon.or.jp/turu/index.html" }, "geometry": { "type": "Point", "coordinates": [ 138.9177641, 35.5675086 ] } },
{ "type": "Feature", "properties": { "内容": "デイケア「わかば」【通所リハビリテーション】山梨県都留市十日市場958-1", "url": "https://www.kaigokensaku.mhlw.go.jp/19/index.php?action_kouhyou_detail_004_kani=true&JigyosyoCd=1971100142-00&ServiceCd=160&Type=search", "url2": "http://www.higashikatsura-medical.com" }, "geometry": { "type": "Point", "coordinates": [ 138.879820200000012, 35.5379006 ] } },
{ "type": "Feature", "properties": { "内容": "通所リハビリテーションいぶき【通所リハビリテーション】山梨県山梨市七日市場８０５－１番地", "url": "https://www.kaigokensaku.mhlw.go.jp/19/index.php?action_kouhyou_detail_004_kani=true&JigyosyoCd=1910210408-00&ServiceCd=160&Type=search", "url2": "https://yamanasikitaseikei.com" }, "geometry": { "type": "Point", "coordinates": [ 138.698074600000012, 35.7002391 ] } },
{ "type": "Feature", "properties": { "内容": "介護老人保健施設　ももくら【通所リハビリテーション】山梨県大月市七保町下和田２１３２－１", "url": "https://www.kaigokensaku.mhlw.go.jp/19/index.php?action_kouhyou_detail_004_kani=true&JigyosyoCd=1971400310-00&ServiceCd=160&Type=search", "url2": "http://fujikosei/or.jp/" }, "geometry": { "type": "Point", "coordinates": [ 138.9705768, 35.6297866 ] } },
{ "type": "Feature", "properties": { "内容": "恵信韮崎通所リハビリテーションセンター【通所リハビリテーション】山梨県韮崎市一ツ谷1865-1", "url": "https://www.kaigokensaku.mhlw.go.jp/19/index.php?action_kouhyou_detail_004_kani=true&JigyosyoCd=1910910734-00&ServiceCd=160&Type=search", "url2": null }, "geometry": { "type": "Point", "coordinates": [ 138.436096600000042, 35.7172654 ] } },
{ "type": "Feature", "properties": { "内容": "介護老人保健施設　あさひホーム【通所リハビリテーション】山梨県韮崎市旭町上條中割４７３", "url": "https://www.kaigokensaku.mhlw.go.jp/19/index.php?action_kouhyou_detail_004_kani=true&JigyosyoCd=1950980001-00&ServiceCd=160&Type=search", "url2": null }, "geometry": { "type": "Point", "coordinates": [ 138.4441424, 35.6829215 ] } },
{ "type": "Feature", "properties": { "内容": "デイケアセンター花菱【通所リハビリテーション】山梨県南アルプス市田島１１０５番地", "url": "https://www.kaigokensaku.mhlw.go.jp/19/index.php?action_kouhyou_detail_004_kani=true&JigyosyoCd=1950880045-00&ServiceCd=160&Type=search", "url2": null }, "geometry": { "type": "Point", "coordinates": [ 138.486878299999944, 35.5927049 ] } },
{ "type": "Feature", "properties": { "内容": "白根徳洲会介護センター【通所リハビリテーション】山梨県南アルプス市西野2294-2", "url": "https://www.kaigokensaku.mhlw.go.jp/19/index.php?action_kouhyou_detail_004_kani=true&JigyosyoCd=1911610424-00&ServiceCd=160&Type=search", "url2": "https://www.shiranetoku.jp/" }, "geometry": { "type": "Point", "coordinates": [ 138.4782573, 35.6384851 ] } },
{ "type": "Feature", "properties": { "内容": "峡西老人保健センター【通所リハビリテーション】山梨県南アルプス市下宮地４２１番地", "url": "https://www.kaigokensaku.mhlw.go.jp/19/index.php?action_kouhyou_detail_004_kani=true&JigyosyoCd=1950880011-00&ServiceCd=160&Type=search", "url2": "http://www.nan-zan.or.jp" }, "geometry": { "type": "Point", "coordinates": [ 138.463430100000011, 35.6039599 ] } },
{ "type": "Feature", "properties": { "内容": "巨摩共立病院　デイケアももその【通所リハビリテーション】山梨県南アルプス市桃園３４０", "url": "https://www.kaigokensaku.mhlw.go.jp/19/index.php?action_kouhyou_detail_004_kani=true&JigyosyoCd=1911610069-00&ServiceCd=160&Type=search", "url2": "www.yamanashi-min.jp" }, "geometry": { "type": "Point", "coordinates": [ 138.462076700000011, 35.6289272 ] } },
{ "type": "Feature", "properties": { "内容": "医療法人　藤和会　斉藤医院　(デイケアしらね)【通所リハビリテーション】山梨県南アルプス市在家塚１１８９", "url": "https://www.kaigokensaku.mhlw.go.jp/19/index.php?action_kouhyou_detail_004_kani=true&JigyosyoCd=1970800569-00&ServiceCd=160&Type=search", "url2": "https://www.saito-clinic1189.com" }, "geometry": { "type": "Point", "coordinates": [ 138.464315199999987, 35.642256 ] } },
{ "type": "Feature", "properties": { "内容": "もちづき整形外科通所リハビリ【通所リハビリテーション】山梨県南アルプス市在家塚68-1", "url": "https://www.kaigokensaku.mhlw.go.jp/19/index.php?action_kouhyou_detail_004_kani=true&JigyosyoCd=1911600557-00&ServiceCd=160&Type=search", "url2": "https://www.mochizuki-seikei.com" }, "geometry": { "type": "Point", "coordinates": [ 138.4670298, 35.6317765 ] } },
{ "type": "Feature", "properties": { "内容": "医療法人燦生会デイケアセンターフルリールむかわ【通所リハビリテーション】山梨県北杜市武川町柳沢740-1", "url": "https://www.kaigokensaku.mhlw.go.jp/19/index.php?action_kouhyou_detail_004_kani=true&JigyosyoCd=1951080025-00&ServiceCd=160&Type=search", "url2": "http://www.fluriru.com" }, "geometry": { "type": "Point", "coordinates": [ 138.3515344, 35.7868083 ] } },
{ "type": "Feature", "properties": { "内容": "介護老人保健施設しおかわ福寿の里【通所リハビリテーション】山梨県北杜市須玉町藤田787", "url": "https://www.kaigokensaku.mhlw.go.jp/19/index.php?action_kouhyou_detail_004_kani=true&JigyosyoCd=1951980000-00&ServiceCd=160&Type=search", "url2": "http://shiokawa.html.xdomain.jp/hukujyunosato/index.html" }, "geometry": { "type": "Point", "coordinates": [ 138.427841300000011, 35.7787151 ] } },
{ "type": "Feature", "properties": { "内容": "峡北シルバーケアホーム【通所リハビリテーション】山梨県北杜市長坂町渋沢907", "url": "https://www.kaigokensaku.mhlw.go.jp/19/index.php?action_kouhyou_detail_004_kani=true&JigyosyoCd=1951080009-00&ServiceCd=160&Type=search", "url2": "http://kyohoku-silver-care-home.yamanashi.jp/" }, "geometry": { "type": "Point", "coordinates": [ 138.387138099999987, 35.8128998 ] } },
{ "type": "Feature", "properties": { "内容": "介護老人保健施設山梨ライフケアホーム通所リハビリテーション【通所リハビリテーション】山梨県甲斐市竜王新町2128", "url": "https://www.kaigokensaku.mhlw.go.jp/19/index.php?action_kouhyou_detail_004_kani=true&JigyosyoCd=1950880003-00&ServiceCd=160&Type=search", "url2": "http:/park14.wakwak.com/^lifecarehome/" }, "geometry": { "type": "Point", "coordinates": [ 138.5083687, 35.6783711 ] } },
{ "type": "Feature", "properties": { "内容": "医療法人　甲斐リハビリテーションクリニック　通所リハビリにじ【通所リハビリテーション】山梨県甲斐市西八幡3990", "url": "https://www.kaigokensaku.mhlw.go.jp/19/index.php?action_kouhyou_detail_004_kani=true&JigyosyoCd=1911710778-00&ServiceCd=160&Type=search", "url2": "http://kai-reha.jp/" }, "geometry": { "type": "Point", "coordinates": [ 138.516879901852434, 35.637503259767549 ] } },
{ "type": "Feature", "properties": { "内容": "デイケアセンター春海【通所リハビリテーション】山梨県甲斐市万才287-8", "url": "https://www.kaigokensaku.mhlw.go.jp/19/index.php?action_kouhyou_detail_004_kani=true&JigyosyoCd=1911710133-00&ServiceCd=160&Type=search", "url2": "http:/www.ryuo-rhp.or.jp/" }, "geometry": { "type": "Point", "coordinates": [ 138.530153199999972, 35.6502087 ] } },
{ "type": "Feature", "properties": { "内容": "恵信りほくケアセンター　通所リハビリテーション【通所リハビリテーション】山梨県甲斐市岩森１１７０－１", "url": "https://www.kaigokensaku.mhlw.go.jp/19/index.php?action_kouhyou_detail_004_kani=true&JigyosyoCd=1971700883-00&ServiceCd=160&Type=search", "url2": "http://www.keishin-group.net/rihoku/carecenter/index.html" }, "geometry": { "type": "Point", "coordinates": [ 138.495031, 35.6923388 ] } },
{ "type": "Feature", "properties": { "内容": "介護老人保健施設ふじ苑【通所リハビリテーション】山梨県笛吹市春日居町小松855-6", "url": "https://www.kaigokensaku.mhlw.go.jp/19/index.php?action_kouhyou_detail_004_kani=true&JigyosyoCd=1950480002-00&ServiceCd=160&Type=search", "url2": "http://www11/ocn.ne.jp/~fuji-hp/" }, "geometry": { "type": "Point", "coordinates": [ 138.658692400000064, 35.6613921 ] } },
{ "type": "Feature", "properties": { "内容": "いちのみやケアセンター【通所リハビリテーション】山梨県笛吹市一宮町竹原田１２５５－１", "url": "https://www.kaigokensaku.mhlw.go.jp/19/index.php?action_kouhyou_detail_004_kani=true&JigyosyoCd=1950580017-00&ServiceCd=160&Type=search", "url2": "http://fuyo-kai.or.jp/" }, "geometry": { "type": "Point", "coordinates": [ 138.672572100000025, 35.6475919 ] } },
{ "type": "Feature", "properties": { "内容": "リハケアセンターきらり【通所リハビリテーション】山梨県笛吹市春日居町小松855", "url": "https://www.kaigokensaku.mhlw.go.jp/19/index.php?action_kouhyou_detail_004_kani=true&JigyosyoCd=1971800337-00&ServiceCd=160&Type=search", "url2": "https://yamanashireha.jp/reha-care" }, "geometry": { "type": "Point", "coordinates": [ 138.6574129, 35.6604779 ] } },
{ "type": "Feature", "properties": { "内容": "石和共立病院通所リハビリテーション【通所リハビリテーション】山梨県笛吹市石和町広瀬６２３", "url": "https://www.kaigokensaku.mhlw.go.jp/19/index.php?action_kouhyou_detail_004_kani=true&JigyosyoCd=1971800261-00&ServiceCd=160&Type=search", "url2": "http://www.yamanashi-min/.jp/isawa/top.html" }, "geometry": { "type": "Point", "coordinates": [ 138.6138793, 35.6420552 ] } },
{ "type": "Feature", "properties": { "内容": "甲州リハビリテーション病院　言葉の通所リハビリテーション　スピーチ【通所リハビリテーション】石和町四日市場2031-25", "url": "https://www.kaigokensaku.mhlw.go.jp/19/index.php?action_kouhyou_detail_004_kani=true&JigyosyoCd=1911810115-00&ServiceCd=160&Type=search", "url2": null }, "geometry": { "type": "Point", "coordinates": [ 138.6265948, 35.646338 ] } },
{ "type": "Feature", "properties": { "内容": "石和温泉病院指定通所リハビリテーション事業所【通所リハビリテーション】山梨県笛吹市石和町八田330-5", "url": "https://www.kaigokensaku.mhlw.go.jp/19/index.php?action_kouhyou_detail_004_kani=true&JigyosyoCd=1911810016-00&ServiceCd=160&Type=search", "url2": "https://isawa-hsp.or.jp" }, "geometry": { "type": "Point", "coordinates": [ 138.641023499999989, 35.6558742 ] } },
{ "type": "Feature", "properties": { "内容": "甲州通所リハビリテーション【通所リハビリテーション】山梨県笛吹市石和町四日市場2031", "url": "https://www.kaigokensaku.mhlw.go.jp/19/index.php?action_kouhyou_detail_004_kani=true&JigyosyoCd=1970500359-00&ServiceCd=160&Type=search", "url2": "https://www.krg.ne.jp/care/" }, "geometry": { "type": "Point", "coordinates": [ 138.625647699999945, 35.6465102 ] } },
{ "type": "Feature", "properties": { "内容": "上野原市立病院通所リハビリテーション【通所リハビリテーション】山梨県上野原市上野原３５０４－３", "url": "https://www.kaigokensaku.mhlw.go.jp/19/index.php?action_kouhyou_detail_004_kani=true&JigyosyoCd=1972000143-00&ServiceCd=160&Type=search", "url2": "http://www.uenohara-hospital.jp/" }, "geometry": { "type": "Point", "coordinates": [ 139.111707287944, 35.631298344283913 ] } },
{ "type": "Feature", "properties": { "内容": "みのりの里　介護老人保健施設　旭ヶ丘【通所リハビリテーション】山梨県上野原市上野原7806", "url": "https://www.kaigokensaku.mhlw.go.jp/19/index.php?action_kouhyou_detail_004_kani=true&JigyosyoCd=1951580008-00&ServiceCd=160&Type=search", "url2": "http://www.keifuu.or.jp" }, "geometry": { "type": "Point", "coordinates": [ 139.122816300000068, 35.6441771 ] } },
{ "type": "Feature", "properties": { "内容": "公益財団法人山梨厚生会塩山市民病院【通所リハビリテーション】山梨県甲州市塩山西広門田433-１", "url": "https://www.kaigokensaku.mhlw.go.jp/19/index.php?action_kouhyou_detail_004_kani=true&JigyosyoCd=1912210059-00&ServiceCd=160&Type=search", "url2": "http://enzan.gotohp.jp/index.htm" }, "geometry": { "type": "Point", "coordinates": [ 138.720771900000045, 35.6954417 ] } },
{ "type": "Feature", "properties": { "内容": "介護老人保健施設　勝沼ナーシングセンター【通所リハビリテーション】山梨県甲州市勝沼町菱山中平4300", "url": "https://www.kaigokensaku.mhlw.go.jp/19/index.php?action_kouhyou_detail_004_kani=true&JigyosyoCd=1950480010-00&ServiceCd=160&Type=search", "url2": "http;//www.kasugai-reha.com" }, "geometry": { "type": "Point", "coordinates": [ 138.738777, 35.667027 ] } },
{ "type": "Feature", "properties": { "内容": "恵信塩山ケアセンター【通所リハビリテーション】山梨県甲州市塩山上於曽1195", "url": "https://www.kaigokensaku.mhlw.go.jp/19/index.php?action_kouhyou_detail_004_kani=true&JigyosyoCd=1950380004-00&ServiceCd=160&Type=search", "url2": "http://www.keishin-group.net" }, "geometry": { "type": "Point", "coordinates": [ 138.72821, 35.7077459 ] } },
{ "type": "Feature", "properties": { "内容": "介護老人保健施設　玉穂ケアセンター【通所リハビリテーション】山梨県中央市乙黒２４７－１", "url": "https://www.kaigokensaku.mhlw.go.jp/19/index.php?action_kouhyou_detail_004_kani=true&JigyosyoCd=1950880052-00&ServiceCd=160&Type=search", "url2": null }, "geometry": { "type": "Point", "coordinates": [ 138.552884, 35.5970085 ] } },
{ "type": "Feature", "properties": { "内容": "介護老人保健施設　ナーシングプラザ三珠【通所リハビリテーション】山梨県西八代郡市川三郷町上野２９６８番地", "url": "https://www.kaigokensaku.mhlw.go.jp/19/index.php?action_kouhyou_detail_004_kani=true&JigyosyoCd=1950680007-00&ServiceCd=160&Type=search", "url2": null }, "geometry": { "type": "Point", "coordinates": [ 138.515742100000011, 35.5631367 ] } },
{ "type": "Feature", "properties": { "内容": "介護老人保健施設ケアセンターいちかわ【通所リハビリテーション】山梨県西八代郡市川三郷町市川大門416", "url": "https://www.kaigokensaku.mhlw.go.jp/19/index.php?action_kouhyou_detail_004_kani=true&JigyosyoCd=1970600480-00&ServiceCd=160&Type=search", "url2": "https://www.kyonan-mc.jp" }, "geometry": { "type": "Point", "coordinates": [ 138.4928621, 35.5599756 ] } },
{ "type": "Feature", "properties": { "内容": "峡南医療センター企業団　市川三郷診療所【通所リハビリテーション】山梨県西八代郡市川三郷町市川大門428-1", "url": "https://www.kaigokensaku.mhlw.go.jp/19/index.php?action_kouhyou_detail_004_kani=true&JigyosyoCd=1910610649-00&ServiceCd=160&Type=search", "url2": "https://www.kyonan-mc.jp/" }, "geometry": { "type": "Point", "coordinates": [ 138.4917686, 35.5600855 ] } },
{ "type": "Feature", "properties": { "内容": "医療法人財団交道会指定通所リハビリテーション事業所しもべ【通所リハビリテーション】山梨県南巨摩郡身延町下部1063番地", "url": "https://www.kaigokensaku.mhlw.go.jp/19/index.php?action_kouhyou_detail_004_kani=true&JigyosyoCd=1970700942-00&ServiceCd=160&Type=search", "url2": "http://www.shimobe-hp.or.jp" }, "geometry": { "type": "Point", "coordinates": [ 138.4771144, 35.4243177 ] } },
{ "type": "Feature", "properties": { "内容": "峡南ケアホームいいとみ【通所リハビリテーション】山梨県南巨摩郡身延町飯富1655", "url": "https://www.kaigokensaku.mhlw.go.jp/19/index.php?action_kouhyou_detail_004_kani=true&JigyosyoCd=1950780005-00&ServiceCd=160&Type=search", "url2": "http://www6.ocn.ne.jp/^iitomi/" }, "geometry": { "type": "Point", "coordinates": [ 138.4380495, 35.4358684 ] } },
{ "type": "Feature", "properties": { "内容": "富士川病院併設介護老人保健施設サンビューふじかわ【通所リハビリテーション】山梨県南巨摩郡富士川町鰍沢340-1", "url": "https://www.kaigokensaku.mhlw.go.jp/19/index.php?action_kouhyou_detail_004_kani=true&JigyosyoCd=1970701296-00&ServiceCd=160&Type=search", "url2": "http://www.kyonan-mc.jp/" }, "geometry": { "type": "Point", "coordinates": [ 138.4661351, 35.5490829 ] } },
{ "type": "Feature", "properties": { "内容": "ノイエス【通所リハビリテーション】山梨県中巨摩郡昭和町河東中島４４３", "url": "https://www.kaigokensaku.mhlw.go.jp/19/index.php?action_kouhyou_detail_004_kani=true&JigyosyoCd=1950880037-00&ServiceCd=160&Type=search", "url2": "https://ri-shikai.or.jp" }, "geometry": { "type": "Point", "coordinates": [ 138.5355591, 35.6213462 ] } },
{ "type": "Feature", "properties": { "内容": "介護老人保健施設　ひばり苑【通所リハビリテーション】山梨県中巨摩郡昭和町飯喰1277", "url": "https://www.kaigokensaku.mhlw.go.jp/19/index.php?action_kouhyou_detail_004_kani=true&JigyosyoCd=1950880029-00&ServiceCd=160&Type=search", "url2": "https://care-net.biz/19/hibari-en/" }, "geometry": { "type": "Point", "coordinates": [ 138.520001800000045, 35.6225676 ] } },
{ "type": "Feature", "properties": { "内容": "介護老人保健施設　山中湖あんずの森【通所リハビリテーション】山梨県南都留郡山中湖村山中1069-3", "url": "https://www.kaigokensaku.mhlw.go.jp/19/index.php?action_kouhyou_detail_004_kani=true&JigyosyoCd=1971300403-00&ServiceCd=160&Type=search", "url2": "http://fujikosei.or.jp" }, "geometry": { "type": "Point", "coordinates": [ 138.8444292, 35.4383855 ] } },
{ "type": "Feature", "properties": { "内容": "健康科学大学クリニック【通所リハビリテーション】山梨県南都留郡富士河口湖町小立2487", "url": "https://www.kaigokensaku.mhlw.go.jp/19/index.php?action_kouhyou_detail_004_kani=true&JigyosyoCd=1911310769-00&ServiceCd=160&Type=search", "url2": "https://www.kenkoudai-clinic.com/" }, "geometry": { "type": "Point", "coordinates": [ 138.7536577, 35.5040146 ] } },
{ "type": "Feature", "properties": { "内容": "介護老人保健施設　はまなす【通所リハビリテーション】山梨県南都留郡富士河口湖町船津字桜休場６９０１", "url": "https://www.kaigokensaku.mhlw.go.jp/19/index.php?action_kouhyou_detail_004_kani=true&JigyosyoCd=1951380003-00&ServiceCd=160&Type=search", "url2": null }, "geometry": { "type": "Point", "coordinates": [ 138.760789, 35.491234 ] } },
{ "type": "Feature", "properties": { "内容": "山梨赤十字病院　通所リハビリテーション【通所リハビリテーション】山梨県南都留郡富士河口湖町船津6663-1", "url": "https://www.kaigokensaku.mhlw.go.jp/19/index.php?action_kouhyou_detail_004_kani=true&JigyosyoCd=1911310553-00&ServiceCd=160&Type=search", "url2": "https://www.yamanashi-med.jrc.or.jp/" }, "geometry": { "type": "Point", "coordinates": [ 138.767240754244995, 35.485876836273377 ] } }
]
}
