{
"type": "FeatureCollection",
"name": "geo_19_短期入所生活介護",
"crs": { "type": "name", "properties": { "name": "urn:ogc:def:crs:OGC:1.3:CRS84" } },
"features": [
{ "type": "Feature", "properties": { "内容": "指定介護老人福祉施設　コスモ【短期入所生活介護】甲府市下向山１２８０－１", "url": "https://www.kaigokensaku.mhlw.go.jp/19/index.php?action_kouhyou_detail_004_kani=true&JigyosyoCd=1970500573-00&ServiceCd=210&Type=search", "url2": null }, "geometry": { "type": "Point", "coordinates": [ 138.580895300000094, 35.5893734 ] } },
{ "type": "Feature", "properties": { "内容": "ショートステイ　志麻の郷・湯村【短期入所生活介護】山梨県甲府市湯村３－１１－１０", "url": "https://www.kaigokensaku.mhlw.go.jp/19/index.php?action_kouhyou_detail_004_kani=true&JigyosyoCd=1970102628-00&ServiceCd=210&Type=search", "url2": "http://www.hikarinosato.com" }, "geometry": { "type": "Point", "coordinates": [ 138.54816930000004, 35.6827294 ] } },
{ "type": "Feature", "properties": { "内容": "奥湯村指定短期入所生活介護事業所【短期入所生活介護】甲府市羽黒町1657-5", "url": "https://www.kaigokensaku.mhlw.go.jp/19/index.php?action_kouhyou_detail_004_kani=true&JigyosyoCd=1970100150-00&ServiceCd=210&Type=search", "url2": "okuyumura.or.jp" }, "geometry": { "type": "Point", "coordinates": [ 138.550291, 35.6927363 ] } },
{ "type": "Feature", "properties": { "内容": "フォーリーブス甲府【短期入所生活介護】山梨県甲府市東下条町107番地", "url": "https://www.kaigokensaku.mhlw.go.jp/19/index.php?action_kouhyou_detail_004_kani=true&JigyosyoCd=1970104160-00&ServiceCd=210&Type=search", "url2": "http://yotsuba-k.or.jp/" }, "geometry": { "type": "Point", "coordinates": [ 138.572717199999943, 35.6122757 ] } },
{ "type": "Feature", "properties": { "内容": "特別養護老人ホーム　和久園【短期入所生活介護】甲府市中村町4-12", "url": "https://www.kaigokensaku.mhlw.go.jp/19/index.php?action_kouhyou_detail_004_kani=true&JigyosyoCd=1970100119-00&ServiceCd=210&Type=search", "url2": null }, "geometry": { "type": "Point", "coordinates": [ 138.5331352, 35.667674 ] } },
{ "type": "Feature", "properties": { "内容": "特別養護老人ホーム　尚古園【短期入所生活介護】山梨県甲府市和田町2948番地の6", "url": "https://www.kaigokensaku.mhlw.go.jp/19/index.php?action_kouhyou_detail_004_kani=true&JigyosyoCd=1970100176-00&ServiceCd=210&Type=search", "url2": "http://www.zenrinkai.or.jp" }, "geometry": { "type": "Point", "coordinates": [ 138.5615484, 35.6875623 ] } },
{ "type": "Feature", "properties": { "内容": "ケア・コスモス【短期入所生活介護】山梨県甲府市増坪町457-1", "url": "https://www.kaigokensaku.mhlw.go.jp/19/index.php?action_kouhyou_detail_004_kani=true&JigyosyoCd=1970103303-00&ServiceCd=210&Type=search", "url2": "http://carecosmos.jp/" }, "geometry": { "type": "Point", "coordinates": [ 138.5933868, 35.6368396 ] } },
{ "type": "Feature", "properties": { "内容": "ショートステイあかし【短期入所生活介護】甲府市上町２４７３", "url": "https://www.kaigokensaku.mhlw.go.jp/19/index.php?action_kouhyou_detail_004_kani=true&JigyosyoCd=1970101166-00&ServiceCd=210&Type=search", "url2": "http://www.akashi.or.jp" }, "geometry": { "type": "Point", "coordinates": [ 138.5869844, 35.6366689 ] } },
{ "type": "Feature", "properties": { "内容": "憩いホーム　湯田の里【短期入所生活介護】山梨県甲府市幸町15-10", "url": "https://www.kaigokensaku.mhlw.go.jp/19/index.php?action_kouhyou_detail_004_kani=true&JigyosyoCd=1970105837-00&ServiceCd=210&Type=search", "url2": "https://shoju.or.jp/" }, "geometry": { "type": "Point", "coordinates": [ 138.5720254, 35.645783 ] } },
{ "type": "Feature", "properties": { "内容": "ショートステイわか柳【短期入所生活介護】山梨県甲府市山宮町3294-3", "url": "https://www.kaigokensaku.mhlw.go.jp/19/index.php?action_kouhyou_detail_004_kani=true&JigyosyoCd=1970104269-00&ServiceCd=210&Type=search", "url2": "shortstay-wakayanagi.work" }, "geometry": { "type": "Point", "coordinates": [ 138.53657290000001, 35.693850400000017 ] } },
{ "type": "Feature", "properties": { "内容": "甲府市青沼2-22-14【短期入所生活介護】山梨県甲府市青沼2-22-14", "url": "https://www.kaigokensaku.mhlw.go.jp/19/index.php?action_kouhyou_detail_004_kani=true&JigyosyoCd=1970104905-00&ServiceCd=210&Type=search", "url2": "http://www.takumi.sc/welfare" }, "geometry": { "type": "Point", "coordinates": [ 138.578484399999979, 35.6532897 ] } },
{ "type": "Feature", "properties": { "内容": "桜井寮ショートステイセンター【短期入所生活介護】山梨県甲府市桜井町558番地", "url": "https://www.kaigokensaku.mhlw.go.jp/19/index.php?action_kouhyou_detail_004_kani=true&JigyosyoCd=1970100192-00&ServiceCd=210&Type=search", "url2": "http://www.sakurai-ryo.com" }, "geometry": { "type": "Point", "coordinates": [ 138.617808700000069, 35.6577215 ] } },
{ "type": "Feature", "properties": { "内容": "ショートステイ　わかやなぎ池田【短期入所生活介護】山梨県甲府市池田3-8-8", "url": "https://www.kaigokensaku.mhlw.go.jp/19/index.php?action_kouhyou_detail_004_kani=true&JigyosyoCd=1970104558-00&ServiceCd=210&Type=search", "url2": null }, "geometry": { "type": "Point", "coordinates": [ 138.537088486542871, 35.671383610635502 ] } },
{ "type": "Feature", "properties": { "内容": "ショートステイ　ソレイユ甲府【短期入所生活介護】山梨県甲府市西高橋町277番地ソレイユ甲府", "url": "https://www.kaigokensaku.mhlw.go.jp/19/index.php?action_kouhyou_detail_004_kani=true&JigyosyoCd=1970104384-00&ServiceCd=210&Type=search", "url2": "http://www.fujikoseikai.or.jp" }, "geometry": { "type": "Point", "coordinates": [ 138.597003, 35.639858 ] } },
{ "type": "Feature", "properties": { "内容": "地域密着型特別養護老人ホーム　和楽WARAKU【短期入所生活介護】山梨県甲府市大和町3番地6号地域密着型特別養護老人ホーム　和楽WARAKU", "url": "https://www.kaigokensaku.mhlw.go.jp/19/index.php?action_kouhyou_detail_004_kani=true&JigyosyoCd=1970104467-00&ServiceCd=210&Type=search", "url2": "http://www.kashinokai.or.jp" }, "geometry": { "type": "Point", "coordinates": [ 138.556318499999946, 35.6783774 ] } },
{ "type": "Feature", "properties": { "内容": "指定短期入所生活介護事業所コスモ・アンシア【短期入所生活介護】⼭梨県甲府市相⽣3-3-14", "url": "https://www.kaigokensaku.mhlw.go.jp/19/index.php?action_kouhyou_detail_004_kani=true&JigyosyoCd=1970103329-00&ServiceCd=210&Type=search", "url2": "https://ikiikiclub.com/" }, "geometry": { "type": "Point", "coordinates": [ 138.568300099999988, 35.662133 ] } },
{ "type": "Feature", "properties": { "内容": "アルファケア南甲府介護施設【短期入所生活介護】山梨県甲府市南口町2番7号", "url": "https://www.kaigokensaku.mhlw.go.jp/19/index.php?action_kouhyou_detail_004_kani=true&JigyosyoCd=1970100549-00&ServiceCd=210&Type=search", "url2": "http//www.alphacare.jp" }, "geometry": { "type": "Point", "coordinates": [ 138.5800237, 35.646754 ] } },
{ "type": "Feature", "properties": { "内容": "特別養護老人ホーム　清栄なでしこ荘【短期入所生活介護】山梨県甲府市横根町５５４", "url": "https://www.kaigokensaku.mhlw.go.jp/19/index.php?action_kouhyou_detail_004_kani=true&JigyosyoCd=1970100994-00&ServiceCd=210&Type=search", "url2": null }, "geometry": { "type": "Point", "coordinates": [ 138.6151137, 35.6575986 ] } },
{ "type": "Feature", "properties": { "内容": "ショートステイ桜森荘【短期入所生活介護】山梨県甲府市上石田1-3-14", "url": "https://www.kaigokensaku.mhlw.go.jp/19/index.php?action_kouhyou_detail_004_kani=true&JigyosyoCd=1970105852-00&ServiceCd=210&Type=search", "url2": "oumorisou@fuyo-kensetsu.co.jp" }, "geometry": { "type": "Point", "coordinates": [ 138.55222040000001, 35.6591644 ] } },
{ "type": "Feature", "properties": { "内容": "社会福祉法人　正寿福祉会　憩いホーム緑町【短期入所生活介護】甲府市若松町4－15憩いホーム　緑町", "url": "https://www.kaigokensaku.mhlw.go.jp/19/index.php?action_kouhyou_detail_004_kani=true&JigyosyoCd=1970103402-00&ServiceCd=210&Type=search", "url2": "https://shoju.or.jp/" }, "geometry": { "type": "Point", "coordinates": [ 138.5707552, 35.6565693 ] } },
{ "type": "Feature", "properties": { "内容": "パティオ蓬澤ショートステイ【短期入所生活介護】山梨県甲府市蓬沢１丁目７番35号", "url": "https://www.kaigokensaku.mhlw.go.jp/19/index.php?action_kouhyou_detail_004_kani=true&JigyosyoCd=1970104277-00&ServiceCd=210&Type=search", "url2": "https://c-c-fukushikai.com/#a01" }, "geometry": { "type": "Point", "coordinates": [ 138.590286099999986, 35.6443054 ] } },
{ "type": "Feature", "properties": { "内容": "トリアス短期入所生活介護【短期入所生活介護】山梨県甲府市国玉町951-1", "url": "https://www.kaigokensaku.mhlw.go.jp/19/index.php?action_kouhyou_detail_004_kani=true&JigyosyoCd=1970100200-00&ServiceCd=210&Type=search", "url2": "http://www.trias.or.jp/" }, "geometry": { "type": "Point", "coordinates": [ 138.5986866, 35.6465584 ] } },
{ "type": "Feature", "properties": { "内容": "風林荘ショートステイ【短期入所生活介護】山梨県甲府市宮原町１１９１", "url": "https://www.kaigokensaku.mhlw.go.jp/19/index.php?action_kouhyou_detail_004_kani=true&JigyosyoCd=1970101919-00&ServiceCd=210&Type=search", "url2": "http://fuurinsou.com" }, "geometry": { "type": "Point", "coordinates": [ 138.557206800000017, 35.6176865 ] } },
{ "type": "Feature", "properties": { "内容": "ショートステイ　風林荘別館【短期入所生活介護】山梨県甲府市宮原町１２２７－１", "url": "https://www.kaigokensaku.mhlw.go.jp/19/index.php?action_kouhyou_detail_004_kani=true&JigyosyoCd=1970105043-00&ServiceCd=210&Type=search", "url2": "http://fuurinsou.com" }, "geometry": { "type": "Point", "coordinates": [ 138.554995299999973, 35.6205327 ] } },
{ "type": "Feature", "properties": { "内容": "アルファケア北甲府介護施設【短期入所生活介護】山梨県甲府市山宮町703-1", "url": "https://www.kaigokensaku.mhlw.go.jp/19/index.php?action_kouhyou_detail_004_kani=true&JigyosyoCd=1970101356-00&ServiceCd=210&Type=search", "url2": "https://www.alphacare.jp" }, "geometry": { "type": "Point", "coordinates": [ 138.532555300000013, 35.6882093 ] } },
{ "type": "Feature", "properties": { "内容": "アルファケア西甲府介護施設【短期入所生活介護】富竹1-3-10", "url": "https://www.kaigokensaku.mhlw.go.jp/19/index.php?action_kouhyou_detail_004_kani=true&JigyosyoCd=1970103576-00&ServiceCd=210&Type=search", "url2": "http://www.alphacare.jp" }, "geometry": { "type": "Point", "coordinates": [ 138.5469292, 35.6580472 ] } },
{ "type": "Feature", "properties": { "内容": "南甲府ケアセンターそよ風【短期入所生活介護】住吉3丁目27番7号", "url": "https://www.kaigokensaku.mhlw.go.jp/19/index.php?action_kouhyou_detail_004_kani=true&JigyosyoCd=1970103477-00&ServiceCd=210&Type=search", "url2": "http//www.unimat-rc.co.jp/" }, "geometry": { "type": "Point", "coordinates": [ 136.534101599999985, 34.861634 ] } },
{ "type": "Feature", "properties": { "内容": "ショートステイたから【短期入所生活介護】山梨県甲府市宝1-4-16", "url": "https://www.kaigokensaku.mhlw.go.jp/19/index.php?action_kouhyou_detail_004_kani=true&JigyosyoCd=1970101943-00&ServiceCd=210&Type=search", "url2": "http://ykf.or.jp/" }, "geometry": { "type": "Point", "coordinates": [ 138.561012340661591, 35.667960766306145 ] } },
{ "type": "Feature", "properties": { "内容": "指定短期入所生活介護事業所コスモ・アルボーレ【短期入所生活介護】山梨県甲府市相生3-2-1", "url": "https://www.kaigokensaku.mhlw.go.jp/19/index.php?action_kouhyou_detail_004_kani=true&JigyosyoCd=1970103410-00&ServiceCd=210&Type=search", "url2": "https://ikiiki-cosumo.info/" }, "geometry": { "type": "Point", "coordinates": [ 138.569990700000062, 35.6541588 ] } },
{ "type": "Feature", "properties": { "内容": "憩いホーム　新平和　ショートステイ【短期入所生活介護】山梨県甲府市伊勢3丁目3-25", "url": "https://www.kaigokensaku.mhlw.go.jp/19/index.php?action_kouhyou_detail_004_kani=true&JigyosyoCd=1970106017-00&ServiceCd=210&Type=search", "url2": "https://shoju.or.jp/" }, "geometry": { "type": "Point", "coordinates": [ 138.567272922564456, 35.644120341138006 ] } },
{ "type": "Feature", "properties": { "内容": "ショートステイ増坪東【短期入所生活介護】山梨県甲府市増坪町327番地1", "url": "https://www.kaigokensaku.mhlw.go.jp/19/index.php?action_kouhyou_detail_004_kani=true&JigyosyoCd=1970105167-00&ServiceCd=210&Type=search", "url2": null }, "geometry": { "type": "Point", "coordinates": [ 138.592543500000033, 35.6339495 ] } },
{ "type": "Feature", "properties": { "内容": "春光園指定短期入所生活介護【短期入所生活介護】山梨県甲府市増坪町681", "url": "https://www.kaigokensaku.mhlw.go.jp/19/index.php?action_kouhyou_detail_004_kani=true&JigyosyoCd=1970100044-00&ServiceCd=210&Type=search", "url2": "http://shinwakai1979.or.jp/" }, "geometry": { "type": "Point", "coordinates": [ 138.594295200000033, 35.6344728 ] } },
{ "type": "Feature", "properties": { "内容": "ショートスティ万寿の杜【短期入所生活介護】山梨県甲府市湯村3丁目8－1", "url": "https://www.kaigokensaku.mhlw.go.jp/19/index.php?action_kouhyou_detail_004_kani=true&JigyosyoCd=1970105068-00&ServiceCd=210&Type=search", "url2": "http://c-and-c.or.jp/" }, "geometry": { "type": "Point", "coordinates": [ 138.5521802, 35.6809338 ] } },
{ "type": "Feature", "properties": { "内容": "快晴苑指定短期入所生活介護事業所【短期入所生活介護】山梨県甲府市大津町３３３", "url": "https://www.kaigokensaku.mhlw.go.jp/19/index.php?action_kouhyou_detail_004_kani=true&JigyosyoCd=1970100184-00&ServiceCd=210&Type=search", "url2": "http://www.h5.dion.ne.jp/~kaiseien/" }, "geometry": { "type": "Point", "coordinates": [ 138.563861800000012, 35.6090356 ] } },
{ "type": "Feature", "properties": { "内容": "ショートステイ　恵信ヴィレッタ甲府【短期入所生活介護】山梨県甲府市下飯田２－２－３０", "url": "https://www.kaigokensaku.mhlw.go.jp/19/index.php?action_kouhyou_detail_004_kani=true&JigyosyoCd=1970102313-00&ServiceCd=210&Type=search", "url2": "http://www.villetta-kofu.com/index.html" }, "geometry": { "type": "Point", "coordinates": [ 138.54904769999996, 35.6642764 ] } },
{ "type": "Feature", "properties": { "内容": "ショートステイいけだの里【短期入所生活介護】山梨県甲府市下飯田1-2-17", "url": "https://www.kaigokensaku.mhlw.go.jp/19/index.php?action_kouhyou_detail_004_kani=true&JigyosyoCd=1970105258-00&ServiceCd=210&Type=search", "url2": "http://ykf.or.jp" }, "geometry": { "type": "Point", "coordinates": [ 138.545131, 35.669153 ] } },
{ "type": "Feature", "properties": { "内容": "コスモ・アビターレ【短期入所生活介護】山梨県甲府市相生1-2-3", "url": "https://www.kaigokensaku.mhlw.go.jp/19/index.php?action_kouhyou_detail_004_kani=true&JigyosyoCd=1970102636-00&ServiceCd=210&Type=search", "url2": "http://www.ikiiki-cosumo.info/" }, "geometry": { "type": "Point", "coordinates": [ 138.566543599999932, 35.6580249 ] } },
{ "type": "Feature", "properties": { "内容": "東甲府ケアセンターひばり【短期入所生活介護】甲府市川田町４０－２", "url": "https://www.kaigokensaku.mhlw.go.jp/19/index.php?action_kouhyou_detail_004_kani=true&JigyosyoCd=1970102669-00&ServiceCd=210&Type=search", "url2": "https://ekh-hibari.jimdofree.com/" }, "geometry": { "type": "Point", "coordinates": [ 138.6198013, 35.655922 ] } },
{ "type": "Feature", "properties": { "内容": "恵信甲府ケアセンター【短期入所生活介護】山梨県甲府市上阿原町398", "url": "https://www.kaigokensaku.mhlw.go.jp/19/index.php?action_kouhyou_detail_004_kani=true&JigyosyoCd=1970103295-00&ServiceCd=210&Type=search", "url2": "http://www.keishin-group.net" }, "geometry": { "type": "Point", "coordinates": [ 138.61151540000003, 35.6459381 ] } },
{ "type": "Feature", "properties": { "内容": "寿荘指定短期入所生活介護事業所【短期入所生活介護】山梨県富士吉田市下吉田9-9-10", "url": "https://www.kaigokensaku.mhlw.go.jp/19/index.php?action_kouhyou_detail_004_kani=true&JigyosyoCd=1971200199-00&ServiceCd=210&Type=search", "url2": "https://fujiyoshida294.or.jp" }, "geometry": { "type": "Point", "coordinates": [ 138.811216200000018, 35.497202800000018 ] } },
{ "type": "Feature", "properties": { "内容": "ショートステイ　つくし庵【短期入所生活介護】山梨県富士吉田市上吉田東九丁目17番1号", "url": "https://www.kaigokensaku.mhlw.go.jp/19/index.php?action_kouhyou_detail_004_kani=true&JigyosyoCd=1971200439-00&ServiceCd=210&Type=search", "url2": "http://tsukushian.com/" }, "geometry": { "type": "Point", "coordinates": [ 138.809859700000089, 35.4677655 ] } },
{ "type": "Feature", "properties": { "内容": "短期入所生活介護事業所おりひめ【短期入所生活介護】山梨県富士吉田市上吉田５４１０番地の１", "url": "https://www.kaigokensaku.mhlw.go.jp/19/index.php?action_kouhyou_detail_004_kani=true&JigyosyoCd=1971200520-00&ServiceCd=210&Type=search", "url2": "http://www.snhfuyoso.com" }, "geometry": { "type": "Point", "coordinates": [ 138.790948, 35.4723539 ] } },
{ "type": "Feature", "properties": { "内容": "特別養護老人ホーム芙蓉荘【短期入所生活介護】山梨県　富士吉田市　松山1613", "url": "https://www.kaigokensaku.mhlw.go.jp/19/index.php?action_kouhyou_detail_004_kani=true&JigyosyoCd=1971200025-00&ServiceCd=210&Type=search", "url2": "http://www.snhfuyoso.com" }, "geometry": { "type": "Point", "coordinates": [ 138.777937800000018, 35.4810441 ] } },
{ "type": "Feature", "properties": { "内容": "ショートステイ慶和荘シンビオシス【短期入所生活介護】山梨県富士吉田市上吉田東4-8-4", "url": "https://www.kaigokensaku.mhlw.go.jp/19/index.php?action_kouhyou_detail_004_kani=true&JigyosyoCd=1971200710-00&ServiceCd=210&Type=search", "url2": "http://www.mswc.or.jp" }, "geometry": { "type": "Point", "coordinates": [ 138.8020256, 35.4740921 ] } },
{ "type": "Feature", "properties": { "内容": "ショートステイ慶和荘【短期入所生活介護】山梨県富士吉田市上吉田字熊穴４５８４", "url": "https://www.kaigokensaku.mhlw.go.jp/19/index.php?action_kouhyou_detail_004_kani=true&JigyosyoCd=1971200314-00&ServiceCd=210&Type=search", "url2": "http://www.mswc.or.jp" }, "geometry": { "type": "Point", "coordinates": [ 138.783399, 35.473856 ] } },
{ "type": "Feature", "properties": { "内容": "短期入所生活介護事業所　もりの郷【短期入所生活介護】山梨県都留市与縄７１６－１", "url": "https://www.kaigokensaku.mhlw.go.jp/19/index.php?action_kouhyou_detail_004_kani=true&JigyosyoCd=1971100225-00&ServiceCd=210&Type=search", "url2": "http://care-net.biz/19/morinosato/" }, "geometry": { "type": "Point", "coordinates": [ 138.949636899999973, 35.5591333 ] } },
{ "type": "Feature", "properties": { "内容": "ショートステイ　回生荘【短期入所生活介護】山梨県都留市境３６番地", "url": "https://www.kaigokensaku.mhlw.go.jp/19/index.php?action_kouhyou_detail_004_kani=true&JigyosyoCd=1971100191-00&ServiceCd=210&Type=search", "url2": "http://www.office@kaisei-so.jp" }, "geometry": { "type": "Point", "coordinates": [ 138.863547899999958, 35.5286905 ] } },
{ "type": "Feature", "properties": { "内容": "ショートステイ　はなみずき【短期入所生活介護】山梨県都留市四日市場字瀬中　188", "url": "https://www.kaigokensaku.mhlw.go.jp/19/index.php?action_kouhyou_detail_004_kani=true&JigyosyoCd=1911110474-00&ServiceCd=210&Type=search", "url2": "https://www.toranomon.or.jp/turu/" }, "geometry": { "type": "Point", "coordinates": [ 138.9177641, 35.5675086 ] } },
{ "type": "Feature", "properties": { "内容": "よこぶき荘指定短期入所生活介護事業所【短期入所生活介護】都留市川茂３２８－４", "url": "https://www.kaigokensaku.mhlw.go.jp/19/index.php?action_kouhyou_detail_004_kani=true&JigyosyoCd=1971100019-00&ServiceCd=210&Type=search", "url2": "http:///www.yokobukiso.or.jp" }, "geometry": { "type": "Point", "coordinates": [ 138.915284899999961, 35.575571 ] } },
{ "type": "Feature", "properties": { "内容": "笛吹荘短期入所生活介護事業所【短期入所生活介護】山梨県山梨市牧丘町室伏２４５２番地", "url": "https://www.kaigokensaku.mhlw.go.jp/19/index.php?action_kouhyou_detail_004_kani=true&JigyosyoCd=1970400154-00&ServiceCd=210&Type=search", "url2": "http://www.fruits.jp/~jyukokai/" }, "geometry": { "type": "Point", "coordinates": [ 138.721645599999988, 35.7525594 ] } },
{ "type": "Feature", "properties": { "内容": "短期入所生活介護　恵信サテライトロジェ山梨【短期入所生活介護】山梨県山梨市落合464-1", "url": "https://www.kaigokensaku.mhlw.go.jp/19/index.php?action_kouhyou_detail_004_kani=true&JigyosyoCd=1970200448-00&ServiceCd=210&Type=search", "url2": "http://www.keishin-group.net/satellite/index.html" }, "geometry": { "type": "Point", "coordinates": [ 138.6577361, 35.6781229 ] } },
{ "type": "Feature", "properties": { "内容": "サテライト桃源荘日川短期入所施設【短期入所生活介護】山梨県山梨市一町田中１９７", "url": "https://www.kaigokensaku.mhlw.go.jp/19/index.php?action_kouhyou_detail_004_kani=true&JigyosyoCd=1970200588-00&ServiceCd=210&Type=search", "url2": "http://www.yfj.or.jp/" }, "geometry": { "type": "Point", "coordinates": [ 138.673036983722767, 35.663264238980723 ] } },
{ "type": "Feature", "properties": { "内容": "山梨ケアセンターそよ風【短期入所生活介護】山梨県山梨市上神内川15-5", "url": "https://www.kaigokensaku.mhlw.go.jp/19/index.php?action_kouhyou_detail_004_kani=true&JigyosyoCd=1970200174-00&ServiceCd=210&Type=search", "url2": "http://www.sykz.co.jp" }, "geometry": { "type": "Point", "coordinates": [ 138.686833500000034, 35.685103 ] } },
{ "type": "Feature", "properties": { "内容": "恵信ロジェ山梨【短期入所生活介護】山梨県山梨市南1335", "url": "https://www.kaigokensaku.mhlw.go.jp/19/index.php?action_kouhyou_detail_004_kani=true&JigyosyoCd=1970200166-00&ServiceCd=210&Type=search", "url2": "http://www.keishin-group.net/roger/index.htm" }, "geometry": { "type": "Point", "coordinates": [ 138.685585899999978, 35.70064 ] } },
{ "type": "Feature", "properties": { "内容": "ショートステイやまびこ【短期入所生活介護】山梨県大月市初狩町中初狩3274-45", "url": "https://www.kaigokensaku.mhlw.go.jp/19/index.php?action_kouhyou_detail_004_kani=true&JigyosyoCd=1971400518-00&ServiceCd=210&Type=search", "url2": "http://www.fujikosei.or.jp" }, "geometry": { "type": "Point", "coordinates": [ 138.876643601019595, 35.580505446843063 ] } },
{ "type": "Feature", "properties": { "内容": "ショートステイしにあ【短期入所生活介護】山梨県大月市初狩町下初狩４１４６－１０", "url": "https://www.kaigokensaku.mhlw.go.jp/19/index.php?action_kouhyou_detail_004_kani=true&JigyosyoCd=1971400393-00&ServiceCd=210&Type=search", "url2": "http://www.hujikosei.or.jp" }, "geometry": { "type": "Point", "coordinates": [ 138.876693499999988, 35.5804987 ] } },
{ "type": "Feature", "properties": { "内容": "大月富士見苑指定短期入所介護事業所【短期入所生活介護】山梨県大月市大月町真木４６６０", "url": "https://www.kaigokensaku.mhlw.go.jp/19/index.php?action_kouhyou_detail_004_kani=true&JigyosyoCd=1971400021-00&ServiceCd=210&Type=search", "url2": "https://www.heisei294.org" }, "geometry": { "type": "Point", "coordinates": [ 138.8900659, 35.7041541 ] } },
{ "type": "Feature", "properties": { "内容": "穴山の杜短期入所生活介護事業所【短期入所生活介護】穴山町4410-3", "url": "https://www.kaigokensaku.mhlw.go.jp/19/index.php?action_kouhyou_detail_004_kani=true&JigyosyoCd=1970900393-00&ServiceCd=210&Type=search", "url2": "http://www.sip-shinwakai.jp/" }, "geometry": { "type": "Point", "coordinates": [ 138.416493800000012, 35.7537137 ] } },
{ "type": "Feature", "properties": { "内容": "フルリールにらさき【短期入所生活介護】山梨県韮崎市富士見二丁目15-27", "url": "https://www.kaigokensaku.mhlw.go.jp/19/index.php?action_kouhyou_detail_004_kani=true&JigyosyoCd=1970900302-00&ServiceCd=210&Type=search", "url2": "https://sanseifukushikai.com" }, "geometry": { "type": "Point", "coordinates": [ 138.4566175, 35.7081249 ] } },
{ "type": "Feature", "properties": { "内容": "特別養護老人ホーム　穴山の杜【短期入所生活介護】山梨県韮崎市穴山町5390", "url": "https://www.kaigokensaku.mhlw.go.jp/19/index.php?action_kouhyou_detail_004_kani=true&JigyosyoCd=1970900203-00&ServiceCd=210&Type=search", "url2": null }, "geometry": { "type": "Point", "coordinates": [ 138.4144325, 35.7596382 ] } },
{ "type": "Feature", "properties": { "内容": "ショートステイ韮崎大【短期入所生活介護】山梨県韮崎市栄1丁目7番46号", "url": "https://www.kaigokensaku.mhlw.go.jp/19/index.php?action_kouhyou_detail_004_kani=true&JigyosyoCd=1970900476-00&ServiceCd=210&Type=search", "url2": null }, "geometry": { "type": "Point", "coordinates": [ 138.4663888, 35.6964419 ] } },
{ "type": "Feature", "properties": { "内容": "白根聖明園短期入所生活介護事業所【短期入所生活介護】山梨県南アルプス市在家塚１３０５", "url": "https://www.kaigokensaku.mhlw.go.jp/19/index.php?action_kouhyou_detail_004_kani=true&JigyosyoCd=1970800668-00&ServiceCd=210&Type=search", "url2": "http://www8.ocn.ne.jp/seimeien/" }, "geometry": { "type": "Point", "coordinates": [ 138.467395399999987, 35.641831 ] } },
{ "type": "Feature", "properties": { "内容": "特別養護老人ホーム　豊寿荘【短期入所生活介護】南アルプス市十日市場７２７－１", "url": "https://www.kaigokensaku.mhlw.go.jp/19/index.php?action_kouhyou_detail_004_kani=true&JigyosyoCd=1971600752-00&ServiceCd=210&Type=search", "url2": "http://www.yfj.or.jp/houjyu/" }, "geometry": { "type": "Point", "coordinates": [ 138.476814900000022, 35.607125 ] } },
{ "type": "Feature", "properties": { "内容": "ショートステイ　みらい【短期入所生活介護】山梨県南アルプス市東南湖３３６１－１", "url": "https://www.kaigokensaku.mhlw.go.jp/19/index.php?action_kouhyou_detail_004_kani=true&JigyosyoCd=1971601081-00&ServiceCd=210&Type=search", "url2": "https://www.shortstay-mirai.com/" }, "geometry": { "type": "Point", "coordinates": [ 138.494319899999937, 35.5834691 ] } },
{ "type": "Feature", "properties": { "内容": "南アルプス市宮沢介護施設【短期入所生活介護】山梨県南アルプス市宮沢152", "url": "https://www.kaigokensaku.mhlw.go.jp/19/index.php?action_kouhyou_detail_004_kani=true&JigyosyoCd=1971600893-00&ServiceCd=210&Type=search", "url2": "http://www.takahara-hp.or.jp/" }, "geometry": { "type": "Point", "coordinates": [ 138.475540499999966, 35.5829283 ] } },
{ "type": "Feature", "properties": { "内容": "南アルプス市富士見介護施設【短期入所生活介護】山梨県南アルプス市小笠原1108-1", "url": "https://www.kaigokensaku.mhlw.go.jp/19/index.php?action_kouhyou_detail_004_kani=true&JigyosyoCd=1971601115-00&ServiceCd=210&Type=search", "url2": "http://www.takahara-hp.or.jp/" }, "geometry": { "type": "Point", "coordinates": [ 138.463549199999989, 35.6156126 ] } },
{ "type": "Feature", "properties": { "内容": "特別養護老人ホーム南岳荘【短期入所生活介護】山梨県南アルプス市徳永４３６－１", "url": "https://www.kaigokensaku.mhlw.go.jp/19/index.php?action_kouhyou_detail_004_kani=true&JigyosyoCd=1971600224-00&ServiceCd=210&Type=search", "url2": "http://www.nangakusou.or.jp/" }, "geometry": { "type": "Point", "coordinates": [ 138.4950493, 35.6549538 ] } },
{ "type": "Feature", "properties": { "内容": "ひまわりショートヒルズ【短期入所生活介護】山梨県南アルプス市小笠原1084-1", "url": "https://www.kaigokensaku.mhlw.go.jp/19/index.php?action_kouhyou_detail_004_kani=true&JigyosyoCd=1971601065-00&ServiceCd=210&Type=search", "url2": "himawari@eco.ocn.ne.jp" }, "geometry": { "type": "Point", "coordinates": [ 138.4620069, 35.6171279 ] } },
{ "type": "Feature", "properties": { "内容": "特別養護老人ホーム　花菱荘【短期入所生活介護】山梨県南アルプス市田島1108", "url": "https://www.kaigokensaku.mhlw.go.jp/19/index.php?action_kouhyou_detail_004_kani=true&JigyosyoCd=1970800197-00&ServiceCd=210&Type=search", "url2": null }, "geometry": { "type": "Point", "coordinates": [ 138.48742390000001, 35.5930268 ] } },
{ "type": "Feature", "properties": { "内容": "櫛形荘短期入所生活介護事業所【短期入所生活介護】山梨県南アルプス市上宮地１４０８", "url": "https://www.kaigokensaku.mhlw.go.jp/19/index.php?action_kouhyou_detail_004_kani=true&JigyosyoCd=1970800486-00&ServiceCd=210&Type=search", "url2": "https://www.kushigatasou.com/" }, "geometry": { "type": "Point", "coordinates": [ 138.444051100000024, 35.6141961 ] } },
{ "type": "Feature", "properties": { "内容": "ショートステイももその【短期入所生活介護】山梨県南アルプス市桃園379", "url": "https://www.kaigokensaku.mhlw.go.jp/19/index.php?action_kouhyou_detail_004_kani=true&JigyosyoCd=1971600935-00&ServiceCd=210&Type=search", "url2": "http://www.yamanashi-min.jp/fukushikai/" }, "geometry": { "type": "Point", "coordinates": [ 138.463148899999965, 35.628427 ] } },
{ "type": "Feature", "properties": { "内容": "長寿荘指定短期入所生活介護事業所【短期入所生活介護】山梨県北杜市須玉町比志６４６５番地の３", "url": "https://www.kaigokensaku.mhlw.go.jp/19/index.php?action_kouhyou_detail_004_kani=true&JigyosyoCd=1971000037-00&ServiceCd=210&Type=search", "url2": null }, "geometry": { "type": "Point", "coordinates": [ 138.534390900000062, 35.8646898 ] } },
{ "type": "Feature", "properties": { "内容": "特別養護老人ホーム　みのる荘【短期入所生活介護】山梨県北杜市高根町箕輪２２７０－１", "url": "https://www.kaigokensaku.mhlw.go.jp/19/index.php?action_kouhyou_detail_004_kani=true&JigyosyoCd=1971000250-00&ServiceCd=210&Type=search", "url2": "https://care-net.biz/19/minoru/" }, "geometry": { "type": "Point", "coordinates": [ 138.4268198, 35.8218681 ] } },
{ "type": "Feature", "properties": { "内容": "仁生園ショートステイセンター【短期入所生活介護】山梨県北杜市長坂町小荒間菅間1293番地", "url": "https://www.kaigokensaku.mhlw.go.jp/19/index.php?action_kouhyou_detail_004_kani=true&JigyosyoCd=1971000011-00&ServiceCd=210&Type=search", "url2": "http://www.aijyukai.com" }, "geometry": { "type": "Point", "coordinates": [ 138.3471257, 35.8753004 ] } },
{ "type": "Feature", "properties": { "内容": "明山荘指定短期入所生活介護事業所【短期入所生活介護】山梨県北杜市明野町上手５２０", "url": "https://www.kaigokensaku.mhlw.go.jp/19/index.php?action_kouhyou_detail_004_kani=true&JigyosyoCd=1971000029-00&ServiceCd=210&Type=search", "url2": "http://www.ryokuju.com" }, "geometry": { "type": "Point", "coordinates": [ 138.429392300000018, 35.7702452 ] } },
{ "type": "Feature", "properties": { "内容": "特別養護老人ホーム　あかさか【短期入所生活介護】山梨県甲斐市竜王新町２１８８－１", "url": "https://www.kaigokensaku.mhlw.go.jp/19/index.php?action_kouhyou_detail_004_kani=true&JigyosyoCd=1971700396-00&ServiceCd=210&Type=search", "url2": null }, "geometry": { "type": "Point", "coordinates": [ 138.5073327, 35.6789988 ] } },
{ "type": "Feature", "properties": { "内容": "恵信りほくケアセンター　短期入所生活介護【短期入所生活介護】山梨県甲斐市岩森1170番1", "url": "https://www.kaigokensaku.mhlw.go.jp/19/index.php?action_kouhyou_detail_004_kani=true&JigyosyoCd=1971700883-00&ServiceCd=210&Type=search", "url2": "http://www.keishin-group.net/rihoku/carecenter/index.html" }, "geometry": { "type": "Point", "coordinates": [ 138.49508830000002, 35.6923616 ] } },
{ "type": "Feature", "properties": { "内容": "ショートステイ　桑の実の郷・ふたば【短期入所生活介護】山梨県甲斐市宇津谷1066", "url": "https://www.kaigokensaku.mhlw.go.jp/19/index.php?action_kouhyou_detail_004_kani=true&JigyosyoCd=1971701147-00&ServiceCd=210&Type=search", "url2": "http://hikarinosato.com/" }, "geometry": { "type": "Point", "coordinates": [ 138.476227, 35.7021293 ] } },
{ "type": "Feature", "properties": { "内容": "ショートステイほほ笑みの甲斐【短期入所生活介護】山梨県甲斐市西八幡669-1", "url": "https://www.kaigokensaku.mhlw.go.jp/19/index.php?action_kouhyou_detail_004_kani=true&JigyosyoCd=1971700610-00&ServiceCd=210&Type=search", "url2": "http://hohoeminokai.jp" }, "geometry": { "type": "Point", "coordinates": [ 138.51522788836067, 35.652171799897523 ] } },
{ "type": "Feature", "properties": { "内容": "短期入所生活介護　敷島荘【短期入所生活介護】山梨県甲斐市大久保1357", "url": "https://www.kaigokensaku.mhlw.go.jp/19/index.php?action_kouhyou_detail_004_kani=true&JigyosyoCd=1970800221-00&ServiceCd=210&Type=search", "url2": "shikishimasou.net" }, "geometry": { "type": "Point", "coordinates": [ 138.515519, 35.6933058 ] } },
{ "type": "Feature", "properties": { "内容": "めぐみ荘ショートステイセンター【短期入所生活介護】山梨県甲斐市竜王644-5", "url": "https://www.kaigokensaku.mhlw.go.jp/19/index.php?action_kouhyou_detail_004_kani=true&JigyosyoCd=1970800189-00&ServiceCd=210&Type=search", "url2": "http://www.megumisou.jp/" }, "geometry": { "type": "Point", "coordinates": [ 138.50751630000002, 35.6716075 ] } },
{ "type": "Feature", "properties": { "内容": "特別養護老人ホーム　ゆめみどり【短期入所生活介護】山梨県甲斐市玉川１７００－１", "url": "https://www.kaigokensaku.mhlw.go.jp/19/index.php?action_kouhyou_detail_004_kani=true&JigyosyoCd=1971700206-00&ServiceCd=210&Type=search", "url2": "http://www.kashinokai.or.jp/" }, "geometry": { "type": "Point", "coordinates": [ 138.522757100000035, 35.6331636 ] } },
{ "type": "Feature", "properties": { "内容": "甲斐ケアセンターそよ風【短期入所生活介護】大下条869－1甲斐ケアセンターそよ風", "url": "https://www.kaigokensaku.mhlw.go.jp/19/index.php?action_kouhyou_detail_004_kani=true&JigyosyoCd=1971700891-00&ServiceCd=210&Type=search", "url2": null }, "geometry": { "type": "Point", "coordinates": [ 138.520169964418017, 35.674736897014434 ] } },
{ "type": "Feature", "properties": { "内容": "小山荘短期入所生活介護事業所【短期入所生活介護】山梨県笛吹市八代町北760", "url": "https://www.kaigokensaku.mhlw.go.jp/19/index.php?action_kouhyou_detail_004_kani=true&JigyosyoCd=1970500102-00&ServiceCd=210&Type=search", "url2": "http://misakikai.ec-net.jp" }, "geometry": { "type": "Point", "coordinates": [ 138.652020599999986, 35.6191011 ] } },
{ "type": "Feature", "properties": { "内容": "きたじま苑【短期入所生活介護】山梨県笛吹市八代町北1616-2", "url": "https://www.kaigokensaku.mhlw.go.jp/19/index.php?action_kouhyou_detail_004_kani=true&JigyosyoCd=1970500607-00&ServiceCd=210&Type=search", "url2": "http://kitajimaen.com/" }, "geometry": { "type": "Point", "coordinates": [ 138.644244299999968, 35.6188422 ] } },
{ "type": "Feature", "properties": { "内容": "ショートステイ　リブズ笛吹【短期入所生活介護】山梨県笛吹市御坂町成田2477-1リブズ笛吹", "url": "https://www.kaigokensaku.mhlw.go.jp/19/index.php?action_kouhyou_detail_004_kani=true&JigyosyoCd=1971800436-00&ServiceCd=210&Type=search", "url2": "http://www.ribs-fuefuki.jp/" }, "geometry": { "type": "Point", "coordinates": [ 138.642537, 35.6422426 ] } },
{ "type": "Feature", "properties": { "内容": "ショートステイ　エレガローザいちのみや【短期入所生活介護】山梨県笛吹市一宮町下矢作３００－３", "url": "https://www.kaigokensaku.mhlw.go.jp/19/index.php?action_kouhyou_detail_004_kani=true&JigyosyoCd=1971801038-00&ServiceCd=210&Type=search", "url2": "http://www.elegaroza.com" }, "geometry": { "type": "Point", "coordinates": [ 138.683657749212671, 35.657435419779659 ] } },
{ "type": "Feature", "properties": { "内容": "特別養護老人ホーム春日居荘【短期入所生活介護】山梨県笛吹市春日居町国府436", "url": "https://www.kaigokensaku.mhlw.go.jp/19/index.php?action_kouhyou_detail_004_kani=true&JigyosyoCd=1970400014-00&ServiceCd=210&Type=search", "url2": "http.//www.kasugaisou.jp/" }, "geometry": { "type": "Point", "coordinates": [ 138.65108246389309, 35.659413430061754 ] } },
{ "type": "Feature", "properties": { "内容": "短期入所生活介護ショートステイエール二之宮【短期入所生活介護】山梨県笛吹市御坂町二之宮1966-1", "url": "https://www.kaigokensaku.mhlw.go.jp/19/index.php?action_kouhyou_detail_004_kani=true&JigyosyoCd=1971800709-00&ServiceCd=210&Type=search", "url2": null }, "geometry": { "type": "Point", "coordinates": [ 138.6399434, 35.6329712 ] } },
{ "type": "Feature", "properties": { "内容": "特別養護老人ホーム　壽ノ家【短期入所生活介護】山梨県笛吹市石和町四日市場２０３１", "url": "https://www.kaigokensaku.mhlw.go.jp/19/index.php?action_kouhyou_detail_004_kani=true&JigyosyoCd=1970500318-00&ServiceCd=210&Type=search", "url2": "http://www.krg.ne.jp/kt.html" }, "geometry": { "type": "Point", "coordinates": [ 138.6265543, 35.6463337 ] } },
{ "type": "Feature", "properties": { "内容": "短期入所生活介護施設リリー【短期入所生活介護】山梨県笛吹市春日居町国府436", "url": "https://www.kaigokensaku.mhlw.go.jp/19/index.php?action_kouhyou_detail_004_kani=true&JigyosyoCd=1970400188-00&ServiceCd=210&Type=search", "url2": "http://www.kasugai-reha.com" }, "geometry": { "type": "Point", "coordinates": [ 138.6511998, 35.6591414 ] } },
{ "type": "Feature", "properties": { "内容": "フェリーチェ上野原【短期入所生活介護】山梨県上野原市大椚６１１番地", "url": "https://www.kaigokensaku.mhlw.go.jp/19/index.php?action_kouhyou_detail_004_kani=true&JigyosyoCd=1972000069-00&ServiceCd=210&Type=search", "url2": "http://www.heisei294.org" }, "geometry": { "type": "Point", "coordinates": [ 139.0907511, 35.634576 ] } },
{ "type": "Feature", "properties": { "内容": "特別養護老人ホーム　ヒルズ勝沼【短期入所生活介護】山梨県甲州市勝沼町下岩崎２０９１", "url": "https://www.kaigokensaku.mhlw.go.jp/19/index.php?action_kouhyou_detail_004_kani=true&JigyosyoCd=1972200099-00&ServiceCd=210&Type=search", "url2": null }, "geometry": { "type": "Point", "coordinates": [ 138.718901100000039, 35.653255 ] } },
{ "type": "Feature", "properties": { "内容": "短期入所生活介護事業所　緑風苑【短期入所生活介護】山梨県甲州市塩山下於曽１２５６番地", "url": "https://www.kaigokensaku.mhlw.go.jp/19/index.php?action_kouhyou_detail_004_kani=true&JigyosyoCd=1970300156-00&ServiceCd=210&Type=search", "url2": "http://www.ryokufuuen.com" }, "geometry": { "type": "Point", "coordinates": [ 138.725260400000025, 35.6970111 ] } },
{ "type": "Feature", "properties": { "内容": "短期入所生活介護事業所緑と風【短期入所生活介護】４０４－００４３２５７番地１", "url": "https://www.kaigokensaku.mhlw.go.jp/19/index.php?action_kouhyou_detail_004_kani=true&JigyosyoCd=1972200156-00&ServiceCd=210&Type=search", "url2": "http://www.midoritokaze.com/" }, "geometry": { "type": "Point", "coordinates": [ 140.385935300000028, 35.7636035 ] } },
{ "type": "Feature", "properties": { "内容": "さくらホーム貴良【短期入所生活介護】山梨県甲州市塩山下塩後387", "url": "https://www.kaigokensaku.mhlw.go.jp/19/index.php?action_kouhyou_detail_004_kani=true&JigyosyoCd=1972200347-00&ServiceCd=210&Type=search", "url2": "https://sakurahome-kira.jimdofree.com" }, "geometry": { "type": "Point", "coordinates": [ 138.713173024189757, 35.694435957047403 ] } },
{ "type": "Feature", "properties": { "内容": "短期入所生活介護事業所　ひかり屋形【短期入所生活介護】甲州市塩山熊野７７４－１", "url": "https://www.kaigokensaku.mhlw.go.jp/19/index.php?action_kouhyou_detail_004_kani=true&JigyosyoCd=1972200164-00&ServiceCd=210&Type=search", "url2": "hikariyakata@friend.ocn.ne.jp" }, "geometry": { "type": "Point", "coordinates": [ 138.7314307, 35.6893225 ] } },
{ "type": "Feature", "properties": { "内容": "光風園短期入所生活介護事業所【短期入所生活介護】甲州市塩山西野原603", "url": "https://www.kaigokensaku.mhlw.go.jp/19/index.php?action_kouhyou_detail_004_kani=true&JigyosyoCd=1970300016-00&ServiceCd=210&Type=search", "url2": "http://www.koufuukai-yamanashi.or.jp/" }, "geometry": { "type": "Point", "coordinates": [ 138.736151699999937, 35.6891181 ] } },
{ "type": "Feature", "properties": { "内容": "併設型小規模生活単位型短期入所生活介護　サージ【短期入所生活介護】山梨県甲州市勝沼町菱山中平4300", "url": "https://www.kaigokensaku.mhlw.go.jp/19/index.php?action_kouhyou_detail_004_kani=true&JigyosyoCd=1970400220-00&ServiceCd=210&Type=search", "url2": "http://www.katsunuma-nursing.com/" }, "geometry": { "type": "Point", "coordinates": [ 138.742215699999946, 35.6721068 ] } },
{ "type": "Feature", "properties": { "内容": "恵信塩山ケアセンター【短期入所生活介護】山梨県甲州市塩山上於曽1195", "url": "https://www.kaigokensaku.mhlw.go.jp/19/index.php?action_kouhyou_detail_004_kani=true&JigyosyoCd=1970300107-00&ServiceCd=210&Type=search", "url2": "http://www.keishin-group.net" }, "geometry": { "type": "Point", "coordinates": [ 138.72821, 35.7077459 ] } },
{ "type": "Feature", "properties": { "内容": "短期入所生活介護施設　巨峰【短期入所生活介護】山梨県甲州市勝沼町休息1300-1", "url": "https://www.kaigokensaku.mhlw.go.jp/19/index.php?action_kouhyou_detail_004_kani=true&JigyosyoCd=1972200206-00&ServiceCd=210&Type=search", "url2": "http://keisen-budou.or.jp/" }, "geometry": { "type": "Point", "coordinates": [ 138.717483899999934, 35.6752495 ] } },
{ "type": "Feature", "properties": { "内容": "地域密着型特別養護老人ホーム　サテライトぶどう畑【短期入所生活介護】山梨県甲州市勝沼町綿塚663-1", "url": "https://www.kaigokensaku.mhlw.go.jp/19/index.php?action_kouhyou_detail_004_kani=true&JigyosyoCd=1972200263-00&ServiceCd=210&Type=search", "url2": "https://keisen-budou.or.jp/" }, "geometry": { "type": "Point", "coordinates": [ 138.701896309635259, 35.675173967927314 ] } },
{ "type": "Feature", "properties": { "内容": "ふる里ホーム玉穂げんき村【短期入所生活介護】山梨県中央市乙黒235-1", "url": "https://www.kaigokensaku.mhlw.go.jp/19/index.php?action_kouhyou_detail_004_kani=true&JigyosyoCd=1972300261-00&ServiceCd=210&Type=search", "url2": null }, "geometry": { "type": "Point", "coordinates": [ 138.544578399999978, 35.595205 ] } },
{ "type": "Feature", "properties": { "内容": "「らくえん」【短期入所生活介護】山梨県中央市極楽寺748番地", "url": "https://www.kaigokensaku.mhlw.go.jp/19/index.php?action_kouhyou_detail_004_kani=true&JigyosyoCd=1970800965-00&ServiceCd=210&Type=search", "url2": "http://www.rakuen1294.com/" }, "geometry": { "type": "Point", "coordinates": [ 138.5573804, 35.6018336 ] } },
{ "type": "Feature", "properties": { "内容": "特別養護老人ホーム田富荘【短期入所生活介護】山梨県中央市西花輪499番地", "url": "https://www.kaigokensaku.mhlw.go.jp/19/index.php?action_kouhyou_detail_004_kani=true&JigyosyoCd=1970800114-00&ServiceCd=210&Type=search", "url2": "http://www.jsyamanashi.jp/tatomisou/" }, "geometry": { "type": "Point", "coordinates": [ 138.520950199999987, 35.583051400000016 ] } },
{ "type": "Feature", "properties": { "内容": "清珠荘【短期入所生活介護】山梨県西八代郡市川三郷町岩間5000", "url": "https://www.kaigokensaku.mhlw.go.jp/19/index.php?action_kouhyou_detail_004_kani=true&JigyosyoCd=1970600035-00&ServiceCd=210&Type=search", "url2": "http://www10.ocn.ne.jp/~seijusou" }, "geometry": { "type": "Point", "coordinates": [ 138.4589789, 35.4863248 ] } },
{ "type": "Feature", "properties": { "内容": "地域密着型介護介護老人福祉施設りんどうの里【短期入所生活介護】山梨県西八代郡市川三郷町高田３０４３", "url": "https://www.kaigokensaku.mhlw.go.jp/19/index.php?action_kouhyou_detail_004_kani=true&JigyosyoCd=1970600589-00&ServiceCd=210&Type=search", "url2": null }, "geometry": { "type": "Point", "coordinates": [ 138.4869313, 35.5543635 ] } },
{ "type": "Feature", "properties": { "内容": "短期入所生活介護施設　りんどうの里【短期入所生活介護】山梨県西八代郡市川三郷町高田３０４３", "url": "https://www.kaigokensaku.mhlw.go.jp/19/index.php?action_kouhyou_detail_004_kani=true&JigyosyoCd=1970600316-00&ServiceCd=210&Type=search", "url2": null }, "geometry": { "type": "Point", "coordinates": [ 138.486931300000037, 35.5543635 ] } },
{ "type": "Feature", "properties": { "内容": "短期入所生活介護施設　うぐいすの森【短期入所生活介護】山梨県西八代郡市川三郷町下大鳥居２１３１", "url": "https://www.kaigokensaku.mhlw.go.jp/19/index.php?action_kouhyou_detail_004_kani=true&JigyosyoCd=1970600506-00&ServiceCd=210&Type=search", "url2": null }, "geometry": { "type": "Point", "coordinates": [ 138.481224800000064, 35.5499216 ] } },
{ "type": "Feature", "properties": { "内容": "みのぶ荘【短期入所生活介護】山梨県南巨摩郡身延町梅平2483番地122", "url": "https://www.kaigokensaku.mhlw.go.jp/19/index.php?action_kouhyou_detail_004_kani=true&JigyosyoCd=1970700058-00&ServiceCd=210&Type=search", "url2": "http://www.jsyamanashi.jp/minobusanfukushikai/" }, "geometry": { "type": "Point", "coordinates": [ 138.4447434, 35.3703628 ] } },
{ "type": "Feature", "properties": { "内容": "短期入所生活介護事業所みのりの里いいとみ【短期入所生活介護】山梨県南巨摩郡身延町飯富2300番地", "url": "https://www.kaigokensaku.mhlw.go.jp/19/index.php?action_kouhyou_detail_004_kani=true&JigyosyoCd=1970701338-00&ServiceCd=210&Type=search", "url2": "https://minobu.or.jp" }, "geometry": { "type": "Point", "coordinates": [ 138.439146, 35.4343511 ] } },
{ "type": "Feature", "properties": { "内容": "しもべ荘老人短期入所施設、しもべ荘予防短期入所施設【短期入所生活介護】山梨県南巨摩郡身延町常葉7058番地1", "url": "https://www.kaigokensaku.mhlw.go.jp/19/index.php?action_kouhyou_detail_004_kani=true&JigyosyoCd=1970600183-00&ServiceCd=210&Type=search", "url2": null }, "geometry": { "type": "Point", "coordinates": [ 138.4782271, 35.4286239 ] } },
{ "type": "Feature", "properties": { "内容": "清珠荘　久遠の里【短期入所生活介護】山梨県南巨摩郡身延町梅平２４１２", "url": "https://www.kaigokensaku.mhlw.go.jp/19/index.php?action_kouhyou_detail_004_kani=true&JigyosyoCd=1970701031-00&ServiceCd=210&Type=search", "url2": null }, "geometry": { "type": "Point", "coordinates": [ 138.439922, 35.3707859 ] } },
{ "type": "Feature", "properties": { "内容": "指定短期入所生活介護事業所慈生園【短期入所生活介護】山梨県南巨摩郡南部町中野２８４７", "url": "https://www.kaigokensaku.mhlw.go.jp/19/index.php?action_kouhyou_detail_004_kani=true&JigyosyoCd=1970700074-00&ServiceCd=210&Type=search", "url2": "http://www.kyonan.jp/" }, "geometry": { "type": "Point", "coordinates": [ 138.45060620000001, 35.3018108 ] } },
{ "type": "Feature", "properties": { "内容": "ショートステイ・ネオライフとみざわ【短期入所生活介護】山梨県南巨摩郡南部町福士２６８８－３", "url": "https://www.kaigokensaku.mhlw.go.jp/19/index.php?action_kouhyou_detail_004_kani=true&JigyosyoCd=1970700413-00&ServiceCd=210&Type=search", "url2": "http://www.fujikoseikai.or.jp/neolife" }, "geometry": { "type": "Point", "coordinates": [ 138.482115099999987, 35.2422603 ] } },
{ "type": "Feature", "properties": { "内容": "指定短期入所生活介護事業所　福寿荘【短期入所生活介護】山梨県南巨摩郡富士川町小室1241", "url": "https://www.kaigokensaku.mhlw.go.jp/19/index.php?action_kouhyou_detail_004_kani=true&JigyosyoCd=1970700025-00&ServiceCd=210&Type=search", "url2": "http://www.togawakai.sakura.ne.jp" }, "geometry": { "type": "Point", "coordinates": [ 138.430461799999989, 35.5407657 ] } },
{ "type": "Feature", "properties": { "内容": "特別養護老人ホーム富士川荘【短期入所生活介護】山梨県南巨摩郡富士川町鰍沢1807番地", "url": "https://www.kaigokensaku.mhlw.go.jp/19/index.php?action_kouhyou_detail_004_kani=true&JigyosyoCd=1970700066-00&ServiceCd=210&Type=search", "url2": "http://fujikawasou.or.jp" }, "geometry": { "type": "Point", "coordinates": [ 138.458237, 35.5438605 ] } },
{ "type": "Feature", "properties": { "内容": "昭寿荘短期入所生活介護事業所【短期入所生活介護】山梨県中巨摩郡昭和町西条２６０５", "url": "https://www.kaigokensaku.mhlw.go.jp/19/index.php?action_kouhyou_detail_004_kani=true&JigyosyoCd=1970800684-00&ServiceCd=210&Type=search", "url2": "http://syowakai.jp" }, "geometry": { "type": "Point", "coordinates": [ 138.539048400000013, 35.6421155 ] } },
{ "type": "Feature", "properties": { "内容": "特別養護老人ホーム　いちいの木【短期入所生活介護】山梨県南都留郡忍野村内野中賀背3572番1", "url": "https://www.kaigokensaku.mhlw.go.jp/19/index.php?action_kouhyou_detail_004_kani=true&JigyosyoCd=1971300270-00&ServiceCd=210&Type=search", "url2": null }, "geometry": { "type": "Point", "coordinates": [ 138.847861400000056, 35.460098 ] } },
{ "type": "Feature", "properties": { "内容": "ショートステイ山ゆりの里【短期入所生活介護】山梨県南都留郡山中湖村山中1052-1", "url": "https://www.kaigokensaku.mhlw.go.jp/19/index.php?action_kouhyou_detail_004_kani=true&JigyosyoCd=1971300627-00&ServiceCd=210&Type=search", "url2": "https://keizankai-yamayuri.or.jp/" }, "geometry": { "type": "Point", "coordinates": [ 138.844547299999988, 35.4352906 ] } },
{ "type": "Feature", "properties": { "内容": "富士山荘指定短期入所生活介護事業所【短期入所生活介護】山梨県南都留郡鳴沢村5061", "url": "https://www.kaigokensaku.mhlw.go.jp/19/index.php?action_kouhyou_detail_004_kani=true&JigyosyoCd=1971300023-00&ServiceCd=210&Type=search", "url2": "http://www.eiju.or.jp" }, "geometry": { "type": "Point", "coordinates": [ 138.724304299999972, 35.4754244 ] } },
{ "type": "Feature", "properties": { "内容": "ショートステイ　スマイル【短期入所生活介護】山梨県富士河口湖町船津字桜休場６８８７", "url": "https://www.kaigokensaku.mhlw.go.jp/19/index.php?action_kouhyou_detail_004_kani=true&JigyosyoCd=1971300304-00&ServiceCd=210&Type=search", "url2": null }, "geometry": { "type": "Point", "coordinates": [ 138.760727078295901, 35.4912897232714 ] } },
{ "type": "Feature", "properties": { "内容": "ショートステイこころ【短期入所生活介護】山梨県南都留郡富士河口湖町船津1246-1ケアセンターこころ", "url": "https://www.kaigokensaku.mhlw.go.jp/19/index.php?action_kouhyou_detail_004_kani=true&JigyosyoCd=1971300684-00&ServiceCd=210&Type=search", "url2": null }, "geometry": { "type": "Point", "coordinates": [ 138.753943, 35.5016022 ] } }
]
}
