{
"type": "FeatureCollection",
"name": "geo_19_小学校",
"crs": { "type": "name", "properties": { "name": "urn:ogc:def:crs:EPSG::6668" } },
"features": [
{ "type": "Feature", "properties": { "P29_001": "19201", "P29_002": "B119110000010", "P29_003": "16001", "P29_004": "山梨大学教育学部附属小学校", "P29_005": "山梨県甲府市北新1-4-1", "P29_006": "1", "P29_007": "1", "P29_008": "00", "P29_009": null }, "geometry": { "type": "Point", "coordinates": [ 138.566961886060682, 35.67975720556089 ] } },
{ "type": "Feature", "properties": { "P29_001": "19211", "P29_002": "B119210000018", "P29_003": "16001", "P29_004": "笛吹市立春日居小学校", "P29_005": "山梨県笛吹市春日居町桑戸664", "P29_006": "3", "P29_007": "1", "P29_008": "00", "P29_009": null }, "geometry": { "type": "Point", "coordinates": [ 138.658662130396834, 35.671655235399022 ] } },
{ "type": "Feature", "properties": { "P29_001": "19205", "P29_002": "B119210000027", "P29_003": "16001", "P29_004": "山梨市立笛川小学校柳平分校", "P29_005": "山梨県山梨市牧丘町柳平43", "P29_006": "3", "P29_007": "9", "P29_008": "00", "P29_009": null }, "geometry": { "type": "Point", "coordinates": [ 138.654801121503539, 35.810520683118547 ] } },
{ "type": "Feature", "properties": { "P29_001": "19213", "P29_002": "B119210000036", "P29_003": "16001", "P29_004": "甲州市立勝沼小学校", "P29_005": "山梨県甲州市勝沼町勝沼3099", "P29_006": "3", "P29_007": "1", "P29_008": "00", "P29_009": null }, "geometry": { "type": "Point", "coordinates": [ 138.728474725972006, 35.662938718080568 ] } },
{ "type": "Feature", "properties": { "P29_001": "19213", "P29_002": "B119210000045", "P29_003": "16001", "P29_004": "甲州市立菱山小学校", "P29_005": "山梨県甲州市勝沼町菱山1066", "P29_006": "3", "P29_007": "1", "P29_008": "00", "P29_009": null }, "geometry": { "type": "Point", "coordinates": [ 138.745903089258576, 35.677357364703639 ] } },
{ "type": "Feature", "properties": { "P29_001": "19213", "P29_002": "B119210000054", "P29_003": "16001", "P29_004": "甲州市立東雲小学校", "P29_005": "山梨県甲州市勝沼町休息1560-1", "P29_006": "3", "P29_007": "1", "P29_008": "00", "P29_009": null }, "geometry": { "type": "Point", "coordinates": [ 138.717821524455985, 35.676307183528522 ] } },
{ "type": "Feature", "properties": { "P29_001": "19213", "P29_002": "B119210000063", "P29_003": "16001", "P29_004": "甲州市立祝小学校", "P29_005": "山梨県甲州市勝沼町下岩崎960", "P29_006": "3", "P29_007": "1", "P29_008": "00", "P29_009": null }, "geometry": { "type": "Point", "coordinates": [ 138.722312374594225, 35.656867057552454 ] } },
{ "type": "Feature", "properties": { "P29_001": "19213", "P29_002": "B119210000072", "P29_003": "16001", "P29_004": "甲州市立大和小学校", "P29_005": "山梨県甲州市大和町初鹿野1679-5", "P29_006": "3", "P29_007": "1", "P29_008": "00", "P29_009": null }, "geometry": { "type": "Point", "coordinates": [ 138.777829507825658, 35.639883918543759 ] } },
{ "type": "Feature", "properties": { "P29_001": "19211", "P29_002": "B119210000081", "P29_003": "16001", "P29_004": "笛吹市立石和南小学校", "P29_005": "山梨県笛吹市石和町市部720", "P29_006": "3", "P29_007": "1", "P29_008": "00", "P29_009": null }, "geometry": { "type": "Point", "coordinates": [ 138.637344010704226, 35.648253652627332 ] } },
{ "type": "Feature", "properties": { "P29_001": "19211", "P29_002": "B119210000090", "P29_003": "16001", "P29_004": "笛吹市立石和北小学校", "P29_005": "山梨県笛吹市石和町松本1442-20", "P29_006": "3", "P29_007": "1", "P29_008": "00", "P29_009": null }, "geometry": { "type": "Point", "coordinates": [ 138.637562152991904, 35.654505160084312 ] } },
{ "type": "Feature", "properties": { "P29_001": "19211", "P29_002": "B119210000107", "P29_003": "16001", "P29_004": "笛吹市立石和東小学校", "P29_005": "山梨県笛吹市石和町中川478", "P29_006": "3", "P29_007": "1", "P29_008": "00", "P29_009": null }, "geometry": { "type": "Point", "coordinates": [ 138.656542329691746, 35.644047194706033 ] } },
{ "type": "Feature", "properties": { "P29_001": "19211", "P29_002": "B119210000116", "P29_003": "16001", "P29_004": "笛吹市立富士見小学校", "P29_005": "山梨県笛吹市石和町今井10", "P29_006": "3", "P29_007": "1", "P29_008": "00", "P29_009": null }, "geometry": { "type": "Point", "coordinates": [ 138.611379854159878, 35.629923889472373 ] } },
{ "type": "Feature", "properties": { "P29_001": "19211", "P29_002": "B119210000125", "P29_003": "16001", "P29_004": "笛吹市立御坂東小学校", "P29_005": "山梨県笛吹市御坂町上黒駒1692", "P29_006": "3", "P29_007": "1", "P29_008": "00", "P29_009": null }, "geometry": { "type": "Point", "coordinates": [ 138.70117095062929, 35.611759302640884 ] } },
{ "type": "Feature", "properties": { "P29_001": "19211", "P29_002": "B119210000134", "P29_003": "16001", "P29_004": "笛吹市立御坂西小学校", "P29_005": "山梨県笛吹市御坂町夏目原592-1", "P29_006": "3", "P29_007": "1", "P29_008": "00", "P29_009": null }, "geometry": { "type": "Point", "coordinates": [ 138.662481842836144, 35.626154020229968 ] } },
{ "type": "Feature", "properties": { "P29_001": "19211", "P29_002": "B119210000143", "P29_003": "16001", "P29_004": "笛吹市立一宮西小学校", "P29_005": "山梨県笛吹市一宮町東原330-2", "P29_006": "3", "P29_007": "1", "P29_008": "00", "P29_009": null }, "geometry": { "type": "Point", "coordinates": [ 138.681255433612336, 35.648086872253877 ] } },
{ "type": "Feature", "properties": { "P29_001": "19211", "P29_002": "B119210000152", "P29_003": "16001", "P29_004": "笛吹市立一宮南小学校", "P29_005": "山梨県笛吹市一宮町土塚655-2", "P29_006": "3", "P29_007": "1", "P29_008": "00", "P29_009": null }, "geometry": { "type": "Point", "coordinates": [ 138.697791901456554, 35.633119018488635 ] } },
{ "type": "Feature", "properties": { "P29_001": "19211", "P29_002": "B119210000161", "P29_003": "16001", "P29_004": "笛吹市立一宮北小学校", "P29_005": "山梨県笛吹市一宮町中尾933", "P29_006": "3", "P29_007": "1", "P29_008": "00", "P29_009": null }, "geometry": { "type": "Point", "coordinates": [ 138.705666191968731, 35.657265832137888 ] } },
{ "type": "Feature", "properties": { "P29_001": "19211", "P29_002": "B119210000170", "P29_003": "16001", "P29_004": "笛吹市立境川小学校", "P29_005": "山梨県笛吹市境川町小黒坂1941", "P29_006": "3", "P29_007": "1", "P29_008": "00", "P29_009": null }, "geometry": { "type": "Point", "coordinates": [ 138.624159654055632, 35.59634914729692 ] } },
{ "type": "Feature", "properties": { "P29_001": "19201", "P29_002": "B119210000189", "P29_003": "16001", "P29_004": "甲府市立中道南小学校", "P29_005": "山梨県甲府市下向山町4366", "P29_006": "3", "P29_007": "1", "P29_008": "00", "P29_009": null }, "geometry": { "type": "Point", "coordinates": [ 138.583668475501895, 35.577583489243715 ] } },
{ "type": "Feature", "properties": { "P29_001": "19201", "P29_002": "B119210000198", "P29_003": "16001", "P29_004": "甲府市立中道北小学校", "P29_005": "山梨県甲府市上曽根町3368-36", "P29_006": "3", "P29_007": "1", "P29_008": "00", "P29_009": null }, "geometry": { "type": "Point", "coordinates": [ 138.587536464561339, 35.602546934593391 ] } },
{ "type": "Feature", "properties": { "P29_001": "19211", "P29_002": "B119210000205", "P29_003": "16001", "P29_004": "笛吹市立芦川小学校", "P29_005": "山梨県笛吹市芦川町中芦川835", "P29_006": "3", "P29_007": "1", "P29_008": "00", "P29_009": null }, "geometry": { "type": "Point", "coordinates": [ 138.670656131662412, 35.555223461526843 ] } },
{ "type": "Feature", "properties": { "P29_001": "19214", "P29_002": "B119210000214", "P29_003": "16001", "P29_004": "中央市立豊富小学校", "P29_005": "山梨県中央市大鳥居3800-1", "P29_006": "3", "P29_007": "1", "P29_008": "00", "P29_009": null }, "geometry": { "type": "Point", "coordinates": [ 138.557631365383088, 35.570621044693418 ] } },
{ "type": "Feature", "properties": { "P29_001": "19430", "P29_002": "B119210000223", "P29_003": "16001", "P29_004": "富士河口湖町立富士豊茂小学校", "P29_005": "山梨県南都留郡富士河口湖町富士ヶ嶺1209", "P29_006": "3", "P29_007": "1", "P29_008": "00", "P29_009": null }, "geometry": { "type": "Point", "coordinates": [ 138.617022492450275, 35.416664418934175 ] } },
{ "type": "Feature", "properties": { "P29_001": "19346", "P29_002": "B119210000232", "P29_003": "16001", "P29_004": "市川三郷町立大塚小学校", "P29_005": "山梨県西八代郡市川三郷町大塚4264", "P29_006": "3", "P29_007": "1", "P29_008": "00", "P29_009": null }, "geometry": { "type": "Point", "coordinates": [ 138.537548164386777, 35.570240336757109 ] } },
{ "type": "Feature", "properties": { "P29_001": "19346", "P29_002": "B119210000241", "P29_003": "16001", "P29_004": "市川三郷町立上野小学校", "P29_005": "山梨県西八代郡市川三郷町上野4916", "P29_006": "3", "P29_007": "1", "P29_008": "00", "P29_009": null }, "geometry": { "type": "Point", "coordinates": [ 138.511205810344023, 35.56450027401808 ] } },
{ "type": "Feature", "properties": { "P29_001": "19346", "P29_002": "B119210000250", "P29_003": "16001", "P29_004": "市川三郷町立市川小学校", "P29_005": "山梨県西八代郡市川三郷町市川大門5744", "P29_006": "3", "P29_007": "1", "P29_008": "00", "P29_009": null }, "geometry": { "type": "Point", "coordinates": [ 138.501422578271217, 35.559083257742515 ] } },
{ "type": "Feature", "properties": { "P29_001": "19346", "P29_002": "B119210000269", "P29_003": "16001", "P29_004": "市川三郷町立市川東小学校", "P29_005": "山梨県西八代郡市川三郷町山保6320", "P29_006": "3", "P29_007": "1", "P29_008": "00", "P29_009": null }, "geometry": { "type": "Point", "coordinates": [ 138.497125540073199, 35.524572310808068 ] } },
{ "type": "Feature", "properties": { "P29_001": "19346", "P29_002": "B119210000278", "P29_003": "16001", "P29_004": "市川三郷町立市川南小学校", "P29_005": "山梨県西八代郡市川三郷町黒沢1420", "P29_006": "3", "P29_007": "1", "P29_008": "00", "P29_009": null }, "geometry": { "type": "Point", "coordinates": [ 138.475567358245172, 35.535181518375339 ] } },
{ "type": "Feature", "properties": { "P29_001": "19346", "P29_002": "B119210000287", "P29_003": "16001", "P29_004": "市川三郷町立六郷小学校", "P29_005": "山梨県西八代郡市川三郷町岩間2917", "P29_006": "3", "P29_007": "1", "P29_008": "00", "P29_009": null }, "geometry": { "type": "Point", "coordinates": [ 138.462531909022658, 35.497691074720969 ] } },
{ "type": "Feature", "properties": { "P29_001": "19368", "P29_002": "B119210000296", "P29_003": "16001", "P29_004": "富士川町立増穂小学校", "P29_005": "山梨県南巨摩郡富士川町最勝寺320", "P29_006": "3", "P29_007": "1", "P29_008": "00", "P29_009": null }, "geometry": { "type": "Point", "coordinates": [ 138.457631548156456, 35.563304134739525 ] } },
{ "type": "Feature", "properties": { "P29_001": "19368", "P29_002": "B119210000303", "P29_003": "16001", "P29_004": "富士川町立増穂南小学校", "P29_005": "山梨県南巨摩郡富士川町小室2618", "P29_006": "3", "P29_007": "1", "P29_008": "00", "P29_009": null }, "geometry": { "type": "Point", "coordinates": [ 138.430895004932125, 35.543087000291948 ] } },
{ "type": "Feature", "properties": { "P29_001": "19368", "P29_002": "B119210000312", "P29_003": "16001", "P29_004": "富士川町立鰍沢小学校", "P29_005": "山梨県南巨摩郡富士川町鰍沢1172", "P29_006": "3", "P29_007": "1", "P29_008": "00", "P29_009": null }, "geometry": { "type": "Point", "coordinates": [ 138.460520858718411, 35.546770691684912 ] } },
{ "type": "Feature", "properties": { "P29_001": "19364", "P29_002": "B119210000321", "P29_003": "16001", "P29_004": "早川町立早川北小学校", "P29_005": "山梨県南巨摩郡早川町大原野163", "P29_006": "3", "P29_007": "1", "P29_008": "00", "P29_009": null }, "geometry": { "type": "Point", "coordinates": [ 138.341131700575346, 35.469257537316807 ] } },
{ "type": "Feature", "properties": { "P29_001": "19366", "P29_002": "B119210000330", "P29_003": "16001", "P29_004": "南部町立睦合小学校", "P29_005": "山梨県南巨摩郡南部町南部4376", "P29_006": "3", "P29_007": "1", "P29_008": "00", "P29_009": null }, "geometry": { "type": "Point", "coordinates": [ 138.444932093315344, 35.288435054497292 ] } },
{ "type": "Feature", "properties": { "P29_001": "19366", "P29_002": "B119210000349", "P29_003": "16001", "P29_004": "南部町立栄小学校", "P29_005": "山梨県南巨摩郡南部町内船8766", "P29_006": "3", "P29_007": "1", "P29_008": "00", "P29_009": null }, "geometry": { "type": "Point", "coordinates": [ 138.465140610353529, 35.280011341826949 ] } },
{ "type": "Feature", "properties": { "P29_001": "19210", "P29_002": "B119210000358", "P29_003": "16001", "P29_004": "甲斐市立竜王小学校", "P29_005": "山梨県甲斐市篠原2800", "P29_006": "3", "P29_007": "1", "P29_008": "00", "P29_009": null }, "geometry": { "type": "Point", "coordinates": [ 138.518440001440183, 35.659851003213788 ] } },
{ "type": "Feature", "properties": { "P29_001": "19210", "P29_002": "B119210000367", "P29_003": "16001", "P29_004": "甲斐市立玉幡小学校", "P29_005": "山梨県甲斐市西八幡2560", "P29_006": "3", "P29_007": "1", "P29_008": "00", "P29_009": null }, "geometry": { "type": "Point", "coordinates": [ 138.517140765963205, 35.64559794854145 ] } },
{ "type": "Feature", "properties": { "P29_001": "19210", "P29_002": "B119210000376", "P29_003": "16001", "P29_004": "甲斐市立敷島小学校", "P29_005": "山梨県甲斐市島上条212", "P29_006": "3", "P29_007": "1", "P29_008": "00", "P29_009": null }, "geometry": { "type": "Point", "coordinates": [ 138.530584762534943, 35.68451502750866 ] } },
{ "type": "Feature", "properties": { "P29_001": "19214", "P29_002": "B119210000385", "P29_003": "16001", "P29_004": "中央市立三村小学校", "P29_005": "山梨県中央市成島2140", "P29_006": "3", "P29_007": "1", "P29_008": "00", "P29_009": null }, "geometry": { "type": "Point", "coordinates": [ 138.544392383038058, 35.604306504821864 ] } },
{ "type": "Feature", "properties": { "P29_001": "19384", "P29_002": "B119210000394", "P29_003": "16001", "P29_004": "昭和町立押原小学校", "P29_005": "山梨県中巨摩郡昭和町押越885", "P29_006": "3", "P29_007": "1", "P29_008": "00", "P29_009": null }, "geometry": { "type": "Point", "coordinates": [ 138.534782825844417, 35.629868026339608 ] } },
{ "type": "Feature", "properties": { "P29_001": "19214", "P29_002": "B119210000401", "P29_003": "16001", "P29_004": "中央市立田富小学校", "P29_005": "山梨県中央市布施2122", "P29_006": "3", "P29_007": "1", "P29_008": "00", "P29_009": null }, "geometry": { "type": "Point", "coordinates": [ 138.522205066718755, 35.598295962691637 ] } },
{ "type": "Feature", "properties": { "P29_001": "19208", "P29_002": "B119210000410", "P29_003": "16001", "P29_004": "南アルプス市立芦安小学校", "P29_005": "山梨県南アルプス市芦安安通335", "P29_006": "3", "P29_007": "1", "P29_008": "00", "P29_009": null }, "geometry": { "type": "Point", "coordinates": [ 138.379563346773267, 35.636904979854158 ] } },
{ "type": "Feature", "properties": { "P29_001": "19208", "P29_002": "B119210000429", "P29_003": "16001", "P29_004": "南アルプス市立白根飯野小学校", "P29_005": "山梨県南アルプス市飯野1972-1", "P29_006": "3", "P29_007": "1", "P29_008": "00", "P29_009": null }, "geometry": { "type": "Point", "coordinates": [ 138.454095697102218, 35.643355240066029 ] } },
{ "type": "Feature", "properties": { "P29_001": "19208", "P29_002": "B119210000438", "P29_003": "16001", "P29_004": "南アルプス市立白根源小学校", "P29_005": "山梨県南アルプス市有野490", "P29_006": "3", "P29_007": "1", "P29_008": "00", "P29_009": null }, "geometry": { "type": "Point", "coordinates": [ 138.440241000438931, 35.655305946081981 ] } },
{ "type": "Feature", "properties": { "P29_001": "19208", "P29_002": "B119210000447", "P29_003": "16001", "P29_004": "南アルプス市立小笠原小学校", "P29_005": "山梨県南アルプス市小笠原441", "P29_006": "3", "P29_007": "1", "P29_008": "00", "P29_009": null }, "geometry": { "type": "Point", "coordinates": [ 138.462283707118615, 35.610450253142076 ] } },
{ "type": "Feature", "properties": { "P29_001": "19208", "P29_002": "B119210000456", "P29_003": "16001", "P29_004": "南アルプス市立櫛形北小学校", "P29_005": "山梨県南アルプス市桃園813", "P29_006": "3", "P29_007": "1", "P29_008": "00", "P29_009": null }, "geometry": { "type": "Point", "coordinates": [ 138.449198535086367, 35.626425638113474 ] } },
{ "type": "Feature", "properties": { "P29_001": "19208", "P29_002": "B119210000465", "P29_003": "16001", "P29_004": "南アルプス市立櫛形西小学校", "P29_005": "山梨県南アルプス市上市之瀬727", "P29_006": "3", "P29_007": "1", "P29_008": "00", "P29_009": null }, "geometry": { "type": "Point", "coordinates": [ 138.438957006853911, 35.6050793762263 ] } },
{ "type": "Feature", "properties": { "P29_001": "19208", "P29_002": "B119210000474", "P29_003": "16001", "P29_004": "南アルプス市立豊小学校", "P29_005": "山梨県南アルプス市吉田787", "P29_006": "3", "P29_007": "1", "P29_008": "00", "P29_009": null }, "geometry": { "type": "Point", "coordinates": [ 138.478386405936476, 35.622568743099471 ] } },
{ "type": "Feature", "properties": { "P29_001": "19208", "P29_002": "B119210000483", "P29_003": "16001", "P29_004": "南アルプス市立落合小学校", "P29_005": "山梨県南アルプス市落合1092", "P29_006": "3", "P29_007": "1", "P29_008": "00", "P29_009": null }, "geometry": { "type": "Point", "coordinates": [ 138.456133613546967, 35.588502412548479 ] } },
{ "type": "Feature", "properties": { "P29_001": "19208", "P29_002": "B119210000492", "P29_003": "16001", "P29_004": "南アルプス市立大明小学校", "P29_005": "山梨県南アルプス市古市場181", "P29_006": "3", "P29_007": "1", "P29_008": "00", "P29_009": null }, "geometry": { "type": "Point", "coordinates": [ 138.470557000775557, 35.590859998823639 ] } },
{ "type": "Feature", "properties": { "P29_001": "19208", "P29_002": "B119210000508", "P29_003": "16001", "P29_004": "南アルプス市立南湖小学校", "P29_005": "山梨県南アルプス市西南湖3024-1", "P29_006": "3", "P29_007": "1", "P29_008": "00", "P29_009": null }, "geometry": { "type": "Point", "coordinates": [ 138.488095454936655, 35.586225628287679 ] } },
{ "type": "Feature", "properties": { "P29_001": "19210", "P29_002": "B119210000517", "P29_003": "16001", "P29_004": "甲斐市立双葉東小学校", "P29_005": "山梨県甲斐市大垈2780", "P29_006": "3", "P29_007": "1", "P29_008": "00", "P29_009": null }, "geometry": { "type": "Point", "coordinates": [ 138.498912753552673, 35.692303163042119 ] } },
{ "type": "Feature", "properties": { "P29_001": "19210", "P29_002": "B119210000526", "P29_003": "16001", "P29_004": "甲斐市立双葉西小学校", "P29_005": "山梨県甲斐市志田146", "P29_006": "3", "P29_007": "1", "P29_008": "00", "P29_009": null }, "geometry": { "type": "Point", "coordinates": [ 138.481300916623809, 35.690272422013749 ] } },
{ "type": "Feature", "properties": { "P29_001": "19209", "P29_002": "B119210000535", "P29_003": "16001", "P29_004": "北杜市立高根西小学校", "P29_005": "山梨県北杜市高根町村山西割1696", "P29_006": "3", "P29_007": "1", "P29_008": "00", "P29_009": null }, "geometry": { "type": "Point", "coordinates": [ 138.404832502133928, 35.823290353693935 ] } },
{ "type": "Feature", "properties": { "P29_001": "19209", "P29_002": "B119210000544", "P29_003": "16001", "P29_004": "北杜市立白州小学校", "P29_005": "山梨県北杜市白州町白須225", "P29_006": "3", "P29_007": "1", "P29_008": "00", "P29_009": null }, "geometry": { "type": "Point", "coordinates": [ 138.334829098730637, 35.810952472391342 ] } },
{ "type": "Feature", "properties": { "P29_001": "19209", "P29_002": "B119210000553", "P29_003": "16001", "P29_004": "北杜市立武川小学校", "P29_005": "山梨県北杜市武川町牧原944", "P29_006": "3", "P29_007": "1", "P29_008": "00", "P29_009": null }, "geometry": { "type": "Point", "coordinates": [ 138.381855401589092, 35.783680897279446 ] } },
{ "type": "Feature", "properties": { "P29_001": "19422", "P29_002": "B119210000562", "P29_003": "16001", "P29_004": "道志村立道志小学校", "P29_005": "山梨県南都留郡道志村7568", "P29_006": "3", "P29_007": "1", "P29_008": "00", "P29_009": null }, "geometry": { "type": "Point", "coordinates": [ 139.022018496654141, 35.52013151573567 ] } },
{ "type": "Feature", "properties": { "P29_001": "19423", "P29_002": "B119210000571", "P29_003": "16001", "P29_004": "西桂町立西桂小学校", "P29_005": "山梨県南都留郡西桂町小沼1874", "P29_006": "3", "P29_007": "1", "P29_008": "00", "P29_009": null }, "geometry": { "type": "Point", "coordinates": [ 138.842589316686627, 35.519219022106682 ] } },
{ "type": "Feature", "properties": { "P29_001": "19424", "P29_002": "B119210000580", "P29_003": "16001", "P29_004": "忍野村立忍野小学校", "P29_005": "山梨県南都留郡忍野村忍草1516", "P29_006": "3", "P29_007": "1", "P29_008": "00", "P29_009": null }, "geometry": { "type": "Point", "coordinates": [ 138.847549039200118, 35.461162353168177 ] } },
{ "type": "Feature", "properties": { "P29_001": "19425", "P29_002": "B119210000599", "P29_003": "16001", "P29_004": "山中湖村立東小学校", "P29_005": "山梨県南都留郡山中湖村平野2435", "P29_006": "3", "P29_007": "1", "P29_008": "00", "P29_009": null }, "geometry": { "type": "Point", "coordinates": [ 138.891902551436374, 35.423337833688471 ] } },
{ "type": "Feature", "properties": { "P29_001": "19425", "P29_002": "B119210000606", "P29_003": "16001", "P29_004": "山中湖村立山中小学校", "P29_005": "山梨県南都留郡山中湖村山中705", "P29_006": "3", "P29_007": "1", "P29_008": "00", "P29_009": null }, "geometry": { "type": "Point", "coordinates": [ 138.84686940090711, 35.425328295366633 ] } },
{ "type": "Feature", "properties": { "P29_001": "19430", "P29_002": "B119210000615", "P29_003": "16001", "P29_004": "富士河口湖町立船津小学校", "P29_005": "山梨県南都留郡富士河口湖町船津3737", "P29_006": "3", "P29_007": "1", "P29_008": "00", "P29_009": null }, "geometry": { "type": "Point", "coordinates": [ 138.768182199546033, 35.500037682547621 ] } },
{ "type": "Feature", "properties": { "P29_001": "19430", "P29_002": "B119210000624", "P29_003": "16001", "P29_004": "富士河口湖町立小立小学校", "P29_005": "山梨県南都留郡富士河口湖町小立2446", "P29_006": "3", "P29_007": "1", "P29_008": "00", "P29_009": null }, "geometry": { "type": "Point", "coordinates": [ 138.750817616045651, 35.505200337752321 ] } },
{ "type": "Feature", "properties": { "P29_001": "19430", "P29_002": "B119210000633", "P29_003": "16001", "P29_004": "富士河口湖町立大石小学校", "P29_005": "山梨県南都留郡富士河口湖町大石1425", "P29_006": "3", "P29_007": "1", "P29_008": "00", "P29_009": null }, "geometry": { "type": "Point", "coordinates": [ 138.745815242128629, 35.524489093521794 ] } },
{ "type": "Feature", "properties": { "P29_001": "19430", "P29_002": "B119210000642", "P29_003": "16001", "P29_004": "富士河口湖町立河口小学校", "P29_005": "山梨県南都留郡富士河口湖町河口1560", "P29_006": "3", "P29_007": "1", "P29_008": "00", "P29_009": null }, "geometry": { "type": "Point", "coordinates": [ 138.769096651551507, 35.530738784128481 ] } },
{ "type": "Feature", "properties": { "P29_001": "19430", "P29_002": "B119210000651", "P29_003": "16001", "P29_004": "富士河口湖町立大嵐小学校", "P29_005": "山梨県南都留郡富士河口湖町大嵐559", "P29_006": "3", "P29_007": "1", "P29_008": "00", "P29_009": null }, "geometry": { "type": "Point", "coordinates": [ 138.732503766599251, 35.496356332363206 ] } },
{ "type": "Feature", "properties": { "P29_001": "19430", "P29_002": "B119210000660", "P29_003": "16001", "P29_004": "富士河口湖町立西浜小学校", "P29_005": "山梨県南都留郡富士河口湖町長浜2427", "P29_006": "3", "P29_007": "1", "P29_008": "00", "P29_009": null }, "geometry": { "type": "Point", "coordinates": [ 138.709886999255161, 35.506370002230675 ] } },
{ "type": "Feature", "properties": { "P29_001": "19430", "P29_002": "B119210000679", "P29_003": "16001", "P29_004": "富士河口湖町立勝山小学校", "P29_005": "山梨県南都留郡富士河口湖町勝山1047", "P29_006": "3", "P29_007": "1", "P29_008": "00", "P29_009": null }, "geometry": { "type": "Point", "coordinates": [ 138.740409209471522, 35.504076394557636 ] } },
{ "type": "Feature", "properties": { "P29_001": "19429", "P29_002": "B119210000688", "P29_003": "16001", "P29_004": "鳴沢村立鳴沢小学校", "P29_005": "山梨県南都留郡鳴沢村1585", "P29_006": "3", "P29_007": "1", "P29_008": "00", "P29_009": null }, "geometry": { "type": "Point", "coordinates": [ 138.707249398132376, 35.482124652416097 ] } },
{ "type": "Feature", "properties": { "P29_001": "19212", "P29_002": "B119210000697", "P29_003": "16001", "P29_004": "上野原市立島田小学校", "P29_005": "山梨県上野原市鶴島2024", "P29_006": "3", "P29_007": "1", "P29_008": "00", "P29_009": null }, "geometry": { "type": "Point", "coordinates": [ 139.118887865103773, 35.614880758172667 ] } },
{ "type": "Feature", "properties": { "P29_001": "19442", "P29_002": "B119210000704", "P29_003": "16001", "P29_004": "小菅村立小菅小学校", "P29_005": "山梨県北都留郡小菅村4617-2", "P29_006": "3", "P29_007": "1", "P29_008": "00", "P29_009": null }, "geometry": { "type": "Point", "coordinates": [ 138.940237302910361, 35.76070129274386 ] } },
{ "type": "Feature", "properties": { "P29_001": "19443", "P29_002": "B119210000713", "P29_003": "16001", "P29_004": "丹波山村立丹波小学校", "P29_005": "山梨県北都留郡丹波山村2777", "P29_006": "3", "P29_007": "1", "P29_008": "00", "P29_009": null }, "geometry": { "type": "Point", "coordinates": [ 138.921398696257796, 35.791324970023219 ] } },
{ "type": "Feature", "properties": { "P29_001": "19201", "P29_002": "B119210000722", "P29_003": "16001", "P29_004": "甲府市立新紺屋小学校", "P29_005": "山梨県甲府市武田1-3-34", "P29_006": "3", "P29_007": "1", "P29_008": "00", "P29_009": null }, "geometry": { "type": "Point", "coordinates": [ 138.569621375062042, 35.672380870157248 ] } },
{ "type": "Feature", "properties": { "P29_001": "19201", "P29_002": "B119210000731", "P29_003": "16001", "P29_004": "甲府市立湯田小学校", "P29_005": "山梨県甲府市湯田1-8-1", "P29_006": "3", "P29_007": "1", "P29_008": "00", "P29_009": null }, "geometry": { "type": "Point", "coordinates": [ 138.575214564212843, 35.649468992796166 ] } },
{ "type": "Feature", "properties": { "P29_001": "19201", "P29_002": "B119210000740", "P29_003": "16001", "P29_004": "甲府市立伊勢小学校", "P29_005": "山梨県甲府市伊勢2-16-1", "P29_006": "3", "P29_007": "1", "P29_008": "00", "P29_009": null }, "geometry": { "type": "Point", "coordinates": [ 138.56763528579981, 35.645517665387061 ] } },
{ "type": "Feature", "properties": { "P29_001": "19201", "P29_002": "B119210000759", "P29_003": "16001", "P29_004": "甲府市立朝日小学校", "P29_005": "山梨県甲府市塩部1-4-1", "P29_006": "3", "P29_007": "1", "P29_008": "00", "P29_009": null }, "geometry": { "type": "Point", "coordinates": [ 138.560712362552607, 35.672766802222455 ] } },
{ "type": "Feature", "properties": { "P29_001": "19201", "P29_002": "B119210000768", "P29_003": "16001", "P29_004": "甲府市立里垣小学校", "P29_005": "山梨県甲府市善光寺2-7-1", "P29_006": "3", "P29_007": "1", "P29_008": "00", "P29_009": null }, "geometry": { "type": "Point", "coordinates": [ 138.59036761773271, 35.663312565176867 ] } },
{ "type": "Feature", "properties": { "P29_001": "19201", "P29_002": "B119210000777", "P29_003": "16001", "P29_004": "甲府市立相川小学校", "P29_005": "山梨県甲府市古府中町1501", "P29_006": "3", "P29_007": "1", "P29_008": "00", "P29_009": null }, "geometry": { "type": "Point", "coordinates": [ 138.574459545099074, 35.687304250194508 ] } },
{ "type": "Feature", "properties": { "P29_001": "19201", "P29_002": "B119210000786", "P29_003": "16001", "P29_004": "甲府市立国母小学校", "P29_005": "山梨県甲府市国母4-1-10", "P29_006": "3", "P29_007": "1", "P29_008": "00", "P29_009": null }, "geometry": { "type": "Point", "coordinates": [ 138.557191122994169, 35.640773510501326 ] } },
{ "type": "Feature", "properties": { "P29_001": "19201", "P29_002": "B119210000795", "P29_003": "16001", "P29_004": "甲府市立貢川小学校", "P29_005": "山梨県甲府市貢川本町8-1", "P29_006": "3", "P29_007": "1", "P29_008": "00", "P29_009": null }, "geometry": { "type": "Point", "coordinates": [ 138.548979531964591, 35.655300429148312 ] } },
{ "type": "Feature", "properties": { "P29_001": "19201", "P29_002": "B119210000802", "P29_003": "16001", "P29_004": "甲府市立千塚小学校", "P29_005": "山梨県甲府市千塚1-2-16", "P29_006": "3", "P29_007": "1", "P29_008": "00", "P29_009": null }, "geometry": { "type": "Point", "coordinates": [ 138.541067418569895, 35.680298424348933 ] } },
{ "type": "Feature", "properties": { "P29_001": "19201", "P29_002": "B119210000811", "P29_003": "16001", "P29_004": "甲府市立池田小学校", "P29_005": "山梨県甲府市長松寺町7-1", "P29_006": "3", "P29_007": "1", "P29_008": "00", "P29_009": null }, "geometry": { "type": "Point", "coordinates": [ 138.541684979379909, 35.666613736333666 ] } },
{ "type": "Feature", "properties": { "P29_001": "19201", "P29_002": "B119210000820", "P29_003": "16001", "P29_004": "甲府市立北新小学校", "P29_005": "山梨県甲府市北新1-5-1", "P29_006": "3", "P29_007": "1", "P29_008": "00", "P29_009": null }, "geometry": { "type": "Point", "coordinates": [ 138.565659140984963, 35.679814015968034 ] } },
{ "type": "Feature", "properties": { "P29_001": "19201", "P29_002": "B119210000839", "P29_003": "16001", "P29_004": "甲府市立甲運小学校", "P29_005": "山梨県甲府市川田町65-2", "P29_006": "3", "P29_007": "1", "P29_008": "00", "P29_009": null }, "geometry": { "type": "Point", "coordinates": [ 138.622351363881648, 35.655933286812242 ] } },
{ "type": "Feature", "properties": { "P29_001": "19201", "P29_002": "B119210000848", "P29_003": "16001", "P29_004": "甲府市立大里小学校", "P29_005": "山梨県甲府市大里町3785-2", "P29_006": "3", "P29_007": "1", "P29_008": "00", "P29_009": null }, "geometry": { "type": "Point", "coordinates": [ 138.565840676198718, 35.614888113169556 ] } },
{ "type": "Feature", "properties": { "P29_001": "19201", "P29_002": "B119210000857", "P29_003": "16001", "P29_004": "甲府市立山城小学校", "P29_005": "山梨県甲府市上今井町474-2", "P29_006": "3", "P29_007": "1", "P29_008": "00", "P29_009": null }, "geometry": { "type": "Point", "coordinates": [ 138.57804926362104, 35.626385308411422 ] } },
{ "type": "Feature", "properties": { "P29_001": "19201", "P29_002": "B119210000866", "P29_003": "16001", "P29_004": "甲府市立玉諸小学校", "P29_005": "山梨県甲府市上阿原町491", "P29_006": "3", "P29_007": "1", "P29_008": "00", "P29_009": null }, "geometry": { "type": "Point", "coordinates": [ 138.60324941696885, 35.646114769553101 ] } },
{ "type": "Feature", "properties": { "P29_001": "19201", "P29_002": "B119210000875", "P29_003": "16001", "P29_004": "甲府市立千代田小学校", "P29_005": "山梨県甲府市下帯那町3034-2", "P29_006": "3", "P29_007": "1", "P29_008": "00", "P29_009": null }, "geometry": { "type": "Point", "coordinates": [ 138.552672244187562, 35.712475007068825 ] } },
{ "type": "Feature", "properties": { "P29_001": "19201", "P29_002": "B119210000884", "P29_003": "16001", "P29_004": "甲府市立東小学校", "P29_005": "山梨県甲府市朝気1-14-1", "P29_006": "3", "P29_007": "1", "P29_008": "00", "P29_009": null }, "geometry": { "type": "Point", "coordinates": [ 138.582692220118133, 35.652038523378828 ] } },
{ "type": "Feature", "properties": { "P29_001": "19202", "P29_002": "B119210000893", "P29_003": "16001", "P29_004": "富士吉田市立下吉田第一小学校", "P29_005": "山梨県富士吉田市新町1-8-1", "P29_006": "3", "P29_007": "1", "P29_008": "00", "P29_009": null }, "geometry": { "type": "Point", "coordinates": [ 138.802672468807827, 35.4954816214142 ] } },
{ "type": "Feature", "properties": { "P29_001": "19202", "P29_002": "B119210000900", "P29_003": "16001", "P29_004": "富士吉田市立下吉田第二小学校", "P29_005": "山梨県富士吉田市緑ヶ丘2-8-2", "P29_006": "3", "P29_007": "1", "P29_008": "00", "P29_009": null }, "geometry": { "type": "Point", "coordinates": [ 138.794119415911609, 35.49394919977361 ] } },
{ "type": "Feature", "properties": { "P29_001": "19202", "P29_002": "B119210000919", "P29_003": "16001", "P29_004": "富士吉田市立吉田小学校", "P29_005": "山梨県富士吉田市上吉田5-1-1", "P29_006": "3", "P29_007": "1", "P29_008": "00", "P29_009": null }, "geometry": { "type": "Point", "coordinates": [ 138.797186126526952, 35.477365491524189 ] } },
{ "type": "Feature", "properties": { "P29_001": "19202", "P29_002": "B119210000928", "P29_003": "16001", "P29_004": "富士吉田市立明見小学校", "P29_005": "山梨県富士吉田市小明見1-4-6", "P29_006": "3", "P29_007": "1", "P29_008": "00", "P29_009": null }, "geometry": { "type": "Point", "coordinates": [ 138.821746245197176, 35.492776846148544 ] } },
{ "type": "Feature", "properties": { "P29_001": "19202", "P29_002": "B119210000937", "P29_003": "16001", "P29_004": "富士吉田市立富士小学校", "P29_005": "山梨県富士吉田市上暮地1-22-1", "P29_006": "3", "P29_007": "1", "P29_008": "00", "P29_009": null }, "geometry": { "type": "Point", "coordinates": [ 138.828692998059722, 35.508960999145302 ] } },
{ "type": "Feature", "properties": { "P29_001": "19213", "P29_002": "B119210000946", "P29_003": "16001", "P29_004": "甲州市立塩山南小学校", "P29_005": "山梨県甲州市塩山上於曽1017", "P29_006": "3", "P29_007": "1", "P29_008": "00", "P29_009": null }, "geometry": { "type": "Point", "coordinates": [ 138.728418354145788, 35.703930861327976 ] } },
{ "type": "Feature", "properties": { "P29_001": "19213", "P29_002": "B119210000955", "P29_003": "16001", "P29_004": "甲州市立塩山北小学校", "P29_005": "山梨県甲州市塩山千野3421", "P29_006": "3", "P29_007": "1", "P29_008": "00", "P29_009": null }, "geometry": { "type": "Point", "coordinates": [ 138.731532271703543, 35.71093372244875 ] } },
{ "type": "Feature", "properties": { "P29_001": "19213", "P29_002": "B119210000964", "P29_003": "16001", "P29_004": "甲州市立奥野田小学校", "P29_005": "山梨県甲州市塩山熊野906", "P29_006": "3", "P29_007": "1", "P29_008": "00", "P29_009": null }, "geometry": { "type": "Point", "coordinates": [ 138.731072911424263, 35.690672163408891 ] } },
{ "type": "Feature", "properties": { "P29_001": "19213", "P29_002": "B119210000973", "P29_003": "16001", "P29_004": "甲州市立大藤小学校", "P29_005": "山梨県甲州市塩山上粟生野492-1", "P29_006": "3", "P29_007": "1", "P29_008": "00", "P29_009": null }, "geometry": { "type": "Point", "coordinates": [ 138.753499087972699, 35.719447620979956 ] } },
{ "type": "Feature", "properties": { "P29_001": "19213", "P29_002": "B119210000982", "P29_003": "16001", "P29_004": "甲州市立神金小学校", "P29_005": "山梨県甲州市塩山上萩原1518-4", "P29_006": "3", "P29_007": "1", "P29_008": "00", "P29_009": null }, "geometry": { "type": "Point", "coordinates": [ 138.772650828653354, 35.726851549384754 ] } },
{ "type": "Feature", "properties": { "P29_001": "19213", "P29_002": "B119210000991", "P29_003": "16001", "P29_004": "甲州市立神金第二小学校", "P29_005": "山梨県甲州市塩山一ノ瀬高橋404", "P29_006": "3", "P29_007": "9", "P29_008": "00", "P29_009": null }, "geometry": { "type": "Point", "coordinates": [ 138.841934474473902, 35.830948523903132 ] } },
{ "type": "Feature", "properties": { "P29_001": "19213", "P29_002": "B119210001008", "P29_003": "16001", "P29_004": "甲州市立玉宮小学校", "P29_005": "山梨県甲州市塩山竹森3015", "P29_006": "3", "P29_007": "1", "P29_008": "00", "P29_009": null }, "geometry": { "type": "Point", "coordinates": [ 138.744935934743353, 35.732714071898371 ] } },
{ "type": "Feature", "properties": { "P29_001": "19213", "P29_002": "B119210001017", "P29_003": "16001", "P29_004": "甲州市立松里小学校", "P29_005": "山梨県甲州市塩山小屋敷1378", "P29_006": "3", "P29_007": "1", "P29_008": "00", "P29_009": null }, "geometry": { "type": "Point", "coordinates": [ 138.716779624965454, 35.725554651556806 ] } },
{ "type": "Feature", "properties": { "P29_001": "19213", "P29_002": "B119210001026", "P29_003": "16001", "P29_004": "甲州市立井尻小学校", "P29_005": "山梨県甲州市塩山上井尻675", "P29_006": "3", "P29_007": "1", "P29_008": "00", "P29_009": null }, "geometry": { "type": "Point", "coordinates": [ 138.712935970380869, 35.714672122157261 ] } },
{ "type": "Feature", "properties": { "P29_001": "19204", "P29_002": "B119210001035", "P29_003": "16001", "P29_004": "都留市立谷村第一小学校", "P29_005": "山梨県都留市上谷1-1-2", "P29_006": "3", "P29_007": "1", "P29_008": "00", "P29_009": null }, "geometry": { "type": "Point", "coordinates": [ 138.90689785093835, 35.552379866721608 ] } },
{ "type": "Feature", "properties": { "P29_001": "19204", "P29_002": "B119210001044", "P29_003": "16001", "P29_004": "都留市立谷村第二小学校", "P29_005": "山梨県都留市法能923", "P29_006": "3", "P29_007": "1", "P29_008": "00", "P29_009": null }, "geometry": { "type": "Point", "coordinates": [ 138.925925270175725, 35.551544064956097 ] } },
{ "type": "Feature", "properties": { "P29_001": "19204", "P29_002": "B119210001053", "P29_003": "16001", "P29_004": "都留市立都留文科大学附属小学校", "P29_005": "山梨県都留市大野396", "P29_006": "3", "P29_007": "1", "P29_008": "00", "P29_009": null }, "geometry": { "type": "Point", "coordinates": [ 138.9209240223893, 35.528856860108768 ] } },
{ "type": "Feature", "properties": { "P29_001": "19204", "P29_002": "B119210001062", "P29_003": "16001", "P29_004": "都留市立宝小学校", "P29_005": "山梨県都留市大幡1143", "P29_006": "3", "P29_007": "1", "P29_008": "00", "P29_009": null }, "geometry": { "type": "Point", "coordinates": [ 138.87821639263899, 35.562314343719649 ] } },
{ "type": "Feature", "properties": { "P29_001": "19204", "P29_002": "B119210001071", "P29_003": "16001", "P29_004": "都留市立禾生第一小学校", "P29_005": "山梨県都留市古川渡553", "P29_006": "3", "P29_007": "1", "P29_008": "00", "P29_009": null }, "geometry": { "type": "Point", "coordinates": [ 138.930681938647467, 35.57394959406453 ] } },
{ "type": "Feature", "properties": { "P29_001": "19204", "P29_002": "B119210001080", "P29_003": "16001", "P29_004": "都留市立禾生第二小学校", "P29_005": "山梨県都留市小形山753", "P29_006": "3", "P29_007": "1", "P29_008": "00", "P29_009": null }, "geometry": { "type": "Point", "coordinates": [ 138.926979776663416, 35.590933627748292 ] } },
{ "type": "Feature", "properties": { "P29_001": "19204", "P29_002": "B119210001106", "P29_003": "16001", "P29_004": "都留市立東桂小学校", "P29_005": "山梨県都留市桂町796-1", "P29_006": "3", "P29_007": "1", "P29_008": "00", "P29_009": null }, "geometry": { "type": "Point", "coordinates": [ 138.872085009156621, 35.533449230215773 ] } },
{ "type": "Feature", "properties": { "P29_001": "19205", "P29_002": "B119210001115", "P29_003": "16001", "P29_004": "山梨市立山梨小学校", "P29_005": "山梨県山梨市落合1-7", "P29_006": "3", "P29_007": "1", "P29_008": "00", "P29_009": null }, "geometry": { "type": "Point", "coordinates": [ 138.665648995513408, 35.684573000204921 ] } },
{ "type": "Feature", "properties": { "P29_001": "19205", "P29_002": "B119210001124", "P29_003": "16001", "P29_004": "山梨市立八幡小学校", "P29_005": "山梨県山梨市北1900-1", "P29_006": "3", "P29_007": "1", "P29_008": "00", "P29_009": null }, "geometry": { "type": "Point", "coordinates": [ 138.684094187526824, 35.706671138595503 ] } },
{ "type": "Feature", "properties": { "P29_001": "19205", "P29_002": "B119210001133", "P29_003": "16001", "P29_004": "山梨市立岩手小学校", "P29_005": "山梨県山梨市東1737-1", "P29_006": "3", "P29_007": "1", "P29_008": "00", "P29_009": null }, "geometry": { "type": "Point", "coordinates": [ 138.697388601396142, 35.715713056266232 ] } },
{ "type": "Feature", "properties": { "P29_001": "19205", "P29_002": "B119210001142", "P29_003": "16001", "P29_004": "山梨市立日下部小学校", "P29_005": "山梨県山梨市小原東305", "P29_006": "3", "P29_007": "1", "P29_008": "00", "P29_009": null }, "geometry": { "type": "Point", "coordinates": [ 138.699614227743893, 35.697586292574222 ] } },
{ "type": "Feature", "properties": { "P29_001": "19205", "P29_002": "B119210001151", "P29_003": "16001", "P29_004": "山梨市立後屋敷小学校", "P29_005": "山梨県山梨市三ヶ所877", "P29_006": "3", "P29_007": "1", "P29_008": "00", "P29_009": null }, "geometry": { "type": "Point", "coordinates": [ 138.704365954097625, 35.689286770360702 ] } },
{ "type": "Feature", "properties": { "P29_001": "19205", "P29_002": "B119210001160", "P29_003": "16001", "P29_004": "山梨市立加納岩小学校", "P29_005": "山梨県山梨市下神内川123-2", "P29_006": "3", "P29_007": "1", "P29_008": "00", "P29_009": null }, "geometry": { "type": "Point", "coordinates": [ 138.685509404208631, 35.682247206420151 ] } },
{ "type": "Feature", "properties": { "P29_001": "19205", "P29_002": "B119210001179", "P29_003": "16001", "P29_004": "山梨市立日川小学校", "P29_005": "山梨県山梨市歌田140-1", "P29_006": "3", "P29_007": "1", "P29_008": "00", "P29_009": null }, "geometry": { "type": "Point", "coordinates": [ 138.69042669744573, 35.665614892879361 ] } },
{ "type": "Feature", "properties": { "P29_001": "19207", "P29_002": "B119210001188", "P29_003": "16001", "P29_004": "韮崎市立韮崎小学校", "P29_005": "山梨県韮崎市本町2-2-41", "P29_006": "3", "P29_007": "1", "P29_008": "00", "P29_009": null }, "geometry": { "type": "Point", "coordinates": [ 138.453321227928257, 35.706663494291625 ] } },
{ "type": "Feature", "properties": { "P29_001": "19207", "P29_002": "B119210001197", "P29_003": "16001", "P29_004": "韮崎市立穂坂小学校", "P29_005": "山梨県韮崎市穂坂町宮久保6121", "P29_006": "3", "P29_007": "1", "P29_008": "00", "P29_009": null }, "geometry": { "type": "Point", "coordinates": [ 138.483740804346326, 35.736381654048223 ] } },
{ "type": "Feature", "properties": { "P29_001": "19206", "P29_002": "B119210001204", "P29_003": "16001", "P29_004": "大月市立初狩小学校", "P29_005": "山梨県大月市初狩町下初狩1144", "P29_006": "3", "P29_007": "1", "P29_008": "00", "P29_009": null }, "geometry": { "type": "Point", "coordinates": [ 138.884597748135519, 35.599007019189159 ] } },
{ "type": "Feature", "properties": { "P29_001": "19206", "P29_002": "B119210001213", "P29_003": "16001", "P29_004": "大月市立大月東小学校", "P29_005": "山梨県大月市大月2-7-43", "P29_006": "3", "P29_007": "1", "P29_008": "00", "P29_009": null }, "geometry": { "type": "Point", "coordinates": [ 138.940640092089893, 35.610355131841665 ] } },
{ "type": "Feature", "properties": { "P29_001": "19206", "P29_002": "B119210001222", "P29_003": "16001", "P29_004": "大月市立七保小学校", "P29_005": "山梨県大月市七保町葛野2345", "P29_006": "3", "P29_007": "1", "P29_008": "00", "P29_009": null }, "geometry": { "type": "Point", "coordinates": [ 138.955655688993943, 35.631869910989153 ] } },
{ "type": "Feature", "properties": { "P29_001": "19206", "P29_002": "B119210001231", "P29_003": "16001", "P29_004": "大月市立猿橋小学校", "P29_005": "山梨県大月市猿橋町伊良原48", "P29_006": "3", "P29_007": "1", "P29_008": "00", "P29_009": null }, "geometry": { "type": "Point", "coordinates": [ 138.98222824886065, 35.612035941214636 ] } },
{ "type": "Feature", "properties": { "P29_001": "19206", "P29_002": "B119210001240", "P29_003": "16001", "P29_004": "大月市立鳥沢小学校", "P29_005": "山梨県大月市富浜町鳥沢1979", "P29_006": "3", "P29_007": "1", "P29_008": "00", "P29_009": null }, "geometry": { "type": "Point", "coordinates": [ 139.00526417620776, 35.610040988604347 ] } },
{ "type": "Feature", "properties": { "P29_001": "19364", "P29_002": "B119210001259", "P29_003": "16001", "P29_004": "早川町立早川南小学校", "P29_005": "山梨県南巨摩郡早川町高住574", "P29_006": "3", "P29_007": "1", "P29_008": "00", "P29_009": null }, "geometry": { "type": "Point", "coordinates": [ 138.368316329187394, 35.407669227142634 ] } },
{ "type": "Feature", "properties": { "P29_001": "19208", "P29_002": "B119210001268", "P29_003": "16001", "P29_004": "南アルプス市立白根東小学校", "P29_005": "山梨県南アルプス市西野2311", "P29_006": "3", "P29_007": "1", "P29_008": "00", "P29_009": null }, "geometry": { "type": "Point", "coordinates": [ 138.477087886514028, 35.638894337943803 ] } },
{ "type": "Feature", "properties": { "P29_001": "19208", "P29_002": "B119210001277", "P29_003": "16001", "P29_004": "南アルプス市立若草小学校", "P29_005": "山梨県南アルプス市寺部740", "P29_006": "3", "P29_007": "1", "P29_008": "00", "P29_009": null }, "geometry": { "type": "Point", "coordinates": [ 138.492116327029606, 35.607928633902553 ] } },
{ "type": "Feature", "properties": { "P29_001": "19201", "P29_002": "B119210001286", "P29_003": "16001", "P29_004": "甲府市立羽黒小学校", "P29_005": "山梨県甲府市羽黒町527", "P29_006": "3", "P29_007": "1", "P29_008": "00", "P29_009": null }, "geometry": { "type": "Point", "coordinates": [ 138.543991661743746, 35.691021150886009 ] } },
{ "type": "Feature", "properties": { "P29_001": "19209", "P29_002": "B119210001295", "P29_003": "16001", "P29_004": "北杜市立明野小学校", "P29_005": "山梨県北杜市明野町上手8418", "P29_006": "3", "P29_007": "1", "P29_008": "00", "P29_009": null }, "geometry": { "type": "Point", "coordinates": [ 138.445118436885139, 35.771336324189321 ] } },
{ "type": "Feature", "properties": { "P29_001": "19209", "P29_002": "B119210001302", "P29_003": "16001", "P29_004": "北杜市立泉小学校", "P29_005": "山梨県北杜市大泉町谷戸2870", "P29_006": "3", "P29_007": "1", "P29_008": "00", "P29_009": null }, "geometry": { "type": "Point", "coordinates": [ 138.388046001420435, 35.860428446337792 ] } },
{ "type": "Feature", "properties": { "P29_001": "19209", "P29_002": "B119210001311", "P29_003": "16001", "P29_004": "北杜市立小淵沢小学校", "P29_005": "山梨県北杜市小淵沢町7741", "P29_006": "3", "P29_007": "1", "P29_008": "00", "P29_009": null }, "geometry": { "type": "Point", "coordinates": [ 138.316999929041657, 35.857018808566195 ] } },
{ "type": "Feature", "properties": { "P29_001": "19202", "P29_002": "B119210001320", "P29_003": "16001", "P29_004": "富士吉田市立下吉田東小学校", "P29_005": "山梨県富士吉田市下吉田9-21-1", "P29_006": "3", "P29_007": "1", "P29_008": "00", "P29_009": null }, "geometry": { "type": "Point", "coordinates": [ 138.813364931212703, 35.496556916770714 ] } },
{ "type": "Feature", "properties": { "P29_001": "19210", "P29_002": "B119210001339", "P29_003": "16001", "P29_004": "甲斐市立竜王南小学校", "P29_005": "山梨県甲斐市篠原1180", "P29_006": "3", "P29_007": "1", "P29_008": "00", "P29_009": null }, "geometry": { "type": "Point", "coordinates": [ 138.528202798586477, 35.642479021066904 ] } },
{ "type": "Feature", "properties": { "P29_001": "19201", "P29_002": "B119210001348", "P29_003": "16001", "P29_004": "甲府市立石田小学校", "P29_005": "山梨県甲府市上石田3-6-31", "P29_006": "3", "P29_007": "1", "P29_008": "00", "P29_009": null }, "geometry": { "type": "Point", "coordinates": [ 138.557387430873121, 35.65327457976219 ] } },
{ "type": "Feature", "properties": { "P29_001": "19210", "P29_002": "B119210001357", "P29_003": "16001", "P29_004": "甲斐市立敷島北小学校", "P29_005": "山梨県甲斐市境57", "P29_006": "3", "P29_007": "1", "P29_008": "00", "P29_009": null }, "geometry": { "type": "Point", "coordinates": [ 138.52488224086477, 35.69481003441858 ] } },
{ "type": "Feature", "properties": { "P29_001": "19202", "P29_002": "B119210001366", "P29_003": "16001", "P29_004": "富士吉田市立吉田西小学校", "P29_005": "山梨県富士吉田市新西原3-7-1", "P29_006": "3", "P29_007": "1", "P29_008": "00", "P29_009": null }, "geometry": { "type": "Point", "coordinates": [ 138.784447997136766, 35.484463001751962 ] } },
{ "type": "Feature", "properties": { "P29_001": "19207", "P29_002": "B119210001375", "P29_003": "16001", "P29_004": "韮崎市立韮崎北西小学校", "P29_005": "山梨県韮崎市清哲町青木193-1", "P29_006": "3", "P29_007": "1", "P29_008": "00", "P29_009": null }, "geometry": { "type": "Point", "coordinates": [ 138.418003753424699, 35.728426880018446 ] } },
{ "type": "Feature", "properties": { "P29_001": "19210", "P29_002": "B119210001384", "P29_003": "16001", "P29_004": "甲斐市立竜王北小学校", "P29_005": "山梨県甲斐市竜王555", "P29_006": "3", "P29_007": "1", "P29_008": "00", "P29_009": null }, "geometry": { "type": "Point", "coordinates": [ 138.508109330057579, 35.67028229949215 ] } },
{ "type": "Feature", "properties": { "P29_001": "19211", "P29_002": "B119210001393", "P29_003": "16001", "P29_004": "笛吹市立八代小学校", "P29_005": "山梨県笛吹市八代町岡780", "P29_006": "3", "P29_007": "1", "P29_008": "00", "P29_009": null }, "geometry": { "type": "Point", "coordinates": [ 138.640574424538215, 35.610707418372414 ] } },
{ "type": "Feature", "properties": { "P29_001": "19201", "P29_002": "B119210001400", "P29_003": "16001", "P29_004": "甲府市立新田小学校", "P29_005": "山梨県甲府市新田町12-28", "P29_006": "3", "P29_007": "1", "P29_008": "00", "P29_009": null }, "geometry": { "type": "Point", "coordinates": [ 138.53831365261604, 35.66287753165544 ] } },
{ "type": "Feature", "properties": { "P29_001": "19210", "P29_002": "B119210001419", "P29_003": "16001", "P29_004": "甲斐市立竜王西小学校", "P29_005": "山梨県甲斐市玉川75", "P29_006": "3", "P29_007": "1", "P29_008": "00", "P29_009": null }, "geometry": { "type": "Point", "coordinates": [ 138.51835360273131, 35.63838409568568 ] } },
{ "type": "Feature", "properties": { "P29_001": "19210", "P29_002": "B119210001428", "P29_003": "16001", "P29_004": "甲斐市立敷島南小学校", "P29_005": "山梨県甲斐市大下条175", "P29_006": "3", "P29_007": "1", "P29_008": "00", "P29_009": null }, "geometry": { "type": "Point", "coordinates": [ 138.529070718353381, 35.671739723420444 ] } },
{ "type": "Feature", "properties": { "P29_001": "19208", "P29_002": "B119210001437", "P29_003": "16001", "P29_004": "南アルプス市立八田小学校", "P29_005": "山梨県南アルプス市野牛島2222", "P29_006": "3", "P29_007": "1", "P29_008": "00", "P29_009": null }, "geometry": { "type": "Point", "coordinates": [ 138.477288053131446, 35.664139003933393 ] } },
{ "type": "Feature", "properties": { "P29_001": "19208", "P29_002": "B119210001446", "P29_003": "16001", "P29_004": "南アルプス市立白根百田小学校", "P29_005": "山梨県南アルプス市百々2300", "P29_006": "3", "P29_007": "1", "P29_008": "00", "P29_009": null }, "geometry": { "type": "Point", "coordinates": [ 138.469888994479959, 35.658127997605433 ] } },
{ "type": "Feature", "properties": { "P29_001": "19207", "P29_002": "B119210001455", "P29_003": "16001", "P29_004": "韮崎市立甘利小学校", "P29_005": "山梨県韮崎市大草町上條東割821-1", "P29_006": "3", "P29_007": "1", "P29_008": "00", "P29_009": null }, "geometry": { "type": "Point", "coordinates": [ 138.451198768236793, 35.687678150203041 ] } },
{ "type": "Feature", "properties": { "P29_001": "19384", "P29_002": "B119210001464", "P29_003": "16001", "P29_004": "昭和町立西条小学校", "P29_005": "山梨県中巨摩郡昭和町西条2222", "P29_006": "3", "P29_007": "1", "P29_008": "00", "P29_009": null }, "geometry": { "type": "Point", "coordinates": [ 138.539437198740472, 35.637807139163279 ] } },
{ "type": "Feature", "properties": { "P29_001": "19214", "P29_002": "B119210001473", "P29_003": "16001", "P29_004": "中央市立田富北小学校", "P29_005": "山梨県中央市臼井阿原1740-132", "P29_006": "3", "P29_007": "1", "P29_008": "00", "P29_009": null }, "geometry": { "type": "Point", "coordinates": [ 138.513260977701435, 35.601525538544216 ] } },
{ "type": "Feature", "properties": { "P29_001": "19209", "P29_002": "B119210001482", "P29_003": "16001", "P29_004": "北杜市立須玉小学校", "P29_005": "山梨県北杜市須玉町若神子200-2", "P29_006": "3", "P29_007": "1", "P29_008": "00", "P29_009": null }, "geometry": { "type": "Point", "coordinates": [ 138.4252291206422, 35.794379574264028 ] } },
{ "type": "Feature", "properties": { "P29_001": "19210", "P29_002": "B119210001491", "P29_003": "16001", "P29_004": "甲斐市立竜王東小学校", "P29_005": "山梨県甲斐市富竹新田933-1", "P29_006": "3", "P29_007": "1", "P29_008": "00", "P29_009": null }, "geometry": { "type": "Point", "coordinates": [ 138.528447805963452, 35.658839658466142 ] } },
{ "type": "Feature", "properties": { "P29_001": "19201", "P29_002": "B119210001507", "P29_003": "16001", "P29_004": "甲府市立大国小学校", "P29_005": "山梨県甲府市後屋町150", "P29_006": "3", "P29_007": "1", "P29_008": "00", "P29_009": null }, "geometry": { "type": "Point", "coordinates": [ 138.565870944310205, 35.629141828517433 ] } },
{ "type": "Feature", "properties": { "P29_001": "19214", "P29_002": "B119210001516", "P29_003": "16001", "P29_004": "中央市立田富南小学校", "P29_005": "山梨県中央市西花輪1250", "P29_006": "3", "P29_007": "1", "P29_008": "00", "P29_009": null }, "geometry": { "type": "Point", "coordinates": [ 138.516563635805369, 35.586826419825435 ] } },
{ "type": "Feature", "properties": { "P29_001": "19207", "P29_002": "B119210001525", "P29_003": "16001", "P29_004": "韮崎市立韮崎北東小学校", "P29_005": "山梨県韮崎市藤井町駒井1912", "P29_006": "3", "P29_007": "1", "P29_008": "00", "P29_009": null }, "geometry": { "type": "Point", "coordinates": [ 138.442277438791308, 35.732226143044556 ] } },
{ "type": "Feature", "properties": { "P29_001": "19214", "P29_002": "B119210001534", "P29_003": "16001", "P29_004": "中央市立玉穂南小学校", "P29_005": "山梨県中央市下河東2020", "P29_006": "3", "P29_007": "1", "P29_008": "00", "P29_009": null }, "geometry": { "type": "Point", "coordinates": [ 138.536548252749697, 35.597819667128377 ] } },
{ "type": "Feature", "properties": { "P29_001": "19214", "P29_002": "B119210001543", "P29_003": "16001", "P29_004": "中央市立玉穂南小学校下河東分校", "P29_005": "山梨県中央市下河東1110", "P29_006": "3", "P29_007": "1", "P29_008": "00", "P29_009": null }, "geometry": { "type": "Point", "coordinates": [ 138.539312285025346, 35.609232791764057 ] } },
{ "type": "Feature", "properties": { "P29_001": "19201", "P29_002": "B119210001552", "P29_003": "16001", "P29_004": "甲府市立山城小学校分校", "P29_005": "山梨県甲府市増坪町366市立甲府病院内", "P29_006": "3", "P29_007": "1", "P29_008": "00", "P29_009": null }, "geometry": { "type": "Point", "coordinates": [ 138.590998253816593, 35.634487515648651 ] } },
{ "type": "Feature", "properties": { "P29_001": "19208", "P29_002": "B119210001561", "P29_003": "16001", "P29_004": "南アルプス市立若草南小学校", "P29_005": "山梨県南アルプス市藤田1130-1", "P29_006": "3", "P29_007": "1", "P29_008": "00", "P29_009": null }, "geometry": { "type": "Point", "coordinates": [ 138.498198782358202, 35.595809853805648 ] } },
{ "type": "Feature", "properties": { "P29_001": "19202", "P29_002": "B119210001570", "P29_003": "16001", "P29_004": "富士吉田市立吉田小学校分校", "P29_005": "山梨県富士吉田市上吉田東7-11-1富士吉田市立病院内", "P29_006": "3", "P29_007": "1", "P29_008": "00", "P29_009": null }, "geometry": { "type": "Point", "coordinates": [ 138.806192845692976, 35.465054616325091 ] } },
{ "type": "Feature", "properties": { "P29_001": "19212", "P29_002": "B119210001589", "P29_003": "16001", "P29_004": "上野原市立秋山小学校", "P29_005": "山梨県上野原市秋山8674", "P29_006": "3", "P29_007": "1", "P29_008": "00", "P29_009": null }, "geometry": { "type": "Point", "coordinates": [ 139.070878957663609, 35.570167582436511 ] } },
{ "type": "Feature", "properties": { "P29_001": "19384", "P29_002": "B119210001598", "P29_003": "16001", "P29_004": "昭和町立常永小学校", "P29_005": "山梨県中巨摩郡昭和町河西15", "P29_006": "3", "P29_007": "1", "P29_008": "00", "P29_009": null }, "geometry": { "type": "Point", "coordinates": [ 138.524928620970144, 35.617965410766629 ] } },
{ "type": "Feature", "properties": { "P29_001": "19211", "P29_002": "B119210001605", "P29_003": "16001", "P29_004": "笛吹市立石和西小学校", "P29_005": "山梨県笛吹市石和町唐柏360", "P29_006": "3", "P29_007": "1", "P29_008": "00", "P29_009": null }, "geometry": { "type": "Point", "coordinates": [ 138.619639145669282, 35.632575074010752 ] } },
{ "type": "Feature", "properties": { "P29_001": "19201", "P29_002": "B119210001614", "P29_003": "16001", "P29_004": "甲府市立舞鶴小学校", "P29_005": "山梨県甲府市丸の内2-35-5", "P29_006": "3", "P29_007": "1", "P29_008": "00", "P29_009": null }, "geometry": { "type": "Point", "coordinates": [ 138.565150333009541, 35.66325501358353 ] } },
{ "type": "Feature", "properties": { "P29_001": "19201", "P29_002": "B119210001623", "P29_003": "16001", "P29_004": "甲府市立中道南小学校桜木分校", "P29_005": "山梨県甲府市中畑町1284", "P29_006": "3", "P29_007": "1", "P29_008": "00", "P29_009": null }, "geometry": { "type": "Point", "coordinates": [ 138.599594676208966, 35.56732727191735 ] } },
{ "type": "Feature", "properties": { "P29_001": "19201", "P29_002": "B119210001632", "P29_003": "16001", "P29_004": "甲府市立善誘館小学校", "P29_005": "山梨県甲府市朝気1-2-52", "P29_006": "3", "P29_007": "1", "P29_008": "00", "P29_009": null }, "geometry": { "type": "Point", "coordinates": [ 138.581195994814919, 35.655747277146091 ] } },
{ "type": "Feature", "properties": { "P29_001": "19212", "P29_002": "B119210001641", "P29_003": "16001", "P29_004": "上野原市立上野原西小学校", "P29_005": "山梨県上野原市コモアしおつ2-13-1", "P29_006": "3", "P29_007": "1", "P29_008": "00", "P29_009": null }, "geometry": { "type": "Point", "coordinates": [ 139.078841979366615, 35.61576066379542 ] } },
{ "type": "Feature", "properties": { "P29_001": "19209", "P29_002": "B119210001650", "P29_003": "16001", "P29_004": "北杜市立長坂小学校", "P29_005": "山梨県北杜市長坂町長坂上条1603-1", "P29_006": "3", "P29_007": "1", "P29_008": "00", "P29_009": null }, "geometry": { "type": "Point", "coordinates": [ 138.373586470168277, 35.824776089892765 ] } },
{ "type": "Feature", "properties": { "P29_001": "19205", "P29_002": "B119210001669", "P29_003": "16001", "P29_004": "山梨市立笛川小学校", "P29_005": "山梨県山梨市牧丘町窪平1200", "P29_006": "3", "P29_007": "1", "P29_008": "00", "P29_009": null }, "geometry": { "type": "Point", "coordinates": [ 138.713316138528427, 35.746594255267667 ] } },
{ "type": "Feature", "properties": { "P29_001": "19365", "P29_002": "B119210001678", "P29_003": "16001", "P29_004": "身延町立身延清稜小学校", "P29_005": "山梨県南巨摩郡身延町西嶋1228", "P29_006": "3", "P29_007": "1", "P29_008": "00", "P29_009": null }, "geometry": { "type": "Point", "coordinates": [ 138.44731371207655, 35.48709315833797 ] } },
{ "type": "Feature", "properties": { "P29_001": "19365", "P29_002": "B119210001687", "P29_003": "16001", "P29_004": "身延町立下山小学校", "P29_005": "山梨県南巨摩郡身延町下山10000-1", "P29_006": "3", "P29_007": "1", "P29_008": "00", "P29_009": null }, "geometry": { "type": "Point", "coordinates": [ 138.445234172498999, 35.413733572179453 ] } },
{ "type": "Feature", "properties": { "P29_001": "19365", "P29_002": "B119210001696", "P29_003": "16001", "P29_004": "身延町立身延小学校", "P29_005": "山梨県南巨摩郡身延町梅平897", "P29_006": "3", "P29_007": "1", "P29_008": "00", "P29_009": null }, "geometry": { "type": "Point", "coordinates": [ 138.434722390472359, 35.370558118270893 ] } },
{ "type": "Feature", "properties": { "P29_001": "19212", "P29_002": "B119210001703", "P29_003": "16001", "P29_004": "上野原市立上野原小学校", "P29_005": "山梨県上野原市上野原3454", "P29_006": "3", "P29_007": "1", "P29_008": "00", "P29_009": null }, "geometry": { "type": "Point", "coordinates": [ 139.112934854930131, 35.630217791837808 ] } },
{ "type": "Feature", "properties": { "P29_001": "19209", "P29_002": "B119210001712", "P29_003": "16001", "P29_004": "北杜市立高根東小学校", "P29_005": "山梨県北杜市高根町村山北割1035", "P29_006": "3", "P29_007": "1", "P29_008": "00", "P29_009": null }, "geometry": { "type": "Point", "coordinates": [ 138.421661018485224, 35.835777226035155 ] } },
{ "type": "Feature", "properties": { "P29_001": "19366", "P29_002": "B119210001721", "P29_003": "16001", "P29_004": "南部町立富沢小学校", "P29_005": "山梨県南巨摩郡南部町福士2700-19", "P29_006": "3", "P29_007": "1", "P29_008": "00", "P29_009": null }, "geometry": { "type": "Point", "coordinates": [ 138.483818492276129, 35.241781420447204 ] } },
{ "type": "Feature", "properties": { "P29_001": "19201", "P29_002": "B119310000016", "P29_003": "16001", "P29_004": "駿台甲府小学校", "P29_005": "山梨県甲府市上今井町884-1", "P29_006": "4", "P29_007": "1", "P29_008": "00", "P29_009": null }, "geometry": { "type": "Point", "coordinates": [ 138.575813438644957, 35.622133924628947 ] } },
{ "type": "Feature", "properties": { "P29_001": "19201", "P29_002": "B119310000025", "P29_003": "16001", "P29_004": "山梨学院小学校", "P29_005": "山梨県甲府市酒折1-11-1", "P29_006": "4", "P29_007": "1", "P29_008": "00", "P29_009": null }, "geometry": { "type": "Point", "coordinates": [ 138.599240006181077, 35.657093160522052 ] } },
{ "type": "Feature", "properties": { "P29_001": "19208", "P29_002": "B119310000034", "P29_003": "16001", "P29_004": "南アルプス子どもの村小学校", "P29_005": "山梨県南アルプス市徳永1717", "P29_006": "4", "P29_007": "1", "P29_008": "00", "P29_009": null }, "geometry": { "type": "Point", "coordinates": [ 138.486606443061618, 35.654473210261713 ] } },
{ "type": "Feature", "properties": { "P29_001": "19430", "P29_002": "B119310000043", "P29_003": "16001", "P29_004": "素和美小学校", "P29_005": "山梨県南都留郡富士河口湖町小立5703", "P29_006": "4", "P29_007": "1", "P29_008": "00", "P29_009": null }, "geometry": { "type": "Point", "coordinates": [ 138.74870839963404, 35.478491974931551 ] } }
]
}
