{
"type": "FeatureCollection",
"name": "geo_19_地域密着型介護老人福祉施設入所者生活介護",
"crs": { "type": "name", "properties": { "name": "urn:ogc:def:crs:OGC:1.3:CRS84" } },
"features": [
{ "type": "Feature", "properties": { "内容": "特別養護老人ホーム　志麻の郷・湯村【地域密着型介護老人福祉施設入所者生活介護】山梨県甲府市湯村３－１１－１０", "url": "https://www.kaigokensaku.mhlw.go.jp/19/index.php?action_kouhyou_detail_004_kani=true&JigyosyoCd=1990100198-00&ServiceCd=540&Type=search", "url2": "http://www.hikarinosato.com" }, "geometry": { "type": "Point", "coordinates": [ 138.54816930000004, 35.6827294 ] } },
{ "type": "Feature", "properties": { "内容": "フォーリーブス甲府【地域密着型介護老人福祉施設入所者生活介護】山梨県甲府市東下条町107番地", "url": "https://www.kaigokensaku.mhlw.go.jp/19/index.php?action_kouhyou_detail_004_kani=true&JigyosyoCd=1990100461-00&ServiceCd=540&Type=search", "url2": "http://yotsuba-k.or.jp/home" }, "geometry": { "type": "Point", "coordinates": [ 138.574509300000045, 35.6126819 ] } },
{ "type": "Feature", "properties": { "内容": "地域密着型介護老人福祉施設パティオ蓬沢【地域密着型介護老人福祉施設入所者生活介護】蓬沢1-7-35", "url": "https://www.kaigokensaku.mhlw.go.jp/19/index.php?action_kouhyou_detail_004_kani=true&JigyosyoCd=1990100479-00&ServiceCd=540&Type=search", "url2": "c-and-c.or.jp" }, "geometry": { "type": "Point", "coordinates": [ 138.590235099999973, 35.6442356 ] } },
{ "type": "Feature", "properties": { "内容": "やすらぎの郷・舞鶴【地域密着型介護老人福祉施設入所者生活介護】山梨県甲府市宝2丁目18-3", "url": "https://www.kaigokensaku.mhlw.go.jp/19/index.php?action_kouhyou_detail_004_kani=true&JigyosyoCd=1990100875-00&ServiceCd=540&Type=search", "url2": "https://www.hikarinosato.com/" }, "geometry": { "type": "Point", "coordinates": [ 138.5619407, 35.6609897 ] } },
{ "type": "Feature", "properties": { "内容": "小瀬公園あかし【地域密着型介護老人福祉施設入所者生活介護】山梨県甲府市小瀬町６１２番地", "url": "https://www.kaigokensaku.mhlw.go.jp/19/index.php?action_kouhyou_detail_004_kani=true&JigyosyoCd=1990100396-00&ServiceCd=540&Type=search", "url2": "http://akashi.or.jp" }, "geometry": { "type": "Point", "coordinates": [ 138.581554, 35.6254893 ] } },
{ "type": "Feature", "properties": { "内容": "特別養護老人ホーム　みんなの家　青沼【地域密着型介護老人福祉施設入所者生活介護】山梨県甲府市青沼2-22-14", "url": "https://www.kaigokensaku.mhlw.go.jp/19/index.php?action_kouhyou_detail_004_kani=true&JigyosyoCd=1990100560-00&ServiceCd=540&Type=search", "url2": "https://www.takumi.sc/welfare" }, "geometry": { "type": "Point", "coordinates": [ 138.578484399999979, 35.6532897 ] } },
{ "type": "Feature", "properties": { "内容": "地域密着型特別養護老人ホーム　和楽WARAKU【地域密着型介護老人福祉施設入所者生活介護】山梨県甲府市大和町3番地6号地域密着型特別養護老人ホーム　和楽WARAKU", "url": "https://www.kaigokensaku.mhlw.go.jp/19/index.php?action_kouhyou_detail_004_kani=true&JigyosyoCd=1990100503-00&ServiceCd=540&Type=search", "url2": "http://www.kashinokai.or.jp" }, "geometry": { "type": "Point", "coordinates": [ 138.5560841, 35.6784782 ] } },
{ "type": "Feature", "properties": { "内容": "指定地域密着型介護老人福祉施設入所者生活介護事業所コスモ・アンシア【地域密着型介護老人福祉施設入所者生活介護】山梨県甲府市相生３－３－１４", "url": "https://www.kaigokensaku.mhlw.go.jp/19/index.php?action_kouhyou_detail_004_kani=true&JigyosyoCd=1990100362-00&ServiceCd=540&Type=search", "url2": "https://ikiikiclub.com" }, "geometry": { "type": "Point", "coordinates": [ 138.5697377, 35.6536957 ] } },
{ "type": "Feature", "properties": { "内容": "特別養護老人ホーム　オアゾSやましろ【地域密着型介護老人福祉施設入所者生活介護】山梨県甲府市上町９１６－２", "url": "https://www.kaigokensaku.mhlw.go.jp/19/index.php?action_kouhyou_detail_004_kani=true&JigyosyoCd=1990100438-00&ServiceCd=540&Type=search", "url2": "http://fuurinsou.com" }, "geometry": { "type": "Point", "coordinates": [ 138.593607799999972, 35.6290148 ] } },
{ "type": "Feature", "properties": { "内容": "特別養護老人ホーム　風林荘別館【地域密着型介護老人福祉施設入所者生活介護】山梨県甲府市宮原町１２２７－１風林荘別館", "url": "https://www.kaigokensaku.mhlw.go.jp/19/index.php?action_kouhyou_detail_004_kani=true&JigyosyoCd=1990100628-00&ServiceCd=540&Type=search", "url2": "http://fuurinsou.com" }, "geometry": { "type": "Point", "coordinates": [ 138.557606161882177, 35.618630084942637 ] } },
{ "type": "Feature", "properties": { "内容": "特別養護老人ホーム　わかやなぎ【地域密着型介護老人福祉施設入所者生活介護】山梨県甲府市池田1丁目1-1", "url": "https://www.kaigokensaku.mhlw.go.jp/19/index.php?action_kouhyou_detail_004_kani=true&JigyosyoCd=1990100271-00&ServiceCd=540&Type=search", "url2": "https://wakayanagi.jp" }, "geometry": { "type": "Point", "coordinates": [ 138.5430949, 35.6696904 ] } },
{ "type": "Feature", "properties": { "内容": "サテライト万寿の杜【地域密着型介護老人福祉施設入所者生活介護】山梨県甲府市湯村3丁目8-1", "url": "https://www.kaigokensaku.mhlw.go.jp/19/index.php?action_kouhyou_detail_004_kani=true&JigyosyoCd=1990100636-00&ServiceCd=540&Type=search", "url2": "http://c-and-c.or.jp/" }, "geometry": { "type": "Point", "coordinates": [ 138.5521802, 35.6809338 ] } },
{ "type": "Feature", "properties": { "内容": "特別養護老人ホームいけだの里【地域密着型介護老人福祉施設入所者生活介護】山梨県甲府市下飯田1-2-17", "url": "https://www.kaigokensaku.mhlw.go.jp/19/index.php?action_kouhyou_detail_004_kani=true&JigyosyoCd=1990100610-00&ServiceCd=540&Type=search", "url2": "http://ykf.or.jp" }, "geometry": { "type": "Point", "coordinates": [ 138.545131199999986, 35.6691534 ] } },
{ "type": "Feature", "properties": { "内容": "特別養護老人ホームらくえんリニア甲府【地域密着型介護老人福祉施設入所者生活介護】山梨県甲府市高室町573番地", "url": "https://www.kaigokensaku.mhlw.go.jp/19/index.php?action_kouhyou_detail_004_kani=true&JigyosyoCd=1990100917-00&ServiceCd=540&Type=search", "url2": "https://rakuen1294.com/" }, "geometry": { "type": "Point", "coordinates": [ 138.556955, 35.6051007 ] } },
{ "type": "Feature", "properties": { "内容": "サテライト特養　尚古園【地域密着型介護老人福祉施設入所者生活介護】甲府市中央１丁目16番2号", "url": "https://www.kaigokensaku.mhlw.go.jp/19/index.php?action_kouhyou_detail_004_kani=true&JigyosyoCd=1990100081-00&ServiceCd=540&Type=search", "url2": "http://www.zenrinkai.or.jp" }, "geometry": { "type": "Point", "coordinates": [ 138.570021, 35.6591165 ] } },
{ "type": "Feature", "properties": { "内容": "地域密着型特別養護老人ホームおりひめ【地域密着型介護老人福祉施設入所者生活介護】山梨県富士吉田市上吉田５４１０番地の１", "url": "https://www.kaigokensaku.mhlw.go.jp/19/index.php?action_kouhyou_detail_004_kani=true&JigyosyoCd=1991200054-00&ServiceCd=540&Type=search", "url2": "http://www.snhfuyoso.com" }, "geometry": { "type": "Point", "coordinates": [ 138.790912400000025, 35.4723793 ] } },
{ "type": "Feature", "properties": { "内容": "地域密着型特別養護老人ホームしののめ【地域密着型介護老人福祉施設入所者生活介護】山梨県富士吉田市小明見3-3-14", "url": "https://www.kaigokensaku.mhlw.go.jp/19/index.php?action_kouhyou_detail_004_kani=true&JigyosyoCd=1991200062-00&ServiceCd=540&Type=search", "url2": "http://www.snhfuyoso.com" }, "geometry": { "type": "Point", "coordinates": [ 138.828698300000042, 35.4981273 ] } },
{ "type": "Feature", "properties": { "内容": "特別養護老人ホーム慶和荘シンビオシス【地域密着型介護老人福祉施設入所者生活介護】山梨県富士吉田市上吉田東4-8-4", "url": "https://www.kaigokensaku.mhlw.go.jp/19/index.php?action_kouhyou_detail_004_kani=true&JigyosyoCd=1991200211-00&ServiceCd=540&Type=search", "url2": "http://www.mswc.or.jp" }, "geometry": { "type": "Point", "coordinates": [ 138.8020256, 35.4740921 ] } },
{ "type": "Feature", "properties": { "内容": "特別養護老人ホーム慶和荘サテライト【地域密着型介護老人福祉施設入所者生活介護】山梨県富士吉田市上吉田字熊穴４５８７", "url": "https://www.kaigokensaku.mhlw.go.jp/19/index.php?action_kouhyou_detail_004_kani=true&JigyosyoCd=1991200039-00&ServiceCd=540&Type=search", "url2": "http://www.mswc.or.jp" }, "geometry": { "type": "Point", "coordinates": [ 138.785229, 35.4764754 ] } },
{ "type": "Feature", "properties": { "内容": "特別養護老人ホーム慶和荘レジデンス【地域密着型介護老人福祉施設入所者生活介護】山梨県富士吉田市上吉田字熊穴4555-1", "url": "https://www.kaigokensaku.mhlw.go.jp/19/index.php?action_kouhyou_detail_004_kani=true&JigyosyoCd=1991200112-00&ServiceCd=540&Type=search", "url2": "http://www.mswc.or.jp" }, "geometry": { "type": "Point", "coordinates": [ 138.775294097808768, 35.471862095097663 ] } },
{ "type": "Feature", "properties": { "内容": "ちいきみっちゃくがたかいごろうじんふくししせつよこぶきのさと【地域密着型介護老人福祉施設入所者生活介護】山梨県都留市古川渡658-1", "url": "https://www.kaigokensaku.mhlw.go.jp/19/index.php?action_kouhyou_detail_004_kani=true&JigyosyoCd=1991100056-00&ServiceCd=540&Type=search", "url2": "http://www.yokobukiso.or.jp" }, "geometry": { "type": "Point", "coordinates": [ 138.925371500000011, 35.571706 ] } },
{ "type": "Feature", "properties": { "内容": "地域密着型介護老人福祉施設　恵信サテライトロジェ山梨【地域密着型介護老人福祉施設入所者生活介護】山梨県山梨市落合464-1", "url": "https://www.kaigokensaku.mhlw.go.jp/19/index.php?action_kouhyou_detail_004_kani=true&JigyosyoCd=1990200030-00&ServiceCd=540&Type=search", "url2": "https://www.keishin-group.net/satellite/" }, "geometry": { "type": "Point", "coordinates": [ 138.6577361, 35.6781229 ] } },
{ "type": "Feature", "properties": { "内容": "地域密着型特別養護老人ホーム　サテライト桃源荘日川【地域密着型介護老人福祉施設入所者生活介護】山梨県山梨市一町田中197", "url": "https://www.kaigokensaku.mhlw.go.jp/19/index.php?action_kouhyou_detail_004_kani=true&JigyosyoCd=1990200055-00&ServiceCd=540&Type=search", "url2": "http://www.yfj.or.jp/" }, "geometry": { "type": "Point", "coordinates": [ 138.672982109339955, 35.663228406486759 ] } },
{ "type": "Feature", "properties": { "内容": "地域密着型特別養護老人ホーム山美家【地域密着型介護老人福祉施設入所者生活介護】山梨県大月市初狩町中初狩3274-45", "url": "https://www.kaigokensaku.mhlw.go.jp/19/index.php?action_kouhyou_detail_004_kani=true&JigyosyoCd=1991400019-00&ServiceCd=540&Type=search", "url2": "http://www.fujikosei.or.jp" }, "geometry": { "type": "Point", "coordinates": [ 138.876633537811472, 35.58049952288949 ] } },
{ "type": "Feature", "properties": { "内容": "地域密着型特別養護老人ホーム　サンコート大月【地域密着型介護老人福祉施設入所者生活介護】山梨県大月市賑岡町浅利1108-1", "url": "https://www.kaigokensaku.mhlw.go.jp/19/index.php?action_kouhyou_detail_004_kani=true&JigyosyoCd=1991400043-00&ServiceCd=540&Type=search", "url2": "https://www.yamanomiyako.or.jp/" }, "geometry": { "type": "Point", "coordinates": [ 138.925435472352632, 35.621064605404392 ] } },
{ "type": "Feature", "properties": { "内容": "フルリールにらさき【地域密着型介護老人福祉施設入所者生活介護】山梨県韮崎市富士見二丁目15-27", "url": "https://www.kaigokensaku.mhlw.go.jp/19/index.php?action_kouhyou_detail_004_kani=true&JigyosyoCd=1990900035-00&ServiceCd=540&Type=search", "url2": "https://sanseifukushikai.com" }, "geometry": { "type": "Point", "coordinates": [ 138.456708600000013, 35.7082454 ] } },
{ "type": "Feature", "properties": { "内容": "地域密着型介護老人福祉施設　豊寿荘【地域密着型介護老人福祉施設入所者生活介護】南アルプス市十日市場７２７－１", "url": "https://www.kaigokensaku.mhlw.go.jp/19/index.php?action_kouhyou_detail_004_kani=true&JigyosyoCd=1991600055-00&ServiceCd=540&Type=search", "url2": "houjyu-hp@yfj.or.jp" }, "geometry": { "type": "Point", "coordinates": [ 138.476814900000022, 35.607125 ] } },
{ "type": "Feature", "properties": { "内容": "地域密着型特別養護老人ホーム　ひまわりの家【地域密着型介護老人福祉施設入所者生活介護】山梨県南アルプス市小笠原1328-1", "url": "https://www.kaigokensaku.mhlw.go.jp/19/index.php?action_kouhyou_detail_004_kani=true&JigyosyoCd=1991600063-00&ServiceCd=540&Type=search", "url2": "https://oujukai.jp/about/" }, "geometry": { "type": "Point", "coordinates": [ 138.4635956, 35.618444 ] } },
{ "type": "Feature", "properties": { "内容": "特別養護老人ホーム白峰荘【地域密着型介護老人福祉施設入所者生活介護】山梨県南アルプス市飯野2820", "url": "https://www.kaigokensaku.mhlw.go.jp/19/index.php?action_kouhyou_detail_004_kani=true&JigyosyoCd=1991600030-00&ServiceCd=540&Type=search", "url2": null }, "geometry": { "type": "Point", "coordinates": [ 138.4636314, 35.6418645 ] } },
{ "type": "Feature", "properties": { "内容": "特別養護老人ホーム　あかさか【地域密着型介護老人福祉施設入所者生活介護】山梨県甲斐市竜王新町２１８８－１", "url": "https://www.kaigokensaku.mhlw.go.jp/19/index.php?action_kouhyou_detail_004_kani=true&JigyosyoCd=1991700038-00&ServiceCd=540&Type=search", "url2": null }, "geometry": { "type": "Point", "coordinates": [ 138.5073327, 35.6789988 ] } },
{ "type": "Feature", "properties": { "内容": "特別養護老人ホーム　桑の実の郷・ふたば【地域密着型介護老人福祉施設入所者生活介護】山梨県甲斐市宇津谷1066", "url": "https://www.kaigokensaku.mhlw.go.jp/19/index.php?action_kouhyou_detail_004_kani=true&JigyosyoCd=1991700327-00&ServiceCd=540&Type=search", "url2": "http://hikarinosato.com/" }, "geometry": { "type": "Point", "coordinates": [ 138.476227, 35.7021293 ] } },
{ "type": "Feature", "properties": { "内容": "社会福祉法人燦生福祉会　フルリール甲斐【地域密着型介護老人福祉施設入所者生活介護】山梨県甲斐市篠原842-1フルリール甲斐", "url": "https://www.kaigokensaku.mhlw.go.jp/19/index.php?action_kouhyou_detail_004_kani=true&JigyosyoCd=1991900083-00&ServiceCd=540&Type=search", "url2": null }, "geometry": { "type": "Point", "coordinates": [ 138.526425499999988, 35.6471039 ] } },
{ "type": "Feature", "properties": { "内容": "サテライト型特別養護老人ホームエール境川【地域密着型介護老人福祉施設入所者生活介護】山梨県笛吹市境川町石橋1988-1", "url": "https://www.kaigokensaku.mhlw.go.jp/19/index.php?action_kouhyou_detail_004_kani=true&JigyosyoCd=1991800150-00&ServiceCd=540&Type=search", "url2": "http://www.kojyu.or.jp/" }, "geometry": { "type": "Point", "coordinates": [ 138.6211667, 35.6043472 ] } },
{ "type": "Feature", "properties": { "内容": "特別養護老人ホーム壽ノ家いちのみや【地域密着型介護老人福祉施設入所者生活介護】笛吹市一宮町塩田741-1", "url": "https://www.kaigokensaku.mhlw.go.jp/19/index.php?action_kouhyou_detail_004_kani=true&JigyosyoCd=1991800051-00&ServiceCd=540&Type=search", "url2": "http://www.krg.ne.jp/kotobuki//" }, "geometry": { "type": "Point", "coordinates": [ 138.6908363, 35.6339459 ] } },
{ "type": "Feature", "properties": { "内容": "特別養護老人ホーム壽ノ家いさわ【地域密着型介護老人福祉施設入所者生活介護】山梨県笛吹市石和町四日市場2031", "url": "https://www.kaigokensaku.mhlw.go.jp/19/index.php?action_kouhyou_detail_004_kani=true&JigyosyoCd=1991800085-00&ServiceCd=540&Type=search", "url2": "http://www.krg.ne.jp/kotobuki/" }, "geometry": { "type": "Point", "coordinates": [ 138.6265543, 35.6463337 ] } },
{ "type": "Feature", "properties": { "内容": "地域密着型特別養護老人ホーム　エレガローザいちのみや【地域密着型介護老人福祉施設入所者生活介護】山梨県笛吹市一宮町下矢作３００－３", "url": "https://www.kaigokensaku.mhlw.go.jp/19/index.php?action_kouhyou_detail_004_kani=true&JigyosyoCd=1991800101-00&ServiceCd=540&Type=search", "url2": "http://www.elegaroza.com" }, "geometry": { "type": "Point", "coordinates": [ 138.684156640089441, 35.656977757087965 ] } },
{ "type": "Feature", "properties": { "内容": "地域密着型特別養護老人ホームエール二之宮【地域密着型介護老人福祉施設入所者生活介護】山梨県笛吹市御坂町二之宮1966-1", "url": "https://www.kaigokensaku.mhlw.go.jp/19/index.php?action_kouhyou_detail_004_kani=true&JigyosyoCd=1991800044-00&ServiceCd=540&Type=search", "url2": "http://www.kojyu.or.jp/yell/" }, "geometry": { "type": "Point", "coordinates": [ 138.639858299999986, 35.6328843 ] } },
{ "type": "Feature", "properties": { "内容": "地域密着型特別養護老人ホーム緑と風【地域密着型介護老人福祉施設入所者生活介護】山梨県甲州市塩山下於曽1257番地1", "url": "https://www.kaigokensaku.mhlw.go.jp/19/index.php?action_kouhyou_detail_004_kani=true&JigyosyoCd=1992200038-00&ServiceCd=540&Type=search", "url2": "http:www.midoritokaze.com/" }, "geometry": { "type": "Point", "coordinates": [ 138.72241340000005, 35.6970332 ] } },
{ "type": "Feature", "properties": { "内容": "地域密着型特別養護老人ホーム　ひかり屋形【地域密着型介護老人福祉施設入所者生活介護】塩山熊野７７４－１", "url": "https://www.kaigokensaku.mhlw.go.jp/19/index.php?action_kouhyou_detail_004_kani=true&JigyosyoCd=1992200046-00&ServiceCd=540&Type=search", "url2": "hikariyakata@friend.ocn.ne.jp" }, "geometry": { "type": "Point", "coordinates": [ 138.7314307, 35.6893225 ] } },
{ "type": "Feature", "properties": { "内容": "地域密着型特別養護老人ホーム　ぶどう畑【地域密着型介護老人福祉施設入所者生活介護】山梨県甲州市勝沼町休息1300-1", "url": "https://www.kaigokensaku.mhlw.go.jp/19/index.php?action_kouhyou_detail_004_kani=true&JigyosyoCd=1992200053-00&ServiceCd=540&Type=search", "url2": "http://keisen-budou.or.jp/" }, "geometry": { "type": "Point", "coordinates": [ 138.714953718654243, 35.674175187182023 ] } },
{ "type": "Feature", "properties": { "内容": "地域密着型特別養護老人ホーム　サテライトぶどう畑【地域密着型介護老人福祉施設入所者生活介護】山梨県甲州市勝沼町綿塚663-1", "url": "https://www.kaigokensaku.mhlw.go.jp/19/index.php?action_kouhyou_detail_004_kani=true&JigyosyoCd=1992200087-00&ServiceCd=540&Type=search", "url2": "http://keisen-budou.or.jp/" }, "geometry": { "type": "Point", "coordinates": [ 138.701886258186306, 35.675246060769432 ] } },
{ "type": "Feature", "properties": { "内容": "ふる里ホーム玉穂げんき村【地域密着型介護老人福祉施設入所者生活介護】山梨県中央市乙黒235-1", "url": "https://www.kaigokensaku.mhlw.go.jp/19/index.php?action_kouhyou_detail_004_kani=true&JigyosyoCd=1992300044-00&ServiceCd=540&Type=search", "url2": "https：//shoju.or.jp/" }, "geometry": { "type": "Point", "coordinates": [ 138.553091731413275, 35.597774220180689 ] } },
{ "type": "Feature", "properties": { "内容": "社会福祉法人正寿福祉会ふる里ホーム山之神【地域密着型介護老人福祉施設入所者生活介護】山梨県中央市山之神74", "url": "https://www.kaigokensaku.mhlw.go.jp/19/index.php?action_kouhyou_detail_004_kani=true&JigyosyoCd=1992300051-00&ServiceCd=540&Type=search", "url2": "https：//shoju.or.jp" }, "geometry": { "type": "Point", "coordinates": [ 138.5121704, 35.6218918 ] } },
{ "type": "Feature", "properties": { "内容": "特別養護老人ホームらくえん倶楽部【地域密着型介護老人福祉施設入所者生活介護】山梨県中央市極楽寺745番地1", "url": "https://www.kaigokensaku.mhlw.go.jp/19/index.php?action_kouhyou_detail_004_kani=true&JigyosyoCd=1992300010-00&ServiceCd=540&Type=search", "url2": "http://www.rakuen1294.com/" }, "geometry": { "type": "Point", "coordinates": [ 138.557175, 35.6024037 ] } },
{ "type": "Feature", "properties": { "内容": "地域密着型介護介護老人福祉施設りんどうの里【地域密着型介護老人福祉施設入所者生活介護】山梨県西八代郡市川三郷町高田３０４３", "url": "https://www.kaigokensaku.mhlw.go.jp/19/index.php?action_kouhyou_detail_004_kani=true&JigyosyoCd=1990600031-00&ServiceCd=540&Type=search", "url2": null }, "geometry": { "type": "Point", "coordinates": [ 138.4869313, 35.5543635 ] } },
{ "type": "Feature", "properties": { "内容": "地域密着型介護老人福祉施設　うぐいすの森【地域密着型介護老人福祉施設入所者生活介護】山梨県西八代郡市川三郷町下大鳥居2131", "url": "https://www.kaigokensaku.mhlw.go.jp/19/index.php?action_kouhyou_detail_004_kani=true&JigyosyoCd=1990600015-00&ServiceCd=540&Type=search", "url2": null }, "geometry": { "type": "Point", "coordinates": [ 138.486248230888378, 35.554008999536151 ] } },
{ "type": "Feature", "properties": { "内容": "地域密着型介護老人福祉施設草塩おんせん【地域密着型介護老人福祉施設入所者生活介護】山梨県南巨摩郡早川町草塩７９－１ユニット型地域密着型介護老人福祉施設", "url": "https://www.kaigokensaku.mhlw.go.jp/19/index.php?action_kouhyou_detail_004_kani=true&JigyosyoCd=1990700062-00&ServiceCd=540&Type=search", "url2": "fk-kusashio＠fujikoseikai.or.jp" }, "geometry": { "type": "Point", "coordinates": [ 138.346442600000046, 35.4434157 ] } },
{ "type": "Feature", "properties": { "内容": "地域密着型介護老人福祉施設富士山荘ふるさと【地域密着型介護老人福祉施設入所者生活介護】山梨県南都留郡鳴沢村5061", "url": "https://www.kaigokensaku.mhlw.go.jp/19/index.php?action_kouhyou_detail_004_kani=true&JigyosyoCd=1991300029-00&ServiceCd=540&Type=search", "url2": "http://www.eiju.or.jp/" }, "geometry": { "type": "Point", "coordinates": [ 138.724304299999972, 35.4754244 ] } },
{ "type": "Feature", "properties": { "内容": "地域密着型介護老人福祉施設富士山荘まほろば【地域密着型介護老人福祉施設入所者生活介護】山梨県南都留郡富士河口湖町勝山2963-1", "url": "https://www.kaigokensaku.mhlw.go.jp/19/index.php?action_kouhyou_detail_004_kani=true&JigyosyoCd=1991300144-00&ServiceCd=540&Type=search", "url2": "http://www.eiju.or.jp/" }, "geometry": { "type": "Point", "coordinates": [ 138.737220674676621, 35.488252735957445 ] } },
{ "type": "Feature", "properties": { "内容": "特別養護老人ホームなでしこ【地域密着型介護老人福祉施設入所者生活介護】山梨県南都留郡富士河口湖町船津２２１０番地", "url": "https://www.kaigokensaku.mhlw.go.jp/19/index.php?action_kouhyou_detail_004_kani=true&JigyosyoCd=1991300011-00&ServiceCd=540&Type=search", "url2": null }, "geometry": { "type": "Point", "coordinates": [ 138.760804099999973, 35.492 ] } }
]
}
