{
"type": "FeatureCollection",
"name": "geo_19_訪問看護",
"crs": { "type": "name", "properties": { "name": "urn:ogc:def:crs:OGC:1.3:CRS84" } },
"features": [
{ "type": "Feature", "properties": { "内容": "訪問看護ステーション　デューン甲府【訪問看護】山梨県甲府市丸の内二丁目28番9号寺田ビル2階", "url": "https://www.kaigokensaku.mhlw.go.jp/19/index.php?action_kouhyou_detail_004_kani=true&JigyosyoCd=1960190260-00&ServiceCd=130&Type=search", "url2": "http://www.nfield.co.jp/" }, "geometry": { "type": "Point", "coordinates": [ 138.567101500000035, 35.6637381 ] } },
{ "type": "Feature", "properties": { "内容": "ほうもんかんごすてーしょんあやめこうふ【訪問看護】山梨県甲府市朝気2-2-9ハイツワンダー103", "url": "https://www.kaigokensaku.mhlw.go.jp/19/index.php?action_kouhyou_detail_004_kani=true&JigyosyoCd=1960190302-00&ServiceCd=130&Type=search", "url2": "http://www.firstnurse.co.jp" }, "geometry": { "type": "Point", "coordinates": [ 138.5858729, 35.6509476 ] } },
{ "type": "Feature", "properties": { "内容": "医療法人山角会　訪問看護ステーションウィズアス【訪問看護】山梨県甲府市美咲1-7-17ノア桂102号", "url": "https://www.kaigokensaku.mhlw.go.jp/19/index.php?action_kouhyou_detail_004_kani=true&JigyosyoCd=1960190310-00&ServiceCd=130&Type=search", "url2": "http://www.yamazumikai.jp/" }, "geometry": { "type": "Point", "coordinates": [ 138.5628644, 35.6741614 ] } },
{ "type": "Feature", "properties": { "内容": "訪問看護ステーションここれ【訪問看護】山梨県甲府市住吉５－３－１７J・I甲府第一マンション１０１", "url": "https://www.kaigokensaku.mhlw.go.jp/19/index.php?action_kouhyou_detail_004_kani=true&JigyosyoCd=1960190351-00&ServiceCd=130&Type=search", "url2": null }, "geometry": { "type": "Point", "coordinates": [ 138.57931450000001, 35.6358198 ] } },
{ "type": "Feature", "properties": { "内容": "ゆたか訪問看護ステーション【訪問看護】山梨県甲府市下飯田４－３－２ハイツインターⅡ１０３", "url": "https://www.kaigokensaku.mhlw.go.jp/19/index.php?action_kouhyou_detail_004_kani=true&JigyosyoCd=1960190369-00&ServiceCd=130&Type=search", "url2": null }, "geometry": { "type": "Point", "coordinates": [ 138.547123, 35.662587 ] } },
{ "type": "Feature", "properties": { "内容": "訪問看護ステーションハッピースマイル【訪問看護】山梨県甲府市上阿原町487‐1", "url": "https://www.kaigokensaku.mhlw.go.jp/19/index.php?action_kouhyou_detail_004_kani=true&JigyosyoCd=1960190385-00&ServiceCd=130&Type=search", "url2": "http://www.happy-clinic.jp/" }, "geometry": { "type": "Point", "coordinates": [ 138.6042912, 35.6456445 ] } },
{ "type": "Feature", "properties": { "内容": "訪問看護ステーションくると【訪問看護】山梨県甲府市千塚３丁目1-43", "url": "https://www.kaigokensaku.mhlw.go.jp/19/index.php?action_kouhyou_detail_004_kani=true&JigyosyoCd=1960190427-00&ServiceCd=130&Type=search", "url2": null }, "geometry": { "type": "Point", "coordinates": [ 138.539869, 35.6815713 ] } },
{ "type": "Feature", "properties": { "内容": "ナーシングサポート甲府【訪問看護】山梨県甲府市徳行3‐7‐20橘ビル202", "url": "https://www.kaigokensaku.mhlw.go.jp/19/index.php?action_kouhyou_detail_004_kani=true&JigyosyoCd=1960190336-00&ServiceCd=130&Type=search", "url2": "https://www.frontier-gp.jp/" }, "geometry": { "type": "Point", "coordinates": [ 138.5423257, 35.6491114 ] } },
{ "type": "Feature", "properties": { "内容": "訪問看護リハビリステーションコスモ・アンシア【訪問看護】山梨県甲府市相生3-3-121F　事務所B", "url": "https://www.kaigokensaku.mhlw.go.jp/19/index.php?action_kouhyou_detail_004_kani=true&JigyosyoCd=1960190237-00&ServiceCd=130&Type=search", "url2": "https://ikiikiclub.com" }, "geometry": { "type": "Point", "coordinates": [ 138.5693322, 35.6538034 ] } },
{ "type": "Feature", "properties": { "内容": "アクア甲府訪問看護【訪問看護】山梨県甲府市字相の原256番地4", "url": "https://www.kaigokensaku.mhlw.go.jp/19/index.php?action_kouhyou_detail_004_kani=true&JigyosyoCd=1960190377-00&ServiceCd=130&Type=search", "url2": null }, "geometry": { "type": "Point", "coordinates": [ 138.568300099999988, 35.662133 ] } },
{ "type": "Feature", "properties": { "内容": "訪問看護ステーションケアリー甲斐竜王【訪問看護】山梨県甲府市国母4-19-2レジデンスカサイ301号室", "url": "https://www.kaigokensaku.mhlw.go.jp/19/index.php?action_kouhyou_detail_004_kani=true&JigyosyoCd=1960190419-00&ServiceCd=130&Type=search", "url2": null }, "geometry": { "type": "Point", "coordinates": [ 138.5619848, 35.6387384 ] } },
{ "type": "Feature", "properties": { "内容": "公益社団法人山梨県看護協会荒川訪問看護ステーション【訪問看護】山梨県甲府市荒川2-10-26", "url": "https://www.kaigokensaku.mhlw.go.jp/19/index.php?action_kouhyou_detail_004_kani=true&JigyosyoCd=1960190054-00&ServiceCd=130&Type=search", "url2": null }, "geometry": { "type": "Point", "coordinates": [ 138.5377747, 35.677405 ] } },
{ "type": "Feature", "properties": { "内容": "公益社団法人山梨県看護協会　ゆうき訪問看護ステーション【訪問看護】山梨県甲府市住吉1-15-23", "url": "https://www.kaigokensaku.mhlw.go.jp/19/index.php?action_kouhyou_detail_004_kani=true&JigyosyoCd=1960190047-00&ServiceCd=130&Type=search", "url2": null }, "geometry": { "type": "Point", "coordinates": [ 138.571163598771591, 35.639951543316961 ] } },
{ "type": "Feature", "properties": { "内容": "訪問看護ステーションいけだ【訪問看護】山梨県甲府市下飯田1-2-18", "url": "https://www.kaigokensaku.mhlw.go.jp/19/index.php?action_kouhyou_detail_004_kani=true&JigyosyoCd=1960190252-00&ServiceCd=130&Type=search", "url2": "https://ykf.or.jp/" }, "geometry": { "type": "Point", "coordinates": [ 138.545021099999985, 35.6689024 ] } },
{ "type": "Feature", "properties": { "内容": "医療法人八香会湯村訪問看護ステーション【訪問看護】山梨県甲府市湯村三丁目２番３２号", "url": "https://www.kaigokensaku.mhlw.go.jp/19/index.php?action_kouhyou_detail_004_kani=true&JigyosyoCd=1960190120-00&ServiceCd=130&Type=search", "url2": "http://www.hken.jp" }, "geometry": { "type": "Point", "coordinates": [ 138.548611, 35.6804214 ] } },
{ "type": "Feature", "properties": { "内容": "訪問看護ステーションすみ【訪問看護】山梨県甲府市池田1-3-23メゾン池田405号", "url": "https://www.kaigokensaku.mhlw.go.jp/19/index.php?action_kouhyou_detail_004_kani=true&JigyosyoCd=1960190146-00&ServiceCd=130&Type=search", "url2": null }, "geometry": { "type": "Point", "coordinates": [ 138.5449744, 35.6706485 ] } },
{ "type": "Feature", "properties": { "内容": "公益社団法人山梨県看護協会貢川訪問看護ステーション【訪問看護】山梨県甲府市貢川本町１２－１０", "url": "https://www.kaigokensaku.mhlw.go.jp/19/index.php?action_kouhyou_detail_004_kani=true&JigyosyoCd=1960190013-00&ServiceCd=130&Type=search", "url2": null }, "geometry": { "type": "Point", "coordinates": [ 138.551380599999987, 35.6542352 ] } },
{ "type": "Feature", "properties": { "内容": "森と木訪問看護ステーション【訪問看護】山梨県甲府市元紺屋16-5", "url": "https://www.kaigokensaku.mhlw.go.jp/19/index.php?action_kouhyou_detail_004_kani=true&JigyosyoCd=1960190435-00&ServiceCd=130&Type=search", "url2": "https://www.moritoki-nurse.jp/" }, "geometry": { "type": "Point", "coordinates": [ 138.5753348, 35.6726796 ] } },
{ "type": "Feature", "properties": { "内容": "ライフサポートひかり訪問看護ステーション【訪問看護】山梨甲府市長松寺7-13サンマリーナ長松寺1-A", "url": "https://www.kaigokensaku.mhlw.go.jp/19/index.php?action_kouhyou_detail_004_kani=true&JigyosyoCd=1960190328-00&ServiceCd=130&Type=search", "url2": "https://www.lifesupport-hikari.com" }, "geometry": { "type": "Point", "coordinates": [ 138.542214956344594, 35.665862284987035 ] } },
{ "type": "Feature", "properties": { "内容": "おおくに訪問看護ステーション【訪問看護】山梨県甲府市大里町5328", "url": "https://www.kaigokensaku.mhlw.go.jp/19/index.php?action_kouhyou_detail_004_kani=true&JigyosyoCd=1960190088-00&ServiceCd=130&Type=search", "url2": "http://park14.wakwak.com/~sasamotokai/" }, "geometry": { "type": "Point", "coordinates": [ 138.5584543, 35.6243596 ] } },
{ "type": "Feature", "properties": { "内容": "甲府訪問看護ステーションすずかけ【訪問看護】山梨県甲府市丸の内２丁目９番２８号勤医協駅前ビル４階", "url": "https://www.kaigokensaku.mhlw.go.jp/19/index.php?action_kouhyou_detail_004_kani=true&JigyosyoCd=1960190039-00&ServiceCd=130&Type=search", "url2": "http://www.yamanashi-min.jp" }, "geometry": { "type": "Point", "coordinates": [ 138.565435799999932, 35.6670794 ] } },
{ "type": "Feature", "properties": { "内容": "ASAKAWA訪問看護×訪問リハ【訪問看護】山梨県甲府市徳行2-9-15甲府スカイビル3F", "url": "https://www.kaigokensaku.mhlw.go.jp/19/index.php?action_kouhyou_detail_004_kani=true&JigyosyoCd=1960190476-00&ServiceCd=130&Type=search", "url2": null }, "geometry": { "type": "Point", "coordinates": [ 138.5491111, 35.6495937 ] } },
{ "type": "Feature", "properties": { "内容": "医療法人慶友会城東病院　訪問看護ステーション　あんじゅ【訪問看護】山梨県甲府市城東4丁目13番15号", "url": "https://www.kaigokensaku.mhlw.go.jp/19/index.php?action_kouhyou_detail_004_kani=true&JigyosyoCd=1960190278-00&ServiceCd=130&Type=search", "url2": "https://www.joto-group.com/joto/" }, "geometry": { "type": "Point", "coordinates": [ 138.582065416671753, 35.657130896006009 ] } },
{ "type": "Feature", "properties": { "内容": "ヤワラギホウモンカンゴステーション【訪問看護】山梨県甲府市上石田3-12-15スカイハイツ306", "url": "https://www.kaigokensaku.mhlw.go.jp/19/index.php?action_kouhyou_detail_004_kani=true&JigyosyoCd=1960190294-00&ServiceCd=130&Type=search", "url2": "https://yawaragi-kofu-care.com" }, "geometry": { "type": "Point", "coordinates": [ 138.5554142, 35.6523052 ] } },
{ "type": "Feature", "properties": { "内容": "訪問看護ステーション洗心【訪問看護】山梨県甲府市朝気3-18-5", "url": "https://www.kaigokensaku.mhlw.go.jp/19/index.php?action_kouhyou_detail_004_kani=true&JigyosyoCd=1960190450-00&ServiceCd=130&Type=search", "url2": "https://tsuyukigroup.life/" }, "geometry": { "type": "Point", "coordinates": [ 138.5807021, 35.6486995 ] } },
{ "type": "Feature", "properties": { "内容": "公益社団法人山梨県看護協会富士北麓訪問看護ステーション【訪問看護】山梨県富士吉田市上吉田東5丁目14番17号", "url": "https://www.kaigokensaku.mhlw.go.jp/19/index.php?action_kouhyou_detail_004_kani=true&JigyosyoCd=1961290010-00&ServiceCd=130&Type=search", "url2": "http://www.yna.or.jp" }, "geometry": { "type": "Point", "coordinates": [ 138.805737, 35.4700158 ] } },
{ "type": "Feature", "properties": { "内容": "訪問看護ステーション　さくら【訪問看護】山梨県富士吉田市下吉田4-21-50", "url": "https://www.kaigokensaku.mhlw.go.jp/19/index.php?action_kouhyou_detail_004_kani=true&JigyosyoCd=1971200488-00&ServiceCd=130&Type=search", "url2": "sakura-mc-1227@iaa.itkeeper.ne.jp" }, "geometry": { "type": "Point", "coordinates": [ 138.797793831151864, 35.488937374109767 ] } },
{ "type": "Feature", "properties": { "内容": "公益社団法人山梨県看護協会　つる訪問看護ステーション【訪問看護】山梨県都留市田原2-15-3萱沼貸店舗１F", "url": "https://www.kaigokensaku.mhlw.go.jp/19/index.php?action_kouhyou_detail_004_kani=true&JigyosyoCd=1961190004-00&ServiceCd=130&Type=search", "url2": "https://www.yna.or.jp" }, "geometry": { "type": "Point", "coordinates": [ 138.900358341312057, 35.542688749567446 ] } },
{ "type": "Feature", "properties": { "内容": "訪問看護ステーション　あゆみ【訪問看護】山梨県都留市田原4丁目4番地2号", "url": "https://www.kaigokensaku.mhlw.go.jp/19/index.php?action_kouhyou_detail_004_kani=true&JigyosyoCd=1961190038-00&ServiceCd=130&Type=search", "url2": "https://thrifty-cyclamen-zth5k6.mystrikingly.com/1" }, "geometry": { "type": "Point", "coordinates": [ 138.894000799999986, 35.5412543 ] } },
{ "type": "Feature", "properties": { "内容": "訪問看護ステーションあやめ甲州【訪問看護】山梨県山梨市東小原111-1イーストヤマナシ105号室", "url": "https://www.kaigokensaku.mhlw.go.jp/19/index.php?action_kouhyou_detail_004_kani=true&JigyosyoCd=1960290029-00&ServiceCd=130&Type=search", "url2": "https://firstnurse.co.jp/" }, "geometry": { "type": "Point", "coordinates": [ 138.6965591, 35.7125337 ] } },
{ "type": "Feature", "properties": { "内容": "山梨市立牧丘病院【訪問看護】山梨県山梨市牧丘町窪平302-2", "url": "https://www.kaigokensaku.mhlw.go.jp/19/index.php?action_kouhyou_detail_004_kani=true&JigyosyoCd=1910210572-00&ServiceCd=130&Type=search", "url2": "http://makioka.y-min.or.jp" }, "geometry": { "type": "Point", "coordinates": [ 138.71510330000001, 35.7403793 ] } },
{ "type": "Feature", "properties": { "内容": "東山梨訪問看護ステーション【訪問看護】山梨県山梨市上神内川1126番地の2白緑ビル3階", "url": "https://www.kaigokensaku.mhlw.go.jp/19/index.php?action_kouhyou_detail_004_kani=true&JigyosyoCd=1960290003-00&ServiceCd=130&Type=search", "url2": "http://www.kanoiwa-hospital.or.jp" }, "geometry": { "type": "Point", "coordinates": [ 138.684773699999965, 35.690126899999989 ] } },
{ "type": "Feature", "properties": { "内容": "訪問看護ステーション夢眠やまなし【訪問看護】山梨県山梨市小原西8番3号", "url": "https://www.kaigokensaku.mhlw.go.jp/19/index.php?action_kouhyou_detail_004_kani=true&JigyosyoCd=1960290037-00&ServiceCd=130&Type=search", "url2": null }, "geometry": { "type": "Point", "coordinates": [ 138.6892881, 35.6926618 ] } },
{ "type": "Feature", "properties": { "内容": "訪問看護ステーション　ももくら【訪問看護】大月市七保町下和田2132-1", "url": "https://www.kaigokensaku.mhlw.go.jp/19/index.php?action_kouhyou_detail_004_kani=true&JigyosyoCd=1961490008-00&ServiceCd=130&Type=search", "url2": null }, "geometry": { "type": "Point", "coordinates": [ 138.9706811, 35.6297501 ] } },
{ "type": "Feature", "properties": { "内容": "訪問看護ステーションさるはし【訪問看護】山梨県大月市猿橋町殿上552-5", "url": "https://www.kaigokensaku.mhlw.go.jp/19/index.php?action_kouhyou_detail_004_kani=true&JigyosyoCd=1961490016-00&ServiceCd=130&Type=search", "url2": null }, "geometry": { "type": "Point", "coordinates": [ 138.96655813743439, 35.611216362626763 ] } },
{ "type": "Feature", "properties": { "内容": "（社）山梨県看護協会　訪問看護ステーションほっと・ほっと韮崎【訪問看護】山梨県韮崎市本町1丁目14-21", "url": "https://www.kaigokensaku.mhlw.go.jp/19/index.php?action_kouhyou_detail_004_kani=true&JigyosyoCd=1960990016-00&ServiceCd=130&Type=search", "url2": null }, "geometry": { "type": "Point", "coordinates": [ 138.449301500000047, 35.706427800000021 ] } },
{ "type": "Feature", "properties": { "内容": "こすもす訪問看護ステーション【訪問看護】山梨県韮崎市藤井町北下條2003-4", "url": "https://www.kaigokensaku.mhlw.go.jp/19/index.php?action_kouhyou_detail_004_kani=true&JigyosyoCd=1960990024-00&ServiceCd=130&Type=search", "url2": "http://daycosmos.web.fc2.com" }, "geometry": { "type": "Point", "coordinates": [ 138.4421069, 35.726306 ] } },
{ "type": "Feature", "properties": { "内容": "メディホス訪問看護韮崎【訪問看護】山梨県韮崎市栄1-7-42メディホス韮崎", "url": "https://www.kaigokensaku.mhlw.go.jp/19/index.php?action_kouhyou_detail_004_kani=true&JigyosyoCd=1960990065-00&ServiceCd=130&Type=search", "url2": "https://medihos-nirasaki.jp" }, "geometry": { "type": "Point", "coordinates": [ 138.4660375, 35.6966132 ] } },
{ "type": "Feature", "properties": { "内容": "訪問看護ステーションあやめ南アルプス【訪問看護】小笠原32-9LIFEONE　2-B", "url": "https://www.kaigokensaku.mhlw.go.jp/19/index.php?action_kouhyou_detail_004_kani=true&JigyosyoCd=1961690094-00&ServiceCd=130&Type=search", "url2": "https://firstnurse.co.jp/" }, "geometry": { "type": "Point", "coordinates": [ 138.46681, 35.609333 ] } },
{ "type": "Feature", "properties": { "内容": "訪問看護ステーション　心結【訪問看護】山梨県南アルプス市飯野3701番地1オギノ（共同）テナントビル203号", "url": "https://www.kaigokensaku.mhlw.go.jp/19/index.php?action_kouhyou_detail_004_kani=true&JigyosyoCd=1961690052-00&ServiceCd=130&Type=search", "url2": "https://www.shinyu2020.com/" }, "geometry": { "type": "Point", "coordinates": [ 138.4631075, 35.6304788 ] } },
{ "type": "Feature", "properties": { "内容": "メディホス訪問看護中北【訪問看護】山梨県南アルプス市藤田1657－4", "url": "https://www.kaigokensaku.mhlw.go.jp/19/index.php?action_kouhyou_detail_004_kani=true&JigyosyoCd=1961690086-00&ServiceCd=130&Type=search", "url2": "https://medihos-minamialps" }, "geometry": { "type": "Point", "coordinates": [ 138.494380131445013, 35.603189081815529 ] } },
{ "type": "Feature", "properties": { "内容": "訪問看護ステーションももその【訪問看護】山梨県南アルプス市桃園387-2", "url": "https://www.kaigokensaku.mhlw.go.jp/19/index.php?action_kouhyou_detail_004_kani=true&JigyosyoCd=1961690078-00&ServiceCd=130&Type=search", "url2": "https://ykf.or.jp/momosono/momosono_hns" }, "geometry": { "type": "Point", "coordinates": [ 138.462188669172662, 35.628479323133 ] } },
{ "type": "Feature", "properties": { "内容": "ユアー訪問看護リハビリステーション南アルプス【訪問看護】山梨県南アルプス市小笠原2103", "url": "https://www.kaigokensaku.mhlw.go.jp/19/index.php?action_kouhyou_detail_004_kani=true&JigyosyoCd=1961690060-00&ServiceCd=130&Type=search", "url2": "https://yourmedi.co.jp/" }, "geometry": { "type": "Point", "coordinates": [ 138.4573959, 35.6136068 ] } },
{ "type": "Feature", "properties": { "内容": "訪問看護ステーションあらぐさ【訪問看護】山梨県南アルプス市桃園377-2", "url": "https://www.kaigokensaku.mhlw.go.jp/19/index.php?action_kouhyou_detail_004_kani=true&JigyosyoCd=1961690011-00&ServiceCd=130&Type=search", "url2": null }, "geometry": { "type": "Point", "coordinates": [ 138.462785, 35.6286301 ] } },
{ "type": "Feature", "properties": { "内容": "訪問看護事業所　ハスキー【訪問看護】山梨県南アルプス市古市場595", "url": "https://www.kaigokensaku.mhlw.go.jp/19/index.php?action_kouhyou_detail_004_kani=true&JigyosyoCd=1961690128-00&ServiceCd=130&Type=search", "url2": null }, "geometry": { "type": "Point", "coordinates": [ 138.4670758, 35.5908372 ] } },
{ "type": "Feature", "properties": { "内容": "北杜市立八ヶ岳訪問看護ステーション【訪問看護】山梨県北杜市長坂町長坂上条2575番地19", "url": "https://www.kaigokensaku.mhlw.go.jp/19/index.php?action_kouhyou_detail_004_kani=true&JigyosyoCd=1961990031-00&ServiceCd=130&Type=search", "url2": null }, "geometry": { "type": "Point", "coordinates": [ 138.366413980529842, 35.82636024998564 ] } },
{ "type": "Feature", "properties": { "内容": "訪問看護ステーションあやめ北杜【訪問看護】山梨県北杜市高根町箕輪3212-1マンションハピネス201号室", "url": "https://www.kaigokensaku.mhlw.go.jp/19/index.php?action_kouhyou_detail_004_kani=true&JigyosyoCd=1961990064-00&ServiceCd=130&Type=search", "url2": "https://firstnurse.co.jp/" }, "geometry": { "type": "Point", "coordinates": [ 138.428476499999988, 35.8105724 ] } },
{ "type": "Feature", "properties": { "内容": "かいこま訪問看護ステーション【訪問看護】山梨県北杜市武川町牧原1371", "url": "https://www.kaigokensaku.mhlw.go.jp/19/index.php?action_kouhyou_detail_004_kani=true&JigyosyoCd=1961990007-00&ServiceCd=130&Type=search", "url2": null }, "geometry": { "type": "Point", "coordinates": [ 138.38114470549931, 35.784594462744863 ] } },
{ "type": "Feature", "properties": { "内容": "訪問看護ステーションもみの木【訪問看護】山梨県北杜市大泉町谷戸6583番地17", "url": "https://www.kaigokensaku.mhlw.go.jp/19/index.php?action_kouhyou_detail_004_kani=true&JigyosyoCd=1961990080-00&ServiceCd=130&Type=search", "url2": "http://mitaden-mominoki.com/houmon" }, "geometry": { "type": "Point", "coordinates": [ 138.3783728, 35.8699239 ] } },
{ "type": "Feature", "properties": { "内容": "北杜市立塩川病院訪問看護ステーションつくしんぼ【訪問看護】山梨県北杜市須玉町籐田７７３", "url": "https://www.kaigokensaku.mhlw.go.jp/19/index.php?action_kouhyou_detail_004_kani=true&JigyosyoCd=1961990015-00&ServiceCd=130&Type=search", "url2": null }, "geometry": { "type": "Point", "coordinates": [ 138.426639199999954, 35.7787439 ] } },
{ "type": "Feature", "properties": { "内容": "地域看護センターあんあん【訪問看護】山梨県北杜市長坂町夏秋918-5", "url": "https://www.kaigokensaku.mhlw.go.jp/19/index.php?action_kouhyou_detail_004_kani=true&JigyosyoCd=1961990056-00&ServiceCd=130&Type=search", "url2": null }, "geometry": { "type": "Point", "coordinates": [ 138.4236536, 35.7765179 ] } },
{ "type": "Feature", "properties": { "内容": "訪問看護ステーションあやめ甲斐【訪問看護】山梨県甲斐市篠原787-1河野ビル　北1", "url": "https://www.kaigokensaku.mhlw.go.jp/19/index.php?action_kouhyou_detail_004_kani=true&JigyosyoCd=1961790092-00&ServiceCd=130&Type=search", "url2": "http://www.firstnurse.co.jp/" }, "geometry": { "type": "Point", "coordinates": [ 138.525268200000028, 35.648022 ] } },
{ "type": "Feature", "properties": { "内容": "(医）桔梗会　竜王ペイン（痛み）クリニック【訪問看護】山梨県甲斐市大下条1600-5", "url": "https://www.kaigokensaku.mhlw.go.jp/19/index.php?action_kouhyou_detail_004_kani=true&JigyosyoCd=1911710935-00&ServiceCd=130&Type=search", "url2": "https://ryuo-pain.com/" }, "geometry": { "type": "Point", "coordinates": [ 138.521299199999987, 35.6696557 ] } },
{ "type": "Feature", "properties": { "内容": "赤坂台訪問看護ステーション【訪問看護】山梨県甲斐市竜王新町2150", "url": "https://www.kaigokensaku.mhlw.go.jp/19/index.php?action_kouhyou_detail_004_kani=true&JigyosyoCd=1961790019-00&ServiceCd=130&Type=search", "url2": "http://akasakadai.com/" }, "geometry": { "type": "Point", "coordinates": [ 138.507588, 35.6782511 ] } },
{ "type": "Feature", "properties": { "内容": "訪問看護ステーションやすらぎ【訪問看護】山梨県甲斐市富竹新田401-4", "url": "https://www.kaigokensaku.mhlw.go.jp/19/index.php?action_kouhyou_detail_004_kani=true&JigyosyoCd=1961790035-00&ServiceCd=130&Type=search", "url2": "http://www.yamanashi-min.jp/kinikyou/" }, "geometry": { "type": "Point", "coordinates": [ 138.526408700000047, 35.6621095 ] } },
{ "type": "Feature", "properties": { "内容": "訪問看護ステーションかのん【訪問看護】甲斐市西八幡3822-1", "url": "https://www.kaigokensaku.mhlw.go.jp/19/index.php?action_kouhyou_detail_004_kani=true&JigyosyoCd=1961790050-00&ServiceCd=130&Type=search", "url2": "http://yfs-kanon.com" }, "geometry": { "type": "Point", "coordinates": [ 138.516785587703652, 35.637777753309429 ] } },
{ "type": "Feature", "properties": { "内容": "医療法人　仁和会　しらゆり訪問看護ステーション【訪問看護】山梨県甲斐市篠原1895-1", "url": "https://www.kaigokensaku.mhlw.go.jp/19/index.php?action_kouhyou_detail_004_kani=true&JigyosyoCd=1961790001-00&ServiceCd=130&Type=search", "url2": "http://www.ryuo-rhp.or.jp/" }, "geometry": { "type": "Point", "coordinates": [ 138.519663566190417, 35.653682806603086 ] } },
{ "type": "Feature", "properties": { "内容": "訪問看護ステーション和来ふえふき【訪問看護】山梨県笛吹市一宮町竹原田1797-1", "url": "https://www.kaigokensaku.mhlw.go.jp/19/index.php?action_kouhyou_detail_004_kani=true&JigyosyoCd=1961890116-00&ServiceCd=130&Type=search", "url2": "https://warai.life/" }, "geometry": { "type": "Point", "coordinates": [ 138.6727311, 35.6492121 ] } },
{ "type": "Feature", "properties": { "内容": "ほかほか訪問看護ステーション【訪問看護】境川町石橋1890", "url": "https://www.kaigokensaku.mhlw.go.jp/19/index.php?action_kouhyou_detail_004_kani=true&JigyosyoCd=1961890181-00&ServiceCd=130&Type=search", "url2": "https://homenshokarau.my.canva.site/" }, "geometry": { "type": "Point", "coordinates": [ 138.616983, 35.6055762 ] } },
{ "type": "Feature", "properties": { "内容": "訪問看護ステーションはる【訪問看護】山梨県笛吹市石和町窪中島196-1101", "url": "https://www.kaigokensaku.mhlw.go.jp/19/index.php?action_kouhyou_detail_004_kani=true&JigyosyoCd=1961890173-00&ServiceCd=130&Type=search", "url2": null }, "geometry": { "type": "Point", "coordinates": [ 138.63246625700836, 35.647656647446091 ] } },
{ "type": "Feature", "properties": { "内容": "アクア笛吹訪問看護【訪問看護】山梨県笛吹市石和町八田490-15", "url": "https://www.kaigokensaku.mhlw.go.jp/19/index.php?action_kouhyou_detail_004_kani=true&JigyosyoCd=1961890140-00&ServiceCd=130&Type=search", "url2": null }, "geometry": { "type": "Point", "coordinates": [ 138.642353500000013, 35.6561708 ] } },
{ "type": "Feature", "properties": { "内容": "いちのみや訪問看護ステーション【訪問看護】山梨県笛吹市一宮町坪井１７５４", "url": "https://www.kaigokensaku.mhlw.go.jp/19/index.php?action_kouhyou_detail_004_kani=true&JigyosyoCd=1961890033-00&ServiceCd=130&Type=search", "url2": "http://1nomiya.or.jp/houmonnkanngo/index1.html" }, "geometry": { "type": "Point", "coordinates": [ 138.667716, 35.6516687 ] } },
{ "type": "Feature", "properties": { "内容": "一般財団法人山梨整肢更生会　富士温泉病院　訪問看護部【訪問看護】山梨県笛吹市春日居町小松1177", "url": "https://www.kaigokensaku.mhlw.go.jp/19/index.php?action_kouhyou_detail_004_kani=true&JigyosyoCd=1911810321-00&ServiceCd=130&Type=search", "url2": null }, "geometry": { "type": "Point", "coordinates": [ 138.658207299999987, 35.6623192 ] } },
{ "type": "Feature", "properties": { "内容": "イスト訪問看護【訪問看護】山梨県笛吹市石和町駅前7-3番地ラ・ルミエール205号室", "url": "https://www.kaigokensaku.mhlw.go.jp/19/index.php?action_kouhyou_detail_004_kani=true&JigyosyoCd=1961890207-00&ServiceCd=130&Type=search", "url2": null }, "geometry": { "type": "Point", "coordinates": [ 138.6367898, 35.6569992 ] } },
{ "type": "Feature", "properties": { "内容": "訪問看護ステーションたんぽぽ【訪問看護】山梨県笛吹市御坂町八千蔵538-1", "url": "https://www.kaigokensaku.mhlw.go.jp/19/index.php?action_kouhyou_detail_004_kani=true&JigyosyoCd=1961890090-00&ServiceCd=130&Type=search", "url2": "https://ykf.or.jp/" }, "geometry": { "type": "Point", "coordinates": [ 138.661479969311529, 35.620875440888106 ] } },
{ "type": "Feature", "properties": { "内容": "訪問看護ステーションほほえみ【訪問看護】山梨県笛吹市石和町広瀬781", "url": "https://www.kaigokensaku.mhlw.go.jp/19/index.php?action_kouhyou_detail_004_kani=true&JigyosyoCd=1961890108-00&ServiceCd=130&Type=search", "url2": "https://ykf.or.jp/" }, "geometry": { "type": "Point", "coordinates": [ 138.621829008762774, 35.642184967009008 ] } },
{ "type": "Feature", "properties": { "内容": "笛吹訪問看護ステーションおひさま【訪問看護】石和町四日市場47－1", "url": "https://www.kaigokensaku.mhlw.go.jp/19/index.php?action_kouhyou_detail_004_kani=true&JigyosyoCd=1961890082-00&ServiceCd=130&Type=search", "url2": "https://amg.or.jp/section/nursingteam/visit/station/fuefuki/" }, "geometry": { "type": "Point", "coordinates": [ 138.635207100000031, 35.641173700000017 ] } },
{ "type": "Feature", "properties": { "内容": "訪問看護ステーション夢眠いさわ【訪問看護】山梨県笛吹市石和松本416番1", "url": "https://www.kaigokensaku.mhlw.go.jp/19/index.php?action_kouhyou_detail_004_kani=true&JigyosyoCd=1961890132-00&ServiceCd=130&Type=search", "url2": null }, "geometry": { "type": "Point", "coordinates": [ 137.9719897, 36.2380434 ] } },
{ "type": "Feature", "properties": { "内容": "まるさんかくしかく訪問看護ステーション【訪問看護】石和町松本45－8", "url": "https://www.kaigokensaku.mhlw.go.jp/19/index.php?action_kouhyou_detail_004_kani=true&JigyosyoCd=1961890215-00&ServiceCd=130&Type=search", "url2": "https://marusankaku-houmonkango.jp/" }, "geometry": { "type": "Point", "coordinates": [ 138.638085100000012, 35.6601416 ] } },
{ "type": "Feature", "properties": { "内容": "あおぞら訪問看護リハビリステーション【訪問看護】山梨県笛吹市八代町南３４６８－８", "url": "https://www.kaigokensaku.mhlw.go.jp/19/index.php?action_kouhyou_detail_004_kani=true&JigyosyoCd=1961890157-00&ServiceCd=130&Type=search", "url2": "https://aozora-houkan.net/" }, "geometry": { "type": "Point", "coordinates": [ 138.6251299, 35.6189709 ] } },
{ "type": "Feature", "properties": { "内容": "甲州訪問看護ステーション【訪問看護】山梨県笛吹市石和町四日市場2031", "url": "https://www.kaigokensaku.mhlw.go.jp/19/index.php?action_kouhyou_detail_004_kani=true&JigyosyoCd=1961890009-00&ServiceCd=130&Type=search", "url2": "https://www.krg.ne.jp/care/" }, "geometry": { "type": "Point", "coordinates": [ 138.6252819, 35.6457142 ] } },
{ "type": "Feature", "properties": { "内容": "Nuts訪問看護ステーション上野原【訪問看護】上野原１６６３　２F", "url": "https://www.kaigokensaku.mhlw.go.jp/19/index.php?action_kouhyou_detail_004_kani=true&JigyosyoCd=1962090021-00&ServiceCd=130&Type=search", "url2": "https://nuts-houkan.satodentalclinic.jp/" }, "geometry": { "type": "Point", "coordinates": [ 139.115243, 35.624365 ] } },
{ "type": "Feature", "properties": { "内容": "くくる訪問看護STATION上野原【訪問看護】山梨県上野原市松留361-1カーサ・リーコ203", "url": "https://www.kaigokensaku.mhlw.go.jp/19/index.php?action_kouhyou_detail_004_kani=true&JigyosyoCd=1962090047-00&ServiceCd=130&Type=search", "url2": null }, "geometry": { "type": "Point", "coordinates": [ 139.10857630000001, 35.6206469 ] } },
{ "type": "Feature", "properties": { "内容": "甲州市社会福祉協議会訪問看護ステーション【訪問看護】勝沼町休息1867-2勝沼健康福祉センター", "url": "https://www.kaigokensaku.mhlw.go.jp/19/index.php?action_kouhyou_detail_004_kani=true&JigyosyoCd=1962290027-00&ServiceCd=130&Type=search", "url2": "http:www.koshushishakyo.or.jp" }, "geometry": { "type": "Point", "coordinates": [ 138.720514900000012, 35.677303099999989 ] } },
{ "type": "Feature", "properties": { "内容": "訪問看護ステーション　デューン甲州【訪問看護】塩山上於曾1872番地塩山駅前衣川ビル　2階Ｄ号室", "url": "https://www.kaigokensaku.mhlw.go.jp/19/index.php?action_kouhyou_detail_004_kani=true&JigyosyoCd=1962290035-00&ServiceCd=130&Type=search", "url2": null }, "geometry": { "type": "Point", "coordinates": [ 138.734769, 35.7044175 ] } },
{ "type": "Feature", "properties": { "内容": "ハートフル塩山訪問看護ステーション【訪問看護】山梨県甲州市塩山西広門田433-1", "url": "https://www.kaigokensaku.mhlw.go.jp/19/index.php?action_kouhyou_detail_004_kani=true&JigyosyoCd=1970300073-00&ServiceCd=130&Type=search", "url2": "http://www.kosei.jp/heartfull/" }, "geometry": { "type": "Point", "coordinates": [ 138.720970076708909, 35.694983961616536 ] } },
{ "type": "Feature", "properties": { "内容": "玉穂訪問看護ステーション【訪問看護】山梨県中央市成島２４３９番地２", "url": "https://www.kaigokensaku.mhlw.go.jp/19/index.php?action_kouhyou_detail_004_kani=true&JigyosyoCd=1962390017-00&ServiceCd=130&Type=search", "url2": "tamaho_st@dpc-hos.or.jp" }, "geometry": { "type": "Point", "coordinates": [ 138.54419489070321, 35.600020620364766 ] } },
{ "type": "Feature", "properties": { "内容": "ユアー訪問看護リハビリステーション中央市【訪問看護】山梨県中央市西新居1番地83", "url": "https://www.kaigokensaku.mhlw.go.jp/19/index.php?action_kouhyou_detail_004_kani=true&JigyosyoCd=1962390033-00&ServiceCd=130&Type=search", "url2": "https://yourmedi.co.jp/" }, "geometry": { "type": "Point", "coordinates": [ 138.5449262, 35.6151967 ] } },
{ "type": "Feature", "properties": { "内容": "市川訪問看護ステーション【訪問看護】山梨県西八代郡市川三郷町高田518番1", "url": "https://www.kaigokensaku.mhlw.go.jp/19/index.php?action_kouhyou_detail_004_kani=true&JigyosyoCd=1960690020-00&ServiceCd=130&Type=search", "url2": null }, "geometry": { "type": "Point", "coordinates": [ 138.49012, 35.556437 ] } },
{ "type": "Feature", "properties": { "内容": "かじかナースステーション【訪問看護】山梨県南巨摩郡身延町身延身延3552", "url": "https://www.kaigokensaku.mhlw.go.jp/19/index.php?action_kouhyou_detail_004_kani=true&JigyosyoCd=1960790069-00&ServiceCd=130&Type=search", "url2": "ｈttpｓ：11Jinkyoen.jp" }, "geometry": { "type": "Point", "coordinates": [ 138.4256049, 35.3781667 ] } },
{ "type": "Feature", "properties": { "内容": "訪問看護ステーションいいとみ【訪問看護】山梨県南巨摩郡身延町飯富１６２８", "url": "https://www.kaigokensaku.mhlw.go.jp/19/index.php?action_kouhyou_detail_004_kani=true&JigyosyoCd=1960790028-00&ServiceCd=130&Type=search", "url2": "http://www6.ocn.ne.jp/~iitomi/" }, "geometry": { "type": "Point", "coordinates": [ 138.4378994, 35.4354226 ] } },
{ "type": "Feature", "properties": { "内容": "公益社団法人山梨県看護協会ますほ訪問看護ステーション【訪問看護】山梨県南巨摩郡富士川町鰍沢１６４１-２山梨県民信用組合鰍沢支店2階", "url": "https://www.kaigokensaku.mhlw.go.jp/19/index.php?action_kouhyou_detail_004_kani=true&JigyosyoCd=1960790002-00&ServiceCd=130&Type=search", "url2": "http://www.yna.or.jp" }, "geometry": { "type": "Point", "coordinates": [ 138.460147103704827, 35.548640809485462 ] } },
{ "type": "Feature", "properties": { "内容": "峡南医療センター企業団富士川病院併設訪問看護ステーション【訪問看護】山梨県南巨摩郡富士川町鰍沢340-1", "url": "https://www.kaigokensaku.mhlw.go.jp/19/index.php?action_kouhyou_detail_004_kani=true&JigyosyoCd=1960790085-00&ServiceCd=130&Type=search", "url2": null }, "geometry": { "type": "Point", "coordinates": [ 138.465633719574015, 35.549121278097616 ] } },
{ "type": "Feature", "properties": { "内容": "訪問看護ステーションふじ【訪問看護】山梨県南巨摩郡富士川町鰍沢1796-1", "url": "https://www.kaigokensaku.mhlw.go.jp/19/index.php?action_kouhyou_detail_004_kani=true&JigyosyoCd=1960790044-00&ServiceCd=130&Type=search", "url2": null }, "geometry": { "type": "Point", "coordinates": [ 138.4588446, 35.5438538 ] } },
{ "type": "Feature", "properties": { "内容": "株式会社日医調剤　昭和訪問看護ステーション【訪問看護】山梨県中巨摩郡昭和町飯喰404番地2", "url": "https://www.kaigokensaku.mhlw.go.jp/19/index.php?action_kouhyou_detail_004_kani=true&JigyosyoCd=1960890109-00&ServiceCd=130&Type=search", "url2": null }, "geometry": { "type": "Point", "coordinates": [ 138.5251974, 35.6256747 ] } },
{ "type": "Feature", "properties": { "内容": "訪問看護ステーションケアリンクス【訪問看護】山梨県中巨摩郡昭和町西条3798", "url": "https://www.kaigokensaku.mhlw.go.jp/19/index.php?action_kouhyou_detail_004_kani=true&JigyosyoCd=1960890117-00&ServiceCd=130&Type=search", "url2": null }, "geometry": { "type": "Point", "coordinates": [ 138.5431908, 35.6428914 ] } },
{ "type": "Feature", "properties": { "内容": "Yくまーず訪問看護ステーション輪【訪問看護】山梨県中巨摩郡昭和町清水新居1-1　4階", "url": "https://www.kaigokensaku.mhlw.go.jp/19/index.php?action_kouhyou_detail_004_kani=true&JigyosyoCd=1960890125-00&ServiceCd=130&Type=search", "url2": null }, "geometry": { "type": "Point", "coordinates": [ 138.5442113, 35.6518362 ] } },
{ "type": "Feature", "properties": { "内容": "訪問看護ステーションあい【訪問看護】内野２２８－４", "url": "https://www.kaigokensaku.mhlw.go.jp/19/index.php?action_kouhyou_detail_004_kani=true&JigyosyoCd=1961390026-00&ServiceCd=130&Type=search", "url2": null }, "geometry": { "type": "Point", "coordinates": [ 137.756358799999987, 34.7848289 ] } },
{ "type": "Feature", "properties": { "内容": "メディホス訪問看護河口湖【訪問看護】山梨県南都留郡鳴沢村2357-1", "url": "https://www.kaigokensaku.mhlw.go.jp/19/index.php?action_kouhyou_detail_004_kani=true&JigyosyoCd=1961390018-00&ServiceCd=130&Type=search", "url2": "https://medihos-kawaguchiko.jp/" }, "geometry": { "type": "Point", "coordinates": [ 138.71567490000001, 35.4858182 ] } },
{ "type": "Feature", "properties": { "内容": "幸訪問看護ステーション【訪問看護】山梨県南都留郡富士河口湖町小立4545-3", "url": "https://www.kaigokensaku.mhlw.go.jp/19/index.php?action_kouhyou_detail_004_kani=true&JigyosyoCd=1961390000-00&ServiceCd=130&Type=search", "url2": "https://sachi-houmonkango-st.jimdosite.com" }, "geometry": { "type": "Point", "coordinates": [ 138.74515305581977, 35.4897183 ] } }
]
}
