{
"type": "FeatureCollection",
"name": "geo_19_福祉用具貸与",
"crs": { "type": "name", "properties": { "name": "urn:ogc:def:crs:OGC:1.3:CRS84" } },
"features": [
{ "type": "Feature", "properties": { "内容": "ケアサポート望月【福祉用具貸与】山梨県甲府市美咲2丁目16-17", "url": "https://www.kaigokensaku.mhlw.go.jp/19/index.php?action_kouhyou_detail_004_kani=true&JigyosyoCd=1970100242-00&ServiceCd=170&Type=search", "url2": "www.s-mochizuki.co.jp" }, "geometry": { "type": "Point", "coordinates": [ 138.5653261, 35.6778583 ] } },
{ "type": "Feature", "properties": { "内容": "株式会社T・H・G【福祉用具貸与】山梨県甲府市中央２－１２－６サンセゾンみな与", "url": "https://www.kaigokensaku.mhlw.go.jp/19/index.php?action_kouhyou_detail_004_kani=true&JigyosyoCd=1970104459-00&ServiceCd=170&Type=search", "url2": "http://www.thg-inc.co.jp" }, "geometry": { "type": "Point", "coordinates": [ 138.574354887731516, 35.661029883034054 ] } },
{ "type": "Feature", "properties": { "内容": "株式会社　山梨福祉設備センター【福祉用具貸与】山梨県甲府市小瀬329-4", "url": "https://www.kaigokensaku.mhlw.go.jp/19/index.php?action_kouhyou_detail_004_kani=true&JigyosyoCd=1970100507-00&ServiceCd=170&Type=search", "url2": null }, "geometry": { "type": "Point", "coordinates": [ 138.579185700000039, 35.6273986 ] } },
{ "type": "Feature", "properties": { "内容": "アーク福祉用具貸与事業所【福祉用具貸与】山梨県甲府市向町259-1アーク総合福祉プラザ", "url": "https://www.kaigokensaku.mhlw.go.jp/19/index.php?action_kouhyou_detail_004_kani=true&JigyosyoCd=1970104863-00&ServiceCd=170&Type=search", "url2": "http://www.arc-m.co.jp/" }, "geometry": { "type": "Point", "coordinates": [ 138.615040099999987, 35.6475129 ] } },
{ "type": "Feature", "properties": { "内容": "アルファケア南甲府介護施設【福祉用具貸与】山梨県甲府市南口町2番7号", "url": "https://www.kaigokensaku.mhlw.go.jp/19/index.php?action_kouhyou_detail_004_kani=true&JigyosyoCd=1970101133-00&ServiceCd=170&Type=search", "url2": "https://www.alphacare.joto-group.com/index.html" }, "geometry": { "type": "Point", "coordinates": [ 138.579977, 35.6467658 ] } },
{ "type": "Feature", "properties": { "内容": "甲府レンタルケアサービス【福祉用具貸与】山梨県甲府市住吉5-22-14", "url": "https://www.kaigokensaku.mhlw.go.jp/19/index.php?action_kouhyou_detail_004_kani=true&JigyosyoCd=1970101307-00&ServiceCd=170&Type=search", "url2": "http://heart-service.co.jp/" }, "geometry": { "type": "Point", "coordinates": [ 138.5767696, 35.6344462 ] } },
{ "type": "Feature", "properties": { "内容": "つむぎコンフォート【福祉用具貸与】山梨県甲府市蓬沢１丁目１２番２５号", "url": "https://www.kaigokensaku.mhlw.go.jp/19/index.php?action_kouhyou_detail_004_kani=true&JigyosyoCd=1970105910-00&ServiceCd=170&Type=search", "url2": null }, "geometry": { "type": "Point", "coordinates": [ 138.590544099999988, 35.6432409 ] } },
{ "type": "Feature", "properties": { "内容": "ふうが介護ショップ【福祉用具貸与】山梨県甲府市上今井町681-12", "url": "https://www.kaigokensaku.mhlw.go.jp/19/index.php?action_kouhyou_detail_004_kani=true&JigyosyoCd=1970104954-00&ServiceCd=170&Type=search", "url2": "http://www.fugaku.net/" }, "geometry": { "type": "Point", "coordinates": [ 138.570794799999931, 35.6256431 ] } },
{ "type": "Feature", "properties": { "内容": "今井整形福祉用具貸与事業所【福祉用具貸与】山梨県甲府市上阿原町1151", "url": "https://www.kaigokensaku.mhlw.go.jp/19/index.php?action_kouhyou_detail_004_kani=true&JigyosyoCd=1970105787-00&ServiceCd=170&Type=search", "url2": null }, "geometry": { "type": "Point", "coordinates": [ 138.602986499999986, 35.6438823 ] } },
{ "type": "Feature", "properties": { "内容": "ダスキンヘルスレント甲府ステーション【福祉用具貸与】山梨県甲府市住吉3-26-20", "url": "https://www.kaigokensaku.mhlw.go.jp/19/index.php?action_kouhyou_detail_004_kani=true&JigyosyoCd=1970105308-00&ServiceCd=170&Type=search", "url2": "https://healthrent.duskin.jp/station/yamanashi/kofu.html" }, "geometry": { "type": "Point", "coordinates": [ 138.584284110273842, 35.641320667141727 ] } },
{ "type": "Feature", "properties": { "内容": "株式会社フロンティア山梨営業所【福祉用具貸与】住吉4-3-38", "url": "https://www.kaigokensaku.mhlw.go.jp/19/index.php?action_kouhyou_detail_004_kani=true&JigyosyoCd=1970103691-00&ServiceCd=170&Type=search", "url2": "http://www.frontier-ph.com/homecare/" }, "geometry": { "type": "Point", "coordinates": [ 138.58431250000001, 35.6391166 ] } },
{ "type": "Feature", "properties": { "内容": "株式会社ヤマシタ山梨営業所【福祉用具貸与】山梨県甲府市和戸町1018-1", "url": "https://www.kaigokensaku.mhlw.go.jp/19/index.php?action_kouhyou_detail_004_kani=true&JigyosyoCd=1970100291-00&ServiceCd=170&Type=search", "url2": "http://www.yco.co.jp" }, "geometry": { "type": "Point", "coordinates": [ 138.616042599999986, 35.6539232 ] } },
{ "type": "Feature", "properties": { "内容": "福祉用具　知足【福祉用具貸与】中小河原町1608-1", "url": "https://www.kaigokensaku.mhlw.go.jp/19/index.php?action_kouhyou_detail_004_kani=true&JigyosyoCd=1970105183-00&ServiceCd=170&Type=search", "url2": "https://koharubi-kaigo.com" }, "geometry": { "type": "Point", "coordinates": [ 138.5690142, 35.6306327 ] } },
{ "type": "Feature", "properties": { "内容": "有限会社グットケアー指定福祉用具貸与事業所【福祉用具貸与】山梨県甲府市住吉5-21-1", "url": "https://www.kaigokensaku.mhlw.go.jp/19/index.php?action_kouhyou_detail_004_kani=true&JigyosyoCd=1970100960-00&ServiceCd=170&Type=search", "url2": "http://www.goodcare-kaigo.com/" }, "geometry": { "type": "Point", "coordinates": [ 138.576388337824625, 35.634187239304111 ] } },
{ "type": "Feature", "properties": { "内容": "フロンティア福祉用具サービス【福祉用具貸与】山梨県甲府市徳行3丁目7-20橘ビル201", "url": "https://www.kaigokensaku.mhlw.go.jp/19/index.php?action_kouhyou_detail_004_kani=true&JigyosyoCd=1970105563-00&ServiceCd=170&Type=search", "url2": "https://www.frontier-gp.jp/" }, "geometry": { "type": "Point", "coordinates": [ 138.541220292314051, 35.649077698561243 ] } },
{ "type": "Feature", "properties": { "内容": "富士新幸株式会社福祉介護事業部【福祉用具貸与】山梨県都留市つる５－３－５", "url": "https://www.kaigokensaku.mhlw.go.jp/19/index.php?action_kouhyou_detail_004_kani=true&JigyosyoCd=1971100092-00&ServiceCd=170&Type=search", "url2": null }, "geometry": { "type": "Point", "coordinates": [ 138.904017, 35.5622566 ] } },
{ "type": "Feature", "properties": { "内容": "クローバーケアサービスつる【福祉用具貸与】山梨県都留市下谷2441-1", "url": "https://www.kaigokensaku.mhlw.go.jp/19/index.php?action_kouhyou_detail_004_kani=true&JigyosyoCd=1971100431-00&ServiceCd=170&Type=search", "url2": "https://clovercare.co.jp/" }, "geometry": { "type": "Point", "coordinates": [ 138.9202238, 35.5604169 ] } },
{ "type": "Feature", "properties": { "内容": "Nutsケアサービス【福祉用具貸与】山梨県都留市夏狩1719-201", "url": "https://www.kaigokensaku.mhlw.go.jp/19/index.php?action_kouhyou_detail_004_kani=true&JigyosyoCd=1971100498-00&ServiceCd=170&Type=search", "url2": null }, "geometry": { "type": "Point", "coordinates": [ 138.880331500000011, 35.5391093 ] } },
{ "type": "Feature", "properties": { "内容": "福祉用具貸与事業所　この指とまれ【福祉用具貸与】山梨県山梨市上栗原733-2", "url": "https://www.kaigokensaku.mhlw.go.jp/19/index.php?action_kouhyou_detail_004_kani=true&JigyosyoCd=1970200794-00&ServiceCd=170&Type=search", "url2": null }, "geometry": { "type": "Point", "coordinates": [ 138.7074771, 35.6641546 ] } },
{ "type": "Feature", "properties": { "内容": "ウイールチェアー中部株式会社【福祉用具貸与】山梨県韮崎市藤井町北下條１１４０－１１", "url": "https://www.kaigokensaku.mhlw.go.jp/19/index.php?action_kouhyou_detail_004_kani=true&JigyosyoCd=1970900252-00&ServiceCd=170&Type=search", "url2": null }, "geometry": { "type": "Point", "coordinates": [ 138.4522869, 35.7222398 ] } },
{ "type": "Feature", "properties": { "内容": "高原会福祉用具相談室【福祉用具貸与】山梨県南アルプス市小笠原３０７－５", "url": "https://www.kaigokensaku.mhlw.go.jp/19/index.php?action_kouhyou_detail_004_kani=true&JigyosyoCd=1971601149-00&ServiceCd=170&Type=search", "url2": "http://www.takahara-hp.or.jp/" }, "geometry": { "type": "Point", "coordinates": [ 138.466655614819274, 35.607430892966406 ] } },
{ "type": "Feature", "properties": { "内容": "福祉用具貸与事業所はなぶさ【福祉用具貸与】山梨県南アルプス市鏡中條318-4", "url": "https://www.kaigokensaku.mhlw.go.jp/19/index.php?action_kouhyou_detail_004_kani=true&JigyosyoCd=1971600950-00&ServiceCd=170&Type=search", "url2": null }, "geometry": { "type": "Point", "coordinates": [ 138.499290428836076, 35.621751188165611 ] } },
{ "type": "Feature", "properties": { "内容": "レンタルひまわり【福祉用具貸与】山梨県南アルプス市小笠原1084-1", "url": "https://www.kaigokensaku.mhlw.go.jp/19/index.php?action_kouhyou_detail_004_kani=true&JigyosyoCd=1971601610-00&ServiceCd=170&Type=search", "url2": "https://oujukai.jp/rental/" }, "geometry": { "type": "Point", "coordinates": [ 138.462094900000011, 35.6170433 ] } },
{ "type": "Feature", "properties": { "内容": "福祉用具貸与・販売　フルリールサポート【福祉用具貸与】北杜市武川町柳澤719", "url": "https://www.kaigokensaku.mhlw.go.jp/19/index.php?action_kouhyou_detail_004_kani=true&JigyosyoCd=1971900590-00&ServiceCd=170&Type=search", "url2": null }, "geometry": { "type": "Point", "coordinates": [ 138.3509417, 35.787117 ] } },
{ "type": "Feature", "properties": { "内容": "ユニケア株式会社【福祉用具貸与】山梨県甲斐市篠原58-3", "url": "https://www.kaigokensaku.mhlw.go.jp/19/index.php?action_kouhyou_detail_004_kani=true&JigyosyoCd=1971700925-00&ServiceCd=170&Type=search", "url2": "http://hp.kaipoke.biz/gdv/" }, "geometry": { "type": "Point", "coordinates": [ 138.5198365, 35.6550385 ] } },
{ "type": "Feature", "properties": { "内容": "サンクシア指定福祉用具貸与事業所【福祉用具貸与】大下条1157", "url": "https://www.kaigokensaku.mhlw.go.jp/19/index.php?action_kouhyou_detail_004_kani=true&JigyosyoCd=1971700644-00&ServiceCd=170&Type=search", "url2": null }, "geometry": { "type": "Point", "coordinates": [ 138.527527599999985, 35.6739801 ] } },
{ "type": "Feature", "properties": { "内容": "幸せのリボン　福祉用具部【福祉用具貸与】山梨県甲斐市岩森184-1", "url": "https://www.kaigokensaku.mhlw.go.jp/19/index.php?action_kouhyou_detail_004_kani=true&JigyosyoCd=1971700784-00&ServiceCd=170&Type=search", "url2": "https://siawasenoribbon.com/" }, "geometry": { "type": "Point", "coordinates": [ 138.4872579, 35.6941271 ] } },
{ "type": "Feature", "properties": { "内容": "株式会社介護センター花岡甲府店【福祉用具貸与】西八幡3800-1", "url": "https://www.kaigokensaku.mhlw.go.jp/19/index.php?action_kouhyou_detail_004_kani=true&JigyosyoCd=1971700370-00&ServiceCd=170&Type=search", "url2": "http://www.kaigo-hanaoka.com/" }, "geometry": { "type": "Point", "coordinates": [ 138.5170415, 35.6380341 ] } },
{ "type": "Feature", "properties": { "内容": "やさしい手　福祉用具センター【福祉用具貸与】甲斐市篠原２１７３－６", "url": "https://www.kaigokensaku.mhlw.go.jp/19/index.php?action_kouhyou_detail_004_kani=true&JigyosyoCd=1971700214-00&ServiceCd=170&Type=search", "url2": null }, "geometry": { "type": "Point", "coordinates": [ 138.515790599999946, 35.6553548 ] } },
{ "type": "Feature", "properties": { "内容": "株式会社ナック　ダスキンヘルスレント笛吹ステーション【福祉用具貸与】山梨県笛吹市一宮町中尾694-1", "url": "https://www.kaigokensaku.mhlw.go.jp/19/index.php?action_kouhyou_detail_004_kani=true&JigyosyoCd=1971801376-00&ServiceCd=170&Type=search", "url2": "https://healthrent.duskin.jp/station/yamanashi/fuefuki.html" }, "geometry": { "type": "Point", "coordinates": [ 138.7006723, 35.6579934 ] } },
{ "type": "Feature", "properties": { "内容": "絆　福祉用具サービス【福祉用具貸与】山梨県笛吹市八代町竹居1235-1", "url": "https://www.kaigokensaku.mhlw.go.jp/19/index.php?action_kouhyou_detail_004_kani=true&JigyosyoCd=1971801574-00&ServiceCd=170&Type=search", "url2": "http://kizuna.social" }, "geometry": { "type": "Point", "coordinates": [ 138.6591953, 35.6035263 ] } },
{ "type": "Feature", "properties": { "内容": "あい和ケアサービス【福祉用具貸与】山梨県上野原市上野原268-3", "url": "https://www.kaigokensaku.mhlw.go.jp/19/index.php?action_kouhyou_detail_004_kani=true&JigyosyoCd=1972000390-00&ServiceCd=170&Type=search", "url2": null }, "geometry": { "type": "Point", "coordinates": [ 139.123780482865016, 35.62204223024667 ] } },
{ "type": "Feature", "properties": { "内容": "万年屋【福祉用具貸与】山梨県上野原市上野原3237", "url": "https://www.kaigokensaku.mhlw.go.jp/19/index.php?action_kouhyou_detail_004_kani=true&JigyosyoCd=1972000416-00&ServiceCd=170&Type=search", "url2": "https://www.longlife.co.jp" }, "geometry": { "type": "Point", "coordinates": [ 139.1143712, 35.6274727 ] } },
{ "type": "Feature", "properties": { "内容": "有限会社　幸英介護支援サービス【福祉用具貸与】甲州市塩山上於曽１０８５－１　甲州市役所地下", "url": "https://www.kaigokensaku.mhlw.go.jp/19/index.php?action_kouhyou_detail_004_kani=true&JigyosyoCd=1970300081-00&ServiceCd=170&Type=search", "url2": null }, "geometry": { "type": "Point", "coordinates": [ 138.7294264, 35.7042891 ] } },
{ "type": "Feature", "properties": { "内容": "有限会社　オギハラ介護サービス【福祉用具貸与】山梨県甲州市塩山上塩後1210", "url": "https://www.kaigokensaku.mhlw.go.jp/19/index.php?action_kouhyou_detail_004_kani=true&JigyosyoCd=1970300057-00&ServiceCd=170&Type=search", "url2": "http://ogihara-kaigo.com" }, "geometry": { "type": "Point", "coordinates": [ 138.7140659, 35.7045014 ] } },
{ "type": "Feature", "properties": { "内容": "株式会社　サンカイゴ　中央店【福祉用具貸与】山梨県中央市中楯91-1", "url": "https://www.kaigokensaku.mhlw.go.jp/19/index.php?action_kouhyou_detail_004_kani=true&JigyosyoCd=1940810391-00&ServiceCd=170&Type=search", "url2": null }, "geometry": { "type": "Point", "coordinates": [ 138.5528531, 35.610287 ] } },
{ "type": "Feature", "properties": { "内容": "福祉用具貸与事業所　さい【福祉用具貸与】南巨摩郡身延町波木井１５０７－１", "url": "https://www.kaigokensaku.mhlw.go.jp/19/index.php?action_kouhyou_detail_004_kani=true&JigyosyoCd=1970701163-00&ServiceCd=170&Type=search", "url2": null }, "geometry": { "type": "Point", "coordinates": [ 138.446649944550018, 35.376598696907003 ] } },
{ "type": "Feature", "properties": { "内容": "介護ショップマーガレット【福祉用具貸与】山梨県南巨摩郡南部町南部8207-3", "url": "https://www.kaigokensaku.mhlw.go.jp/19/index.php?action_kouhyou_detail_004_kani=true&JigyosyoCd=1970700447-00&ServiceCd=170&Type=search", "url2": "http://care-net.biz/19/ma-galet" }, "geometry": { "type": "Point", "coordinates": [ 138.454507299999932, 35.2904805 ] } },
{ "type": "Feature", "properties": { "内容": "合同会社みらい【福祉用具貸与】山梨県中巨摩郡昭和町河西1348スプリングハイツ1-103", "url": "https://www.kaigokensaku.mhlw.go.jp/19/index.php?action_kouhyou_detail_004_kani=true&JigyosyoCd=1970801294-00&ServiceCd=170&Type=search", "url2": null }, "geometry": { "type": "Point", "coordinates": [ 138.5217121, 35.614576 ] } },
{ "type": "Feature", "properties": { "内容": "クローバー【福祉用具貸与】山梨県中巨摩郡昭和町西条984-1", "url": "https://www.kaigokensaku.mhlw.go.jp/19/index.php?action_kouhyou_detail_004_kani=true&JigyosyoCd=1970801245-00&ServiceCd=170&Type=search", "url2": null }, "geometry": { "type": "Point", "coordinates": [ 138.545165699999984, 35.6305297 ] } },
{ "type": "Feature", "properties": { "内容": "ケアショップ　まるやま【福祉用具貸与】山梨県南都留郡富士河口湖町勝山１２２３－５", "url": "https://www.kaigokensaku.mhlw.go.jp/19/index.php?action_kouhyou_detail_004_kani=true&JigyosyoCd=1971300551-00&ServiceCd=170&Type=search", "url2": null }, "geometry": { "type": "Point", "coordinates": [ 138.744981700000039, 35.5063626 ] } },
{ "type": "Feature", "properties": { "内容": "富士観光開発(株)　生活設備部　福祉用具課【福祉用具貸与】山梨県　南都留郡　富士河口湖町　船津　3172", "url": "https://www.kaigokensaku.mhlw.go.jp/19/index.php?action_kouhyou_detail_004_kani=true&JigyosyoCd=1971300114-00&ServiceCd=170&Type=search", "url2": null }, "geometry": { "type": "Point", "coordinates": [ 138.7678388, 35.4939645 ] } },
{ "type": "Feature", "properties": { "内容": "有限会社エフ・ラインワタトウ【福祉用具貸与】山梨県南都留郡富士河口湖町船津3100-5", "url": "https://www.kaigokensaku.mhlw.go.jp/19/index.php?action_kouhyou_detail_004_kani=true&JigyosyoCd=1971300205-00&ServiceCd=170&Type=search", "url2": null }, "geometry": { "type": "Point", "coordinates": [ 138.764501, 35.4962546 ] } }
]
}
