{
"type": "FeatureCollection",
"name": "geo_19_訪問介護",
"crs": { "type": "name", "properties": { "name": "urn:ogc:def:crs:OGC:1.3:CRS84" } },
"features": [
{ "type": "Feature", "properties": { "内容": "ニチイケアセンター甲府西【訪問介護】山梨県甲府市下飯田2-4-30", "url": "https://www.kaigokensaku.mhlw.go.jp/19/index.php?action_kouhyou_detail_004_kani=true&JigyosyoCd=1970101695-00&ServiceCd=110&Type=search", "url2": "http://www.nichiigakkan.co.jp" }, "geometry": { "type": "Point", "coordinates": [ 138.549078300000019, 35.6632793 ] } },
{ "type": "Feature", "properties": { "内容": "訪問介護事業所　あい【訪問介護】山梨県甲府市天神町4-7", "url": "https://www.kaigokensaku.mhlw.go.jp/19/index.php?action_kouhyou_detail_004_kani=true&JigyosyoCd=1970101018-00&ServiceCd=110&Type=search", "url2": null }, "geometry": { "type": "Point", "coordinates": [ 138.568889899999931, 35.6753885 ] } },
{ "type": "Feature", "properties": { "内容": "和らぎ訪問介護事業所【訪問介護】山梨県甲府市上石田３－１３－１５ホーチキビル２Ｆ北", "url": "https://www.kaigokensaku.mhlw.go.jp/19/index.php?action_kouhyou_detail_004_kani=true&JigyosyoCd=1970102792-00&ServiceCd=110&Type=search", "url2": null }, "geometry": { "type": "Point", "coordinates": [ 138.5567939, 35.6515831 ] } },
{ "type": "Feature", "properties": { "内容": "Careえみ【訪問介護】川田町481-4", "url": "https://www.kaigokensaku.mhlw.go.jp/19/index.php?action_kouhyou_detail_004_kani=true&JigyosyoCd=1970105399-00&ServiceCd=110&Type=search", "url2": null }, "geometry": { "type": "Point", "coordinates": [ 139.7195415, 35.6968569 ] } },
{ "type": "Feature", "properties": { "内容": "訪問介護事業所　フォーリーブス甲府【訪問介護】東下条町107", "url": "https://www.kaigokensaku.mhlw.go.jp/19/index.php?action_kouhyou_detail_004_kani=true&JigyosyoCd=1970105639-00&ServiceCd=110&Type=search", "url2": null }, "geometry": { "type": "Point", "coordinates": [ 138.574585899999988, 35.6127148 ] } },
{ "type": "Feature", "properties": { "内容": "快晴苑　訪問介護事業所【訪問介護】山梨県甲府市大津町333番地", "url": "https://www.kaigokensaku.mhlw.go.jp/19/index.php?action_kouhyou_detail_004_kani=true&JigyosyoCd=1970105662-00&ServiceCd=110&Type=search", "url2": "https://daijukai-y.or.jp/" }, "geometry": { "type": "Point", "coordinates": [ 138.564000099999987, 35.609024 ] } },
{ "type": "Feature", "properties": { "内容": "有限会社　小春日和【訪問介護】山梨県甲府市中小河原町1608-1", "url": "https://www.kaigokensaku.mhlw.go.jp/19/index.php?action_kouhyou_detail_004_kani=true&JigyosyoCd=1970101182-00&ServiceCd=110&Type=search", "url2": "https://koharubi-kaigo.com/" }, "geometry": { "type": "Point", "coordinates": [ 138.56901830000001, 35.6306419 ] } },
{ "type": "Feature", "properties": { "内容": "介護のみちる【訪問介護】住吉5丁目25-32Ｉ－ＳＯＨＯ－Ａ", "url": "https://www.kaigokensaku.mhlw.go.jp/19/index.php?action_kouhyou_detail_004_kani=true&JigyosyoCd=1970105126-00&ServiceCd=110&Type=search", "url2": null }, "geometry": { "type": "Point", "coordinates": [ 130.4141415, 33.5807852 ] } },
{ "type": "Feature", "properties": { "内容": "有限会社アルファー・キッド【訪問介護】甲府市朝日1-6-1", "url": "https://www.kaigokensaku.mhlw.go.jp/19/index.php?action_kouhyou_detail_004_kani=true&JigyosyoCd=1970100440-00&ServiceCd=110&Type=search", "url2": null }, "geometry": { "type": "Point", "coordinates": [ 138.565973500000013, 35.6699378 ] } },
{ "type": "Feature", "properties": { "内容": "甲府ヘルパーステーション【訪問介護】山梨県甲府市住吉5-22-14", "url": "https://www.kaigokensaku.mhlw.go.jp/19/index.php?action_kouhyou_detail_004_kani=true&JigyosyoCd=1970101034-00&ServiceCd=110&Type=search", "url2": "http://heart-service.co.jp/" }, "geometry": { "type": "Point", "coordinates": [ 138.5767696, 35.6344462 ] } },
{ "type": "Feature", "properties": { "内容": "和告ヘルパーステーション【訪問介護】中村町4-12", "url": "https://www.kaigokensaku.mhlw.go.jp/19/index.php?action_kouhyou_detail_004_kani=true&JigyosyoCd=1970102776-00&ServiceCd=110&Type=search", "url2": "http://www.wakouwelfare.or.jp" }, "geometry": { "type": "Point", "coordinates": [ 138.533188844180302, 35.66778731106438 ] } },
{ "type": "Feature", "properties": { "内容": "ケアフォーラム甲府【訪問介護】山梨県甲府市上石田３丁目８－８", "url": "https://www.kaigokensaku.mhlw.go.jp/19/index.php?action_kouhyou_detail_004_kani=true&JigyosyoCd=1970105241-00&ServiceCd=110&Type=search", "url2": "https://careforum-kofu.jp" }, "geometry": { "type": "Point", "coordinates": [ 138.552825300000023, 35.654091200000011 ] } },
{ "type": "Feature", "properties": { "内容": "訪問介護まごころ甲府【訪問介護】山梨県甲府市徳行2-2-18テンバクS107", "url": "https://www.kaigokensaku.mhlw.go.jp/19/index.php?action_kouhyou_detail_004_kani=true&JigyosyoCd=1970105829-00&ServiceCd=110&Type=search", "url2": null }, "geometry": { "type": "Point", "coordinates": [ 138.5492391, 35.651332 ] } },
{ "type": "Feature", "properties": { "内容": "訪問介護　志暖【訪問介護】山梨県甲府市善光寺1丁目28－25光栄ビル2階", "url": "https://www.kaigokensaku.mhlw.go.jp/19/index.php?action_kouhyou_detail_004_kani=true&JigyosyoCd=1970105027-00&ServiceCd=110&Type=search", "url2": null }, "geometry": { "type": "Point", "coordinates": [ 138.591378636724556, 35.657111563325593 ] } },
{ "type": "Feature", "properties": { "内容": "アーク訪問介護事業所【訪問介護】山梨県甲府市上阿原町416-1MPイーストビル2階", "url": "https://www.kaigokensaku.mhlw.go.jp/19/index.php?action_kouhyou_detail_004_kani=true&JigyosyoCd=1970105530-00&ServiceCd=110&Type=search", "url2": "http://www.arc-m.co.jp" }, "geometry": { "type": "Point", "coordinates": [ 138.6104072, 35.6465051 ] } },
{ "type": "Feature", "properties": { "内容": "訪問介護ステーションケアリー甲斐竜王【訪問介護】国母4-22-6レジデンスカサイ301", "url": "https://www.kaigokensaku.mhlw.go.jp/19/index.php?action_kouhyou_detail_004_kani=true&JigyosyoCd=1970105795-00&ServiceCd=110&Type=search", "url2": null }, "geometry": { "type": "Point", "coordinates": [ 138.563589799999988, 35.6358078 ] } },
{ "type": "Feature", "properties": { "内容": "ヘルパーステーション風見鶏【訪問介護】山梨県甲府市城東２－２５－２０", "url": "https://www.kaigokensaku.mhlw.go.jp/19/index.php?action_kouhyou_detail_004_kani=true&JigyosyoCd=1970102743-00&ServiceCd=110&Type=search", "url2": null }, "geometry": { "type": "Point", "coordinates": [ 138.5771374, 35.6562051 ] } },
{ "type": "Feature", "properties": { "内容": "訪問介護事業所コスモ甲府西【訪問介護】山梨県甲府市徳行3丁目9-30　太田ビル201", "url": "https://www.kaigokensaku.mhlw.go.jp/19/index.php?action_kouhyou_detail_004_kani=true&JigyosyoCd=1970105670-00&ServiceCd=110&Type=search", "url2": "https://ikiikiclub.com/" }, "geometry": { "type": "Point", "coordinates": [ 138.54158, 35.6487364 ] } },
{ "type": "Feature", "properties": { "内容": "訪問介護いろは【訪問介護】山梨県　甲府市朝日1丁目１０－２朝日ビル102", "url": "https://www.kaigokensaku.mhlw.go.jp/19/index.php?action_kouhyou_detail_004_kani=true&JigyosyoCd=1970105514-00&ServiceCd=110&Type=search", "url2": "http://hp.kaipoke.biz/df9/" }, "geometry": { "type": "Point", "coordinates": [ 138.56638430000001, 35.6707562 ] } },
{ "type": "Feature", "properties": { "内容": "今井整形訪問介護事業所【訪問介護】山梨県甲府市上阿原町１１５１", "url": "https://www.kaigokensaku.mhlw.go.jp/19/index.php?action_kouhyou_detail_004_kani=true&JigyosyoCd=1970102131-00&ServiceCd=110&Type=search", "url2": null }, "geometry": { "type": "Point", "coordinates": [ 138.602788499999974, 35.6438606 ] } },
{ "type": "Feature", "properties": { "内容": "アクア甲府訪問介護【訪問介護】山梨県甲府市下小河町字相の原256番4", "url": "https://www.kaigokensaku.mhlw.go.jp/19/index.php?action_kouhyou_detail_004_kani=true&JigyosyoCd=1970105738-00&ServiceCd=110&Type=search", "url2": null }, "geometry": { "type": "Point", "coordinates": [ 138.578147, 35.6319114 ] } },
{ "type": "Feature", "properties": { "内容": "みんぷく訪問介護事業所【訪問介護】山梨県甲府市横根町451-1　KNビル３階", "url": "https://www.kaigokensaku.mhlw.go.jp/19/index.php?action_kouhyou_detail_004_kani=true&JigyosyoCd=1970104822-00&ServiceCd=110&Type=search", "url2": "http://www.sakurai-ryo.com" }, "geometry": { "type": "Point", "coordinates": [ 138.612771792711015, 35.654323797780862 ] } },
{ "type": "Feature", "properties": { "内容": "藤訪問介護事業所【訪問介護】山梨県甲府市伊勢１－２－１８", "url": "https://www.kaigokensaku.mhlw.go.jp/19/index.php?action_kouhyou_detail_004_kani=true&JigyosyoCd=1970100655-00&ServiceCd=110&Type=search", "url2": null }, "geometry": { "type": "Point", "coordinates": [ 138.5681636, 35.6512196 ] } },
{ "type": "Feature", "properties": { "内容": "あっとほーむ訪問介護事業所【訪問介護】山梨県甲府市住吉4-20-15", "url": "https://www.kaigokensaku.mhlw.go.jp/19/index.php?action_kouhyou_detail_004_kani=true&JigyosyoCd=1970104848-00&ServiceCd=110&Type=search", "url2": "https://www.athome-kofu.com/" }, "geometry": { "type": "Point", "coordinates": [ 138.579896299999973, 35.6381332 ] } },
{ "type": "Feature", "properties": { "内容": "みやびヘルパーステーション【訪問介護】山梨県甲府市千塚3丁目1-4サンクシアビル101", "url": "https://www.kaigokensaku.mhlw.go.jp/19/index.php?action_kouhyou_detail_004_kani=true&JigyosyoCd=1970104582-00&ServiceCd=110&Type=search", "url2": null }, "geometry": { "type": "Point", "coordinates": [ 138.539216384779422, 35.681842974983368 ] } },
{ "type": "Feature", "properties": { "内容": "公益社団法人山梨県看護協会　荒川ホームヘルパーステーション【訪問介護】山梨県甲府市荒川２丁目１０番２６号", "url": "https://www.kaigokensaku.mhlw.go.jp/19/index.php?action_kouhyou_detail_004_kani=true&JigyosyoCd=1970100648-00&ServiceCd=110&Type=search", "url2": "https.//www.yna.or.jp/houmo" }, "geometry": { "type": "Point", "coordinates": [ 138.5377747, 35.677405 ] } },
{ "type": "Feature", "properties": { "内容": "やさしい手　甲府東事業所【訪問介護】山梨県甲府市酒折1-20-23", "url": "https://www.kaigokensaku.mhlw.go.jp/19/index.php?action_kouhyou_detail_004_kani=true&JigyosyoCd=1970100259-00&ServiceCd=110&Type=search", "url2": null }, "geometry": { "type": "Point", "coordinates": [ 138.595791, 35.6552854 ] } },
{ "type": "Feature", "properties": { "内容": "有限会社さわやか介護【訪問介護】山梨県甲府市和戸町29-1", "url": "https://www.kaigokensaku.mhlw.go.jp/19/index.php?action_kouhyou_detail_004_kani=true&JigyosyoCd=1970101539-00&ServiceCd=110&Type=search", "url2": null }, "geometry": { "type": "Point", "coordinates": [ 138.6218011, 35.6502508 ] } },
{ "type": "Feature", "properties": { "内容": "アスモ介護サービス国母【訪問介護】山梨県甲府市国母8‐5‐11宿沢ビル102号室", "url": "https://www.kaigokensaku.mhlw.go.jp/19/index.php?action_kouhyou_detail_004_kani=true&JigyosyoCd=1970103659-00&ServiceCd=110&Type=search", "url2": null }, "geometry": { "type": "Point", "coordinates": [ 138.549310399999968, 35.6329137 ] } },
{ "type": "Feature", "properties": { "内容": "やさしい手　甲府西事業所【訪問介護】甲府市上石田1-7-14", "url": "https://www.kaigokensaku.mhlw.go.jp/19/index.php?action_kouhyou_detail_004_kani=true&JigyosyoCd=1970100911-00&ServiceCd=110&Type=search", "url2": null }, "geometry": { "type": "Point", "coordinates": [ 138.553267, 35.6579134 ] } },
{ "type": "Feature", "properties": { "内容": "やさしい手　富士見事業所【訪問介護】山梨県甲府市塩部4-1-13サンロードビル2Ｆ", "url": "https://www.kaigokensaku.mhlw.go.jp/19/index.php?action_kouhyou_detail_004_kani=true&JigyosyoCd=1970101786-00&ServiceCd=110&Type=search", "url2": null }, "geometry": { "type": "Point", "coordinates": [ 138.55299615089146, 35.673232076471578 ] } },
{ "type": "Feature", "properties": { "内容": "やさしい手　甲府南事業所【訪問介護】山梨県甲府市大里町2373-1", "url": "https://www.kaigokensaku.mhlw.go.jp/19/index.php?action_kouhyou_detail_004_kani=true&JigyosyoCd=1970103568-00&ServiceCd=110&Type=search", "url2": null }, "geometry": { "type": "Point", "coordinates": [ 138.569661600000018, 35.6260985 ] } },
{ "type": "Feature", "properties": { "内容": "訪問介護かざぐるま【訪問介護】山梨県甲府市高畑2-4-1", "url": "https://www.kaigokensaku.mhlw.go.jp/19/index.php?action_kouhyou_detail_004_kani=true&JigyosyoCd=1970104970-00&ServiceCd=110&Type=search", "url2": "https://kazaguruma2.wixsite.com/kazaguruma" }, "geometry": { "type": "Point", "coordinates": [ 138.563316699999973, 35.646828899999981 ] } },
{ "type": "Feature", "properties": { "内容": "セントケア甲府【訪問介護】山梨県甲府市住吉2丁目4番8号　アイダビル2Ｆ", "url": "https://www.kaigokensaku.mhlw.go.jp/19/index.php?action_kouhyou_detail_004_kani=true&JigyosyoCd=1970102446-00&ServiceCd=110&Type=search", "url2": null }, "geometry": { "type": "Point", "coordinates": [ 138.566611500000022, 35.6374162 ] } },
{ "type": "Feature", "properties": { "内容": "ゴールドエイジ甲府営業所【訪問介護】中小河原1584-1", "url": "https://www.kaigokensaku.mhlw.go.jp/19/index.php?action_kouhyou_detail_004_kani=true&JigyosyoCd=1970104715-00&ServiceCd=110&Type=search", "url2": null }, "geometry": { "type": "Point", "coordinates": [ 138.5688815, 35.6324147 ] } },
{ "type": "Feature", "properties": { "内容": "ケアリッツ甲府【訪問介護】山梨県甲府市朝日1-3-5新津ビル2階", "url": "https://www.kaigokensaku.mhlw.go.jp/19/index.php?action_kouhyou_detail_004_kani=true&JigyosyoCd=1970105571-00&ServiceCd=110&Type=search", "url2": "https://www.careritz.co.jp/station/branch/kofu/" }, "geometry": { "type": "Point", "coordinates": [ 138.567089441104514, 35.669578471282257 ] } },
{ "type": "Feature", "properties": { "内容": "みどり【訪問介護】山梨県甲府市大里町4133ハイツ三神101", "url": "https://www.kaigokensaku.mhlw.go.jp/19/index.php?action_kouhyou_detail_004_kani=true&JigyosyoCd=1970105761-00&ServiceCd=110&Type=search", "url2": null }, "geometry": { "type": "Point", "coordinates": [ 138.5611147, 35.6212987 ] } },
{ "type": "Feature", "properties": { "内容": "訪問介護事業所ほの字【訪問介護】山梨県甲府市住吉5丁目25-14IKビル205号", "url": "https://www.kaigokensaku.mhlw.go.jp/19/index.php?action_kouhyou_detail_004_kani=true&JigyosyoCd=1970105290-00&ServiceCd=110&Type=search", "url2": null }, "geometry": { "type": "Point", "coordinates": [ 138.578479499999986, 35.6351554 ] } },
{ "type": "Feature", "properties": { "内容": "訪問介護　晴和【訪問介護】山梨県甲府市蓬沢町1200-18", "url": "https://www.kaigokensaku.mhlw.go.jp/19/index.php?action_kouhyou_detail_004_kani=true&JigyosyoCd=1970104962-00&ServiceCd=110&Type=search", "url2": null }, "geometry": { "type": "Point", "coordinates": [ 138.5962862, 35.6452882 ] } },
{ "type": "Feature", "properties": { "内容": "ライフサポートひかり【訪問介護】山梨県甲府市長松寺町7-13サンマリーナ長松寺1-A", "url": "https://www.kaigokensaku.mhlw.go.jp/19/index.php?action_kouhyou_detail_004_kani=true&JigyosyoCd=1970104442-00&ServiceCd=110&Type=search", "url2": "https://www.lifesupport-hikari.com" }, "geometry": { "type": "Point", "coordinates": [ 138.542211400000014, 35.665739299999984 ] } },
{ "type": "Feature", "properties": { "内容": "ヘルパーステーションいけだ【訪問介護】山梨県甲府市下飯田1-2-18", "url": "https://www.kaigokensaku.mhlw.go.jp/19/index.php?action_kouhyou_detail_004_kani=true&JigyosyoCd=1970104426-00&ServiceCd=110&Type=search", "url2": "https://ykf.or.jp" }, "geometry": { "type": "Point", "coordinates": [ 138.545021099999985, 35.6689024 ] } },
{ "type": "Feature", "properties": { "内容": "ケアセンターなごみ訪問介護事業所【訪問介護】山梨県甲府市富士見2丁目8-17", "url": "https://www.kaigokensaku.mhlw.go.jp/19/index.php?action_kouhyou_detail_004_kani=true&JigyosyoCd=1970101570-00&ServiceCd=110&Type=search", "url2": "nagomi-753@ivory.plala.or.jp" }, "geometry": { "type": "Point", "coordinates": [ 138.5488473, 35.6758072 ] } },
{ "type": "Feature", "properties": { "内容": "ニチイケアセンター甲府南【訪問介護】山梨県甲府市増坪町２６６-１１", "url": "https://www.kaigokensaku.mhlw.go.jp/19/index.php?action_kouhyou_detail_004_kani=true&JigyosyoCd=1970100564-00&ServiceCd=110&Type=search", "url2": "http://nichiigakkan.co.jp" }, "geometry": { "type": "Point", "coordinates": [ 138.591231500000049, 35.6360282 ] } },
{ "type": "Feature", "properties": { "内容": "ケアワークス山梨訪問介護事業所【訪問介護】山梨県甲府市下石田２丁目１－２４", "url": "https://www.kaigokensaku.mhlw.go.jp/19/index.php?action_kouhyou_detail_004_kani=true&JigyosyoCd=1970100986-00&ServiceCd=110&Type=search", "url2": null }, "geometry": { "type": "Point", "coordinates": [ 138.55030940000006, 35.6500643 ] } },
{ "type": "Feature", "properties": { "内容": "訪問介護　みんなの家【訪問介護】山梨県甲府市青沼2-22-14", "url": "https://www.kaigokensaku.mhlw.go.jp/19/index.php?action_kouhyou_detail_004_kani=true&JigyosyoCd=1970105340-00&ServiceCd=110&Type=search", "url2": "https://www.takumi.sc/welfare" }, "geometry": { "type": "Point", "coordinates": [ 138.5784357, 35.6533684 ] } },
{ "type": "Feature", "properties": { "内容": "アルファケア南甲府介護施設【訪問介護】山梨県甲府市南口町２番７号", "url": "https://www.kaigokensaku.mhlw.go.jp/19/index.php?action_kouhyou_detail_004_kani=true&JigyosyoCd=1970105753-00&ServiceCd=110&Type=search", "url2": "http//www.alphacare.jp" }, "geometry": { "type": "Point", "coordinates": [ 138.579977, 35.6467658 ] } },
{ "type": "Feature", "properties": { "内容": "ケアリッツ南甲府【訪問介護】山梨県甲府市住吉5-22-14ヤマリンビル206", "url": "https://www.kaigokensaku.mhlw.go.jp/19/index.php?action_kouhyou_detail_004_kani=true&JigyosyoCd=1970106041-00&ServiceCd=110&Type=search", "url2": "https://www.careritz.co.jp/station/branch/minamikofu/" }, "geometry": { "type": "Point", "coordinates": [ 138.5767823, 35.6344327 ] } },
{ "type": "Feature", "properties": { "内容": "Rケア甲府訪問介護事業所【訪問介護】山梨県甲府市高畑1-13-18", "url": "https://www.kaigokensaku.mhlw.go.jp/19/index.php?action_kouhyou_detail_004_kani=true&JigyosyoCd=1970105654-00&ServiceCd=110&Type=search", "url2": "https://www.rcare-yamanashi.com/" }, "geometry": { "type": "Point", "coordinates": [ 138.562528858222777, 35.650715109921371 ] } },
{ "type": "Feature", "properties": { "内容": "Rケア石和【訪問介護】和戸町1149コーポ小林第三201号", "url": "https://www.kaigokensaku.mhlw.go.jp/19/index.php?action_kouhyou_detail_004_kani=true&JigyosyoCd=1970105878-00&ServiceCd=110&Type=search", "url2": "https://www.rcare-yamanashi.com/" }, "geometry": { "type": "Point", "coordinates": [ 138.6211714, 35.6545416 ] } },
{ "type": "Feature", "properties": { "内容": "ヘルパーステーション　フロンティアの介護甲府【訪問介護】山梨県甲府市徳行３－７－２１橘ビル２０２", "url": "https://www.kaigokensaku.mhlw.go.jp/19/index.php?action_kouhyou_detail_004_kani=true&JigyosyoCd=1970105563-00&ServiceCd=110&Type=search", "url2": "https://www.frontier-gp.jp/" }, "geometry": { "type": "Point", "coordinates": [ 138.5423257, 35.6491114 ] } },
{ "type": "Feature", "properties": { "内容": "社会福祉法人　甲府市社会福祉協議会指定訪問介護事業所【訪問介護】山梨県甲府市相生2丁目17‐1甲府市南庁舎1号館　（旧相生小学校跡地）", "url": "https://www.kaigokensaku.mhlw.go.jp/19/index.php?action_kouhyou_detail_004_kani=true&JigyosyoCd=1970100051-00&ServiceCd=110&Type=search", "url2": "http://www.kofu-syakyo.or.jp/" }, "geometry": { "type": "Point", "coordinates": [ 138.567517049073786, 35.656218851226157 ] } },
{ "type": "Feature", "properties": { "内容": "あずま太陽の家　ヘルパーステーション【訪問介護】甲府市羽黒町1272-1", "url": "https://www.kaigokensaku.mhlw.go.jp/19/index.php?action_kouhyou_detail_004_kani=true&JigyosyoCd=1970104988-00&ServiceCd=110&Type=search", "url2": null }, "geometry": { "type": "Point", "coordinates": [ 138.5486205, 35.69111560000001 ] } },
{ "type": "Feature", "properties": { "内容": "全労済在宅介護サービスセンター山梨【訪問介護】甲府市丸の内3-29-11", "url": "https://www.kaigokensaku.mhlw.go.jp/19/index.php?action_kouhyou_detail_004_kani=true&JigyosyoCd=1970103618-00&ServiceCd=110&Type=search", "url2": null }, "geometry": { "type": "Point", "coordinates": [ 138.564013199999977, 35.659309 ] } },
{ "type": "Feature", "properties": { "内容": "ヴィラ武田の杜訪問介護支援事業所【訪問介護】山梨県甲府市羽黒町1455", "url": "https://www.kaigokensaku.mhlw.go.jp/19/index.php?action_kouhyou_detail_004_kani=true&JigyosyoCd=1970100747-00&ServiceCd=110&Type=search", "url2": null }, "geometry": { "type": "Point", "coordinates": [ 138.544525884096174, 35.694568487079778 ] } },
{ "type": "Feature", "properties": { "内容": "有限会社グットケアー住吉ヘルパーステーション【訪問介護】山梨県甲府市住吉3-21-16", "url": "https://www.kaigokensaku.mhlw.go.jp/19/index.php?action_kouhyou_detail_004_kani=true&JigyosyoCd=1970101000-00&ServiceCd=110&Type=search", "url2": "http://www.goodcare-kaigo.com/" }, "geometry": { "type": "Point", "coordinates": [ 138.581040499999972, 35.6402024 ] } },
{ "type": "Feature", "properties": { "内容": "有限会社グットケアー東光寺ヘルパーステーション「子ぶた」【訪問介護】山梨県甲府市東光寺2-19-29", "url": "https://www.kaigokensaku.mhlw.go.jp/19/index.php?action_kouhyou_detail_004_kani=true&JigyosyoCd=1970101273-00&ServiceCd=110&Type=search", "url2": "http://www.goodcare-kaigo.com/" }, "geometry": { "type": "Point", "coordinates": [ 138.5877858, 35.6623167 ] } },
{ "type": "Feature", "properties": { "内容": "訪問介護事業所奏【訪問介護】山梨県甲府市上石田3丁目19-23サービス付き高齢者向け住宅奏", "url": "https://www.kaigokensaku.mhlw.go.jp/19/index.php?action_kouhyou_detail_004_kani=true&JigyosyoCd=1970105480-00&ServiceCd=110&Type=search", "url2": "http://kanade.jandm.co.jp" }, "geometry": { "type": "Point", "coordinates": [ 138.552983, 35.6528726 ] } },
{ "type": "Feature", "properties": { "内容": "訪問介護事業所コスモ・アンシア【訪問介護】山梨県甲府市青沼3-4-14", "url": "https://www.kaigokensaku.mhlw.go.jp/19/index.php?action_kouhyou_detail_004_kani=true&JigyosyoCd=1970103436-00&ServiceCd=110&Type=search", "url2": "https://ikiikiclub.com/" }, "geometry": { "type": "Point", "coordinates": [ 138.5768672, 35.6524776 ] } },
{ "type": "Feature", "properties": { "内容": "ヘルパーステーション洗心【訪問介護】山梨県甲府市朝気3-18-5", "url": "https://www.kaigokensaku.mhlw.go.jp/19/index.php?action_kouhyou_detail_004_kani=true&JigyosyoCd=1970105928-00&ServiceCd=110&Type=search", "url2": "https://tsuyukigroup.life/" }, "geometry": { "type": "Point", "coordinates": [ 138.5807021, 35.6486995 ] } },
{ "type": "Feature", "properties": { "内容": "ヘルパーステーション青い鳥【訪問介護】山梨県甲府市下飯田1丁目10番22号", "url": "https://www.kaigokensaku.mhlw.go.jp/19/index.php?action_kouhyou_detail_004_kani=true&JigyosyoCd=1970101521-00&ServiceCd=110&Type=search", "url2": "http://yamanashi-lighthouse.or.jp/" }, "geometry": { "type": "Point", "coordinates": [ 138.546559, 35.6660511 ] } },
{ "type": "Feature", "properties": { "内容": "ニチイケアセンタ-富士吉田【訪問介護】山梨県富士吉田市上吉田三枚畠6537", "url": "https://www.kaigokensaku.mhlw.go.jp/19/index.php?action_kouhyou_detail_004_kani=true&JigyosyoCd=1971200058-00&ServiceCd=110&Type=search", "url2": "http://www.nichiigakkan.co.jp" }, "geometry": { "type": "Point", "coordinates": [ 138.796449899999971, 35.4800585 ] } },
{ "type": "Feature", "properties": { "内容": "株式会社高木建材福祉事業部ポプラの木介護センター【訪問介護】山梨県富士吉田市中曽根1-8-24", "url": "https://www.kaigokensaku.mhlw.go.jp/19/index.php?action_kouhyou_detail_004_kani=true&JigyosyoCd=1971200066-00&ServiceCd=110&Type=search", "url2": "http://www.popuranoki.jp" }, "geometry": { "type": "Point", "coordinates": [ 138.796211699999986, 35.4746598 ] } },
{ "type": "Feature", "properties": { "内容": "やさしい手　富士吉田事業所【訪問介護】山梨県富士吉田市下吉田7-2-37", "url": "https://www.kaigokensaku.mhlw.go.jp/19/index.php?action_kouhyou_detail_004_kani=true&JigyosyoCd=1971200173-00&ServiceCd=110&Type=search", "url2": null }, "geometry": { "type": "Point", "coordinates": [ 138.808839900000038, 35.490609200000016 ] } },
{ "type": "Feature", "properties": { "内容": "訪問介護事業所　芙蓉荘【訪問介護】山梨県富士吉田市松山1613", "url": "https://www.kaigokensaku.mhlw.go.jp/19/index.php?action_kouhyou_detail_004_kani=true&JigyosyoCd=1971200025-00&ServiceCd=110&Type=search", "url2": "http://www.snhfuyoso.com" }, "geometry": { "type": "Point", "coordinates": [ 138.777937800000018, 35.4810441 ] } },
{ "type": "Feature", "properties": { "内容": "アンカケアサービス訪問介護事業所【訪問介護】松山1278", "url": "https://www.kaigokensaku.mhlw.go.jp/19/index.php?action_kouhyou_detail_004_kani=true&JigyosyoCd=1971200405-00&ServiceCd=110&Type=search", "url2": null }, "geometry": { "type": "Point", "coordinates": [ 138.7788147, 35.4787562 ] } },
{ "type": "Feature", "properties": { "内容": "都留市社会福祉協議会【訪問介護】山梨県都留市下谷２，５１６番地１", "url": "https://www.kaigokensaku.mhlw.go.jp/19/index.php?action_kouhyou_detail_004_kani=true&JigyosyoCd=1971100068-00&ServiceCd=110&Type=search", "url2": "http://www11.ocn.ne.jp/~t-shakyo/" }, "geometry": { "type": "Point", "coordinates": [ 138.914324099999931, 35.5611959 ] } },
{ "type": "Feature", "properties": { "内容": "有限会社　ファミリーケアサービス【訪問介護】山梨県　都留市つる５－４－２９", "url": "https://www.kaigokensaku.mhlw.go.jp/19/index.php?action_kouhyou_detail_004_kani=true&JigyosyoCd=1971100076-00&ServiceCd=110&Type=search", "url2": null }, "geometry": { "type": "Point", "coordinates": [ 138.90515849999997, 35.5626066 ] } },
{ "type": "Feature", "properties": { "内容": "サンクシア都留ヘルパーステーション【訪問介護】山梨県都留市桂町907-1桂ハイツC号室", "url": "https://www.kaigokensaku.mhlw.go.jp/19/index.php?action_kouhyou_detail_004_kani=true&JigyosyoCd=1971100506-00&ServiceCd=110&Type=search", "url2": "https://www.big-advance.site/c/158/1334/profile" }, "geometry": { "type": "Point", "coordinates": [ 138.8686524, 35.5341437 ] } },
{ "type": "Feature", "properties": { "内容": "介護サービスゆりの里【訪問介護】山梨県都留市田野倉１４３１番地１", "url": "https://www.kaigokensaku.mhlw.go.jp/19/index.php?action_kouhyou_detail_004_kani=true&JigyosyoCd=1971100241-00&ServiceCd=110&Type=search", "url2": "https://yurinosato-web.jimdosite.com/" }, "geometry": { "type": "Point", "coordinates": [ 138.9342038, 35.5874712 ] } },
{ "type": "Feature", "properties": { "内容": "きずな福祉サービス【訪問介護】井倉３３３－２", "url": "https://www.kaigokensaku.mhlw.go.jp/19/index.php?action_kouhyou_detail_004_kani=true&JigyosyoCd=1971100324-00&ServiceCd=110&Type=search", "url2": null }, "geometry": { "type": "Point", "coordinates": [ 138.937916800000011, 35.5712577 ] } },
{ "type": "Feature", "properties": { "内容": "有限会社ケアサポート孫心【訪問介護】都留市古川渡125-1エクセルカセイ１０１", "url": "https://www.kaigokensaku.mhlw.go.jp/19/index.php?action_kouhyou_detail_004_kani=true&JigyosyoCd=1971100183-00&ServiceCd=110&Type=search", "url2": null }, "geometry": { "type": "Point", "coordinates": [ 138.92597, 35.5745095 ] } },
{ "type": "Feature", "properties": { "内容": "訪問介護事業所　あゆみ【訪問介護】山梨県都留市田原4丁目4番地2号", "url": "https://www.kaigokensaku.mhlw.go.jp/19/index.php?action_kouhyou_detail_004_kani=true&JigyosyoCd=1961190038-00&ServiceCd=110&Type=search", "url2": "https://thrifty-cyclamen-zth5k6.mystrikingly.com/1" }, "geometry": { "type": "Point", "coordinates": [ 138.894000799999986, 35.5412543 ] } },
{ "type": "Feature", "properties": { "内容": "訪問介護サービスリアン【訪問介護】山梨県山梨市七日市場710-1", "url": "https://www.kaigokensaku.mhlw.go.jp/19/index.php?action_kouhyou_detail_004_kani=true&JigyosyoCd=1970200521-00&ServiceCd=110&Type=search", "url2": "https://jyukokai.jp" }, "geometry": { "type": "Point", "coordinates": [ 138.699575749737505, 35.699980451503542 ] } },
{ "type": "Feature", "properties": { "内容": "サンクシア山梨ヘルパーステーション【訪問介護】山梨県山梨市下井尻347-10-1", "url": "https://www.kaigokensaku.mhlw.go.jp/19/index.php?action_kouhyou_detail_004_kani=true&JigyosyoCd=1970200786-00&ServiceCd=110&Type=search", "url2": null }, "geometry": { "type": "Point", "coordinates": [ 138.7088199, 35.702098 ] } },
{ "type": "Feature", "properties": { "内容": "やさしい手　山梨事業所【訪問介護】山梨市上神内川１６４６ステーションビル竹川2階", "url": "https://www.kaigokensaku.mhlw.go.jp/19/index.php?action_kouhyou_detail_004_kani=true&JigyosyoCd=1970200075-00&ServiceCd=110&Type=search", "url2": null }, "geometry": { "type": "Point", "coordinates": [ 138.6851729, 35.6855873 ] } },
{ "type": "Feature", "properties": { "内容": "山梨市社会福祉協議会山梨訪問介護事業所【訪問介護】山梨県山梨市小原西1164-1", "url": "https://www.kaigokensaku.mhlw.go.jp/19/index.php?action_kouhyou_detail_004_kani=true&JigyosyoCd=1970200190-00&ServiceCd=110&Type=search", "url2": "http://www.yamanashi-shakyo.jp" }, "geometry": { "type": "Point", "coordinates": [ 138.689354, 35.6970021 ] } },
{ "type": "Feature", "properties": { "内容": "セントケア加納岩【訪問介護】山梨県山梨市上神内川１１７１－１ＴＩビル１階", "url": "https://www.kaigokensaku.mhlw.go.jp/19/index.php?action_kouhyou_detail_004_kani=true&JigyosyoCd=1970200281-00&ServiceCd=110&Type=search", "url2": null }, "geometry": { "type": "Point", "coordinates": [ 138.684389099999947, 35.688172 ] } },
{ "type": "Feature", "properties": { "内容": "ヘルパーステーションローズマリーの家【訪問介護】山梨県山梨市七日市場314-4", "url": "https://www.kaigokensaku.mhlw.go.jp/19/index.php?action_kouhyou_detail_004_kani=true&JigyosyoCd=1970200760-00&ServiceCd=110&Type=search", "url2": null }, "geometry": { "type": "Point", "coordinates": [ 138.701174855232239, 35.704796162628121 ] } },
{ "type": "Feature", "properties": { "内容": "ヘルパーステーション「花さき」【訪問介護】山梨県大月市大月町花咲１０番地", "url": "https://www.kaigokensaku.mhlw.go.jp/19/index.php?action_kouhyou_detail_004_kani=true&JigyosyoCd=1971400104-00&ServiceCd=110&Type=search", "url2": null }, "geometry": { "type": "Point", "coordinates": [ 138.927198299999986, 35.6045467 ] } },
{ "type": "Feature", "properties": { "内容": "かえでケアサービス【訪問介護】山梨県大月市猿橋町伊良原214", "url": "https://www.kaigokensaku.mhlw.go.jp/19/index.php?action_kouhyou_detail_004_kani=true&JigyosyoCd=1971400286-00&ServiceCd=110&Type=search", "url2": null }, "geometry": { "type": "Point", "coordinates": [ 138.9869503, 35.6138334 ] } },
{ "type": "Feature", "properties": { "内容": "介護サービス　ささご【訪問介護】山梨県大月市駒橋1－9－16", "url": "https://www.kaigokensaku.mhlw.go.jp/19/index.php?action_kouhyou_detail_004_kani=true&JigyosyoCd=1971400161-00&ServiceCd=110&Type=search", "url2": null }, "geometry": { "type": "Point", "coordinates": [ 138.949662699999976, 35.614074 ] } },
{ "type": "Feature", "properties": { "内容": "クローバーケアサービス【訪問介護】山梨県大月市御太刀２丁目８－８　ラ・グランメール２階", "url": "https://www.kaigokensaku.mhlw.go.jp/19/index.php?action_kouhyou_detail_004_kani=true&JigyosyoCd=1971400492-00&ServiceCd=110&Type=search", "url2": null }, "geometry": { "type": "Point", "coordinates": [ 138.9469918, 35.6161311 ] } },
{ "type": "Feature", "properties": { "内容": "福祉工房【訪問介護】山梨県大月市大月2丁目12-30塩谷ビル1F", "url": "https://www.kaigokensaku.mhlw.go.jp/19/index.php?action_kouhyou_detail_004_kani=true&JigyosyoCd=1971400195-00&ServiceCd=110&Type=search", "url2": null }, "geometry": { "type": "Point", "coordinates": [ 138.9324647, 35.6060085 ] } },
{ "type": "Feature", "properties": { "内容": "セントケア大月【訪問介護】山梨県大月市大月２丁目3-8", "url": "https://www.kaigokensaku.mhlw.go.jp/19/index.php?action_kouhyou_detail_004_kani=true&JigyosyoCd=1971400435-00&ServiceCd=110&Type=search", "url2": null }, "geometry": { "type": "Point", "coordinates": [ 138.939572798891191, 35.611773275385843 ] } },
{ "type": "Feature", "properties": { "内容": "アシストライフ【訪問介護】山梨県韮崎市旭町上條南割　296-4", "url": "https://www.kaigokensaku.mhlw.go.jp/19/index.php?action_kouhyou_detail_004_kani=true&JigyosyoCd=1970900385-00&ServiceCd=110&Type=search", "url2": null }, "geometry": { "type": "Point", "coordinates": [ 138.441272799999979, 35.6690551 ] } },
{ "type": "Feature", "properties": { "内容": "ひだまり訪問介護事業所【訪問介護】山梨県韮崎市旭町上條北割2757-1番地", "url": "https://www.kaigokensaku.mhlw.go.jp/19/index.php?action_kouhyou_detail_004_kani=true&JigyosyoCd=1970900096-00&ServiceCd=110&Type=search", "url2": "http://www.hidamarikaigo.infol" }, "geometry": { "type": "Point", "coordinates": [ 138.437341260188305, 35.691180523717875 ] } },
{ "type": "Feature", "properties": { "内容": "やさしい手　韮崎事業所【訪問介護】山梨県韮崎市藤井町南下條６４７－１", "url": "https://www.kaigokensaku.mhlw.go.jp/19/index.php?action_kouhyou_detail_004_kani=true&JigyosyoCd=1970900070-00&ServiceCd=110&Type=search", "url2": null }, "geometry": { "type": "Point", "coordinates": [ 138.44606239999996, 35.719093 ] } },
{ "type": "Feature", "properties": { "内容": "有限会社こすもす訪問介護事業所【訪問介護】山梨県韮崎市藤井町北下條2003-4", "url": "https://www.kaigokensaku.mhlw.go.jp/19/index.php?action_kouhyou_detail_004_kani=true&JigyosyoCd=1970900120-00&ServiceCd=110&Type=search", "url2": "http://daycosmos.web.fc2.com/" }, "geometry": { "type": "Point", "coordinates": [ 138.4421069, 35.726306 ] } },
{ "type": "Feature", "properties": { "内容": "ニチイケアセンター韮崎【訪問介護】本町2丁目13-1オズ1番館1階", "url": "https://www.kaigokensaku.mhlw.go.jp/19/index.php?action_kouhyou_detail_004_kani=true&JigyosyoCd=1970900492-00&ServiceCd=110&Type=search", "url2": "https://www.nichiigakkan.co.jp/" }, "geometry": { "type": "Point", "coordinates": [ 139.6778975, 35.694601 ] } },
{ "type": "Feature", "properties": { "内容": "有限会社ライフサポートなごみ【訪問介護】南アルプス市飯野3701-1　オギノテナントビル", "url": "https://www.kaigokensaku.mhlw.go.jp/19/index.php?action_kouhyou_detail_004_kani=true&JigyosyoCd=1971600463-00&ServiceCd=110&Type=search", "url2": null }, "geometry": { "type": "Point", "coordinates": [ 138.463112700000011, 35.6305187 ] } },
{ "type": "Feature", "properties": { "内容": "うえむら訪問介護事業所【訪問介護】山梨県南アルプス市小笠原365-2ハイツ52　201", "url": "https://www.kaigokensaku.mhlw.go.jp/19/index.php?action_kouhyou_detail_004_kani=true&JigyosyoCd=1971601511-00&ServiceCd=110&Type=search", "url2": null }, "geometry": { "type": "Point", "coordinates": [ 138.466254198147567, 35.611319068757659 ] } },
{ "type": "Feature", "properties": { "内容": "あおぞらヘルパーステーション【訪問介護】山梨県南アルプス市小笠原1164-1", "url": "https://www.kaigokensaku.mhlw.go.jp/19/index.php?action_kouhyou_detail_004_kani=true&JigyosyoCd=1971601032-00&ServiceCd=110&Type=search", "url2": "http://www.kazokuno.net/aozora/" }, "geometry": { "type": "Point", "coordinates": [ 138.4667987, 35.6126388 ] } },
{ "type": "Feature", "properties": { "内容": "楓　ケアサービス【訪問介護】山梨県南アルプス市徳永１番地４コーポラス勇１０２号室", "url": "https://www.kaigokensaku.mhlw.go.jp/19/index.php?action_kouhyou_detail_004_kani=true&JigyosyoCd=1971601271-00&ServiceCd=110&Type=search", "url2": "https://sinsinkabusikigaisya.wepage.com" }, "geometry": { "type": "Point", "coordinates": [ 138.493084700000054, 35.662798 ] } },
{ "type": "Feature", "properties": { "内容": "メディホス訪問介護中北【訪問介護】山梨県南アルプス市藤田1657-4", "url": "https://www.kaigokensaku.mhlw.go.jp/19/index.php?action_kouhyou_detail_004_kani=true&JigyosyoCd=1971601545-00&ServiceCd=110&Type=search", "url2": "https://medihos-minamialps.jp" }, "geometry": { "type": "Point", "coordinates": [ 138.494355479762277, 35.603173153444182 ] } },
{ "type": "Feature", "properties": { "内容": "やさしい手　南アルプス事業所【訪問介護】山梨県南アルプス市在家塚67-1ジョイハウスＥ号", "url": "https://www.kaigokensaku.mhlw.go.jp/19/index.php?action_kouhyou_detail_004_kani=true&JigyosyoCd=1970800783-00&ServiceCd=110&Type=search", "url2": null }, "geometry": { "type": "Point", "coordinates": [ 138.467286699999988, 35.63179310000001 ] } },
{ "type": "Feature", "properties": { "内容": "ニチイケアセンター南アルプス【訪問介護】山梨県南アルプス市小笠原351-1井上ビル1", "url": "https://www.kaigokensaku.mhlw.go.jp/19/index.php?action_kouhyou_detail_004_kani=true&JigyosyoCd=1971601453-00&ServiceCd=110&Type=search", "url2": null }, "geometry": { "type": "Point", "coordinates": [ 138.466486400000036, 35.6099195 ] } },
{ "type": "Feature", "properties": { "内容": "幸ケアサービス【訪問介護】南アルプス市寺部３３５－１", "url": "https://www.kaigokensaku.mhlw.go.jp/19/index.php?action_kouhyou_detail_004_kani=true&JigyosyoCd=1971600562-00&ServiceCd=110&Type=search", "url2": null }, "geometry": { "type": "Point", "coordinates": [ 138.487811805365709, 35.607259949943725 ] } },
{ "type": "Feature", "properties": { "内容": "訪問介護事業所　プードル【訪問介護】山梨県南アルプス市古市場595", "url": "https://www.kaigokensaku.mhlw.go.jp/19/index.php?action_kouhyou_detail_004_kani=true&JigyosyoCd=1971601594-00&ServiceCd=110&Type=search", "url2": null }, "geometry": { "type": "Point", "coordinates": [ 138.4670758, 35.5908372 ] } },
{ "type": "Feature", "properties": { "内容": "ひまわりヘルパーステーション【訪問介護】山梨県南アルプス市小笠原1084-1", "url": "https://www.kaigokensaku.mhlw.go.jp/19/index.php?action_kouhyou_detail_004_kani=true&JigyosyoCd=1971600794-00&ServiceCd=110&Type=search", "url2": "https://oujukai.jp/about/" }, "geometry": { "type": "Point", "coordinates": [ 138.461353300000013, 35.6171803 ] } },
{ "type": "Feature", "properties": { "内容": "南アルプス市社会福祉協議会訪問介護事業所【訪問介護】山梨県南アルプス市鏡中條1642-2", "url": "https://www.kaigokensaku.mhlw.go.jp/19/index.php?action_kouhyou_detail_004_kani=true&JigyosyoCd=1971600141-00&ServiceCd=110&Type=search", "url2": "https://www.minami-alpsshakyo.or.jp" }, "geometry": { "type": "Point", "coordinates": [ 138.495567859038943, 35.604975683907753 ] } },
{ "type": "Feature", "properties": { "内容": "ヘルパーステーション　ほくとのいえ【訪問介護】山梨県北杜市小淵沢町上笹尾3332-2560", "url": "https://www.kaigokensaku.mhlw.go.jp/19/index.php?action_kouhyou_detail_004_kani=true&JigyosyoCd=1971900517-00&ServiceCd=110&Type=search", "url2": null }, "geometry": { "type": "Point", "coordinates": [ 138.338243, 35.871209 ] } },
{ "type": "Feature", "properties": { "内容": "北杜市社会福祉協議会ヘルパーステーションなのはな【訪問介護】北杜市長坂町長坂上条2575-19", "url": "https://www.kaigokensaku.mhlw.go.jp/19/index.php?action_kouhyou_detail_004_kani=true&JigyosyoCd=1971900202-00&ServiceCd=110&Type=search", "url2": "www.hokuto-shakyo.jp" }, "geometry": { "type": "Point", "coordinates": [ 138.366311599999989, 35.826062 ] } },
{ "type": "Feature", "properties": { "内容": "訪問介護事業所ひまわり【訪問介護】山梨県北杜市須玉町東向2118", "url": "https://www.kaigokensaku.mhlw.go.jp/19/index.php?action_kouhyou_detail_004_kani=true&JigyosyoCd=1971900608-00&ServiceCd=110&Type=search", "url2": null }, "geometry": { "type": "Point", "coordinates": [ 138.4454326, 35.8087681 ] } },
{ "type": "Feature", "properties": { "内容": "やさしい手　北杜事業所【訪問介護】山梨県北杜市須玉町藤田７９９－１", "url": "https://www.kaigokensaku.mhlw.go.jp/19/index.php?action_kouhyou_detail_004_kani=true&JigyosyoCd=1971900251-00&ServiceCd=110&Type=search", "url2": null }, "geometry": { "type": "Point", "coordinates": [ 138.428194599999983, 35.7793633 ] } },
{ "type": "Feature", "properties": { "内容": "（有）ハピネスフレンドヘルパーステーション【訪問介護】山梨県甲斐市西八幡2297-7", "url": "https://www.kaigokensaku.mhlw.go.jp/19/index.php?action_kouhyou_detail_004_kani=true&JigyosyoCd=1970800452-00&ServiceCd=110&Type=search", "url2": null }, "geometry": { "type": "Point", "coordinates": [ 138.519176799999968, 35.6409541 ] } },
{ "type": "Feature", "properties": { "内容": "赤坂台ヘルパーステーション【訪問介護】山梨県甲斐市竜王新町2150", "url": "https://www.kaigokensaku.mhlw.go.jp/19/index.php?action_kouhyou_detail_004_kani=true&JigyosyoCd=1961790019-00&ServiceCd=110&Type=search", "url2": "http://akasakadai.com/" }, "geometry": { "type": "Point", "coordinates": [ 138.507588, 35.6782511 ] } },
{ "type": "Feature", "properties": { "内容": "ケア信玄【訪問介護】山梨県甲斐市西八幡2122サービス付き高齢者向け住宅シェール西八幡", "url": "https://www.kaigokensaku.mhlw.go.jp/19/index.php?action_kouhyou_detail_004_kani=true&JigyosyoCd=1971700990-00&ServiceCd=110&Type=search", "url2": null }, "geometry": { "type": "Point", "coordinates": [ 138.5223569, 35.6386997 ] } },
{ "type": "Feature", "properties": { "内容": "ニチイケアセンター甲斐【訪問介護】山梨県甲斐市篠原1659", "url": "https://www.kaigokensaku.mhlw.go.jp/19/index.php?action_kouhyou_detail_004_kani=true&JigyosyoCd=1970800593-00&ServiceCd=110&Type=search", "url2": "http://www.nichiigakkan.co.jp/" }, "geometry": { "type": "Point", "coordinates": [ 138.524304300000011, 35.6503347 ] } },
{ "type": "Feature", "properties": { "内容": "サンクシアヘルパーステーション【訪問介護】西八幡637", "url": "https://www.kaigokensaku.mhlw.go.jp/19/index.php?action_kouhyou_detail_004_kani=true&JigyosyoCd=1971700917-00&ServiceCd=110&Type=search", "url2": "https://www.big-advance.site/c/158/1334/profile" }, "geometry": { "type": "Point", "coordinates": [ 138.513949273523423, 35.651948761841084 ] } },
{ "type": "Feature", "properties": { "内容": "やさしい手　甲斐事業所【訪問介護】山梨県甲斐市篠原２１７３－６", "url": "https://www.kaigokensaku.mhlw.go.jp/19/index.php?action_kouhyou_detail_004_kani=true&JigyosyoCd=1971700180-00&ServiceCd=110&Type=search", "url2": null }, "geometry": { "type": "Point", "coordinates": [ 138.515810099999953, 35.655382500000016 ] } },
{ "type": "Feature", "properties": { "内容": "セントケア甲斐【訪問介護】山梨県甲斐市長塚242-4ｺﾝﾌｫｰﾄﾋﾟｱEQ1-103", "url": "https://www.kaigokensaku.mhlw.go.jp/19/index.php?action_kouhyou_detail_004_kani=true&JigyosyoCd=1971700982-00&ServiceCd=110&Type=search", "url2": null }, "geometry": { "type": "Point", "coordinates": [ 138.5346289, 35.673606 ] } },
{ "type": "Feature", "properties": { "内容": "訪問介護事業所　紬生【訪問介護】西八幡33001-7", "url": "https://www.kaigokensaku.mhlw.go.jp/19/index.php?action_kouhyou_detail_004_kani=true&JigyosyoCd=1971701139-00&ServiceCd=110&Type=search", "url2": null }, "geometry": { "type": "Point", "coordinates": [ 138.513107673892023, 35.644410126302127 ] } },
{ "type": "Feature", "properties": { "内容": "ヘルパーセンター　敷島荘【訪問介護】山梨県甲斐市大久保1357", "url": "https://www.kaigokensaku.mhlw.go.jp/19/index.php?action_kouhyou_detail_004_kani=true&JigyosyoCd=1970800221-00&ServiceCd=110&Type=search", "url2": "shikishimasou.net" }, "geometry": { "type": "Point", "coordinates": [ 138.51551520000001, 35.6933547 ] } },
{ "type": "Feature", "properties": { "内容": "ヘルパーステーション　上機嫌【訪問介護】山梨県甲斐市下今井2977ハイブリッドホーム　上機嫌", "url": "https://www.kaigokensaku.mhlw.go.jp/19/index.php?action_kouhyou_detail_004_kani=true&JigyosyoCd=1971700669-00&ServiceCd=110&Type=search", "url2": "http://www.jo-kigen.jp/" }, "geometry": { "type": "Point", "coordinates": [ 138.501155700000027, 35.6753881 ] } },
{ "type": "Feature", "properties": { "内容": "訪問介護　和【訪問介護】西八幡1196", "url": "https://www.kaigokensaku.mhlw.go.jp/19/index.php?action_kouhyou_detail_004_kani=true&JigyosyoCd=1971701097-00&ServiceCd=110&Type=search", "url2": "https://goudoukaisyanagomi9.webnode.jp" }, "geometry": { "type": "Point", "coordinates": [ 138.5232604, 35.6436831 ] } },
{ "type": "Feature", "properties": { "内容": "へるぱーすてーしょんこころね【訪問介護】山梨県甲斐市富竹新田970-3", "url": "https://www.kaigokensaku.mhlw.go.jp/19/index.php?action_kouhyou_detail_004_kani=true&JigyosyoCd=1971700834-00&ServiceCd=110&Type=search", "url2": "https://cocoroneissin.co.jp/" }, "geometry": { "type": "Point", "coordinates": [ 138.5287854, 35.6594777 ] } },
{ "type": "Feature", "properties": { "内容": "すけっと【訪問介護】山梨県甲斐市西八幡1777", "url": "https://www.kaigokensaku.mhlw.go.jp/19/index.php?action_kouhyou_detail_004_kani=true&JigyosyoCd=1971700065-00&ServiceCd=110&Type=search", "url2": null }, "geometry": { "type": "Point", "coordinates": [ 138.5260434, 35.6471072 ] } },
{ "type": "Feature", "properties": { "内容": "ヘルパーステーション　オリオン【訪問介護】山梨県笛吹市八代町南679-2", "url": "https://www.kaigokensaku.mhlw.go.jp/19/index.php?action_kouhyou_detail_004_kani=true&JigyosyoCd=1971800691-00&ServiceCd=110&Type=search", "url2": null }, "geometry": { "type": "Point", "coordinates": [ 138.637373200000013, 35.6138133 ] } },
{ "type": "Feature", "properties": { "内容": "訪問介護事業所エバーグリーン【訪問介護】山梨県笛吹市春日居町国府271-6", "url": "https://www.kaigokensaku.mhlw.go.jp/19/index.php?action_kouhyou_detail_004_kani=true&JigyosyoCd=1971801517-00&ServiceCd=110&Type=search", "url2": "http://www.evergreen-yamanashi.com" }, "geometry": { "type": "Point", "coordinates": [ 138.6529032, 35.6612423 ] } },
{ "type": "Feature", "properties": { "内容": "ヘルパーステーションコスモ笛吹【訪問介護】山梨県笛吹市石和町四日市場1647プラネットマンション1F", "url": "https://www.kaigokensaku.mhlw.go.jp/19/index.php?action_kouhyou_detail_004_kani=true&JigyosyoCd=1971801509-00&ServiceCd=110&Type=search", "url2": "http://ikiikiclub.com" }, "geometry": { "type": "Point", "coordinates": [ 138.62998, 35.6446919 ] } },
{ "type": "Feature", "properties": { "内容": "アクア笛吹訪問介護【訪問介護】山梨県笛吹市石和町八田490-15", "url": "https://www.kaigokensaku.mhlw.go.jp/19/index.php?action_kouhyou_detail_004_kani=true&JigyosyoCd=1971801541-00&ServiceCd=110&Type=search", "url2": null }, "geometry": { "type": "Point", "coordinates": [ 138.642353500000013, 35.6561708 ] } },
{ "type": "Feature", "properties": { "内容": "やさしい手　笛吹事業所【訪問介護】山梨県笛吹市一宮町小城300-1", "url": "https://www.kaigokensaku.mhlw.go.jp/19/index.php?action_kouhyou_detail_004_kani=true&JigyosyoCd=1970500532-00&ServiceCd=110&Type=search", "url2": null }, "geometry": { "type": "Point", "coordinates": [ 138.691803400000026, 35.6586671 ] } },
{ "type": "Feature", "properties": { "内容": "ヘルパーステーションほほえみ【訪問介護】山梨県笛吹市石和町広瀬781", "url": "https://www.kaigokensaku.mhlw.go.jp/19/index.php?action_kouhyou_detail_004_kani=true&JigyosyoCd=1971801392-00&ServiceCd=110&Type=search", "url2": "https://ykf.or.jp" }, "geometry": { "type": "Point", "coordinates": [ 138.621669815547449, 35.642023627360295 ] } },
{ "type": "Feature", "properties": { "内容": "笛吹市社会福祉協議会　訪問介護事業所【訪問介護】山梨県笛吹市八代町南917", "url": "https://www.kaigokensaku.mhlw.go.jp/19/index.php?action_kouhyou_detail_004_kani=true&JigyosyoCd=1971800352-00&ServiceCd=110&Type=search", "url2": "http://www.fuefuki-shakyo.or.jp/" }, "geometry": { "type": "Point", "coordinates": [ 138.6413157, 35.6174434 ] } },
{ "type": "Feature", "properties": { "内容": "応援家族石和温泉リゾート訪問介護事業所【訪問介護】山梨県笛吹市石和町川中島467-1応援家族石和温泉リゾート", "url": "https://www.kaigokensaku.mhlw.go.jp/19/index.php?action_kouhyou_detail_004_kani=true&JigyosyoCd=1971801244-00&ServiceCd=110&Type=search", "url2": "https://www.kinoshita-kaigo.co.jp/facility/housing_types/support-family_isawa-spa-resort.html" }, "geometry": { "type": "Point", "coordinates": [ 138.6468515, 35.657121 ] } },
{ "type": "Feature", "properties": { "内容": "ヘルパーステーション光珠【訪問介護】山梨県笛吹市御坂町上黒駒2964", "url": "https://www.kaigokensaku.mhlw.go.jp/19/index.php?action_kouhyou_detail_004_kani=true&JigyosyoCd=1971801525-00&ServiceCd=110&Type=search", "url2": "http://www.kojyu.or.jp/" }, "geometry": { "type": "Point", "coordinates": [ 138.705749744844013, 35.607578350842275 ] } },
{ "type": "Feature", "properties": { "内容": "介護センターパートナー【訪問介護】山梨県笛吹市石和町四日市場27-3", "url": "https://www.kaigokensaku.mhlw.go.jp/19/index.php?action_kouhyou_detail_004_kani=true&JigyosyoCd=1971800519-00&ServiceCd=110&Type=search", "url2": "https://naiki-kaigo.com/" }, "geometry": { "type": "Point", "coordinates": [ 138.635539899999969, 35.6433184 ] } },
{ "type": "Feature", "properties": { "内容": "訪問介護ステーションももの里【訪問介護】山梨県笛吹市石和町川中島1199-3", "url": "https://www.kaigokensaku.mhlw.go.jp/19/index.php?action_kouhyou_detail_004_kani=true&JigyosyoCd=1971801483-00&ServiceCd=110&Type=search", "url2": "momonosato.ichiro@outlook.jp" }, "geometry": { "type": "Point", "coordinates": [ 138.660086699999965, 35.6567248 ] } },
{ "type": "Feature", "properties": { "内容": "ファミーユ【訪問介護】春日居町鎮目714-1", "url": "https://www.kaigokensaku.mhlw.go.jp/19/index.php?action_kouhyou_detail_004_kani=true&JigyosyoCd=1971800626-00&ServiceCd=110&Type=search", "url2": null }, "geometry": { "type": "Point", "coordinates": [ 138.642366537534372, 35.663658531849968 ] } },
{ "type": "Feature", "properties": { "内容": "甲州訪問介護ステーション【訪問介護】山梨県石和町四日市場2031", "url": "https://www.kaigokensaku.mhlw.go.jp/19/index.php?action_kouhyou_detail_004_kani=true&JigyosyoCd=1971800634-00&ServiceCd=110&Type=search", "url2": "https://www.krg.ne.jp/care/" }, "geometry": { "type": "Point", "coordinates": [ 138.62619385106504, 35.645622654238792 ] } },
{ "type": "Feature", "properties": { "内容": "はなぶさ介護保険タクシー株式会社【訪問介護】山梨県上野原市桑久保864", "url": "https://www.kaigokensaku.mhlw.go.jp/19/index.php?action_kouhyou_detail_004_kani=true&JigyosyoCd=1972000127-00&ServiceCd=110&Type=search", "url2": null }, "geometry": { "type": "Point", "coordinates": [ 139.065916, 35.6410036 ] } },
{ "type": "Feature", "properties": { "内容": "指定訪問介護サービス　あお葉【訪問介護】山梨県上野原市上野原7380-2", "url": "https://www.kaigokensaku.mhlw.go.jp/19/index.php?action_kouhyou_detail_004_kani=true&JigyosyoCd=1972000192-00&ServiceCd=110&Type=search", "url2": null }, "geometry": { "type": "Point", "coordinates": [ 139.121331700000013, 35.6474564 ] } },
{ "type": "Feature", "properties": { "内容": "山なしこあら　指定訪問介護事業所【訪問介護】山梨県上野原市鶴島589-4", "url": "https://www.kaigokensaku.mhlw.go.jp/19/index.php?action_kouhyou_detail_004_kani=true&JigyosyoCd=1972000317-00&ServiceCd=110&Type=search", "url2": null }, "geometry": { "type": "Point", "coordinates": [ 139.12394230000001, 35.6116618 ] } },
{ "type": "Feature", "properties": { "内容": "ケアステーションにんじん・上野原【訪問介護】山梨県上野原市上野原522", "url": "https://www.kaigokensaku.mhlw.go.jp/19/index.php?action_kouhyou_detail_004_kani=true&JigyosyoCd=1971500150-00&ServiceCd=110&Type=search", "url2": "http://www.ninjin.or.jp/" }, "geometry": { "type": "Point", "coordinates": [ 139.11884572911373, 35.623641989520905 ] } },
{ "type": "Feature", "properties": { "内容": "ケアサービスポッケの会【訪問介護】山梨県上野原市上野原２０３７－１", "url": "https://www.kaigokensaku.mhlw.go.jp/19/index.php?action_kouhyou_detail_004_kani=true&JigyosyoCd=1972000150-00&ServiceCd=110&Type=search", "url2": null }, "geometry": { "type": "Point", "coordinates": [ 139.113024699999983, 35.6278908 ] } },
{ "type": "Feature", "properties": { "内容": "訪問介護ライフアップ【訪問介護】山梨県甲州市塩山上井尻1415-2", "url": "https://www.kaigokensaku.mhlw.go.jp/19/index.php?action_kouhyou_detail_004_kani=true&JigyosyoCd=1972200354-00&ServiceCd=110&Type=search", "url2": "http://hp.kaipoke.biz/95a/" }, "geometry": { "type": "Point", "coordinates": [ 138.717897363090515, 35.715252644183863 ] } },
{ "type": "Feature", "properties": { "内容": "光風園訪問介護事業所【訪問介護】山梨県甲州市塩山西野原603番地", "url": "https://www.kaigokensaku.mhlw.go.jp/19/index.php?action_kouhyou_detail_004_kani=true&JigyosyoCd=1972200362-00&ServiceCd=110&Type=search", "url2": "http://www.koufuukai-yamanashi.or.jp/" }, "geometry": { "type": "Point", "coordinates": [ 138.7361642, 35.6891737 ] } },
{ "type": "Feature", "properties": { "内容": "やさしい手　甲州事業所【訪問介護】山梨県甲州市勝沼町山１１１０－１", "url": "https://www.kaigokensaku.mhlw.go.jp/19/index.php?action_kouhyou_detail_004_kani=true&JigyosyoCd=1970400162-00&ServiceCd=110&Type=search", "url2": null }, "geometry": { "type": "Point", "coordinates": [ 138.7253859, 35.6815074 ] } },
{ "type": "Feature", "properties": { "内容": "甲州市社会福祉協議会訪問介護事業所【訪問介護】山梨県甲州市勝沼町休息1867番地2勝沼健康福祉センター内", "url": "https://www.kaigokensaku.mhlw.go.jp/19/index.php?action_kouhyou_detail_004_kani=true&JigyosyoCd=1972200032-00&ServiceCd=110&Type=search", "url2": "http://wwwkoshushishakyo.or.jp" }, "geometry": { "type": "Point", "coordinates": [ 138.720614100000034, 35.6773216 ] } },
{ "type": "Feature", "properties": { "内容": "有限会社　オギハラ介護サービス【訪問介護】山梨県甲州市塩山上塩後1210", "url": "https://www.kaigokensaku.mhlw.go.jp/19/index.php?action_kouhyou_detail_004_kani=true&JigyosyoCd=1970300057-00&ServiceCd=110&Type=search", "url2": "http://ogihara-kaigo.com" }, "geometry": { "type": "Point", "coordinates": [ 138.7140659, 35.7045014 ] } },
{ "type": "Feature", "properties": { "内容": "ケアサポート美来【訪問介護】山梨県中央市成島3507番地8", "url": "https://www.kaigokensaku.mhlw.go.jp/19/index.php?action_kouhyou_detail_004_kani=true&JigyosyoCd=1972300360-00&ServiceCd=110&Type=search", "url2": null }, "geometry": { "type": "Point", "coordinates": [ 138.543505158895499, 35.610104483198846 ] } },
{ "type": "Feature", "properties": { "内容": "社会福祉法人　市川三郷町社会福祉協議会訪問介護事業所【訪問介護】山梨県西八代郡市川三郷町市川大門４１６番地", "url": "https://www.kaigokensaku.mhlw.go.jp/19/index.php?action_kouhyou_detail_004_kani=true&JigyosyoCd=1970600282-00&ServiceCd=110&Type=search", "url2": "http://www.im-shakyo.sakura.ne.jp" }, "geometry": { "type": "Point", "coordinates": [ 138.4928621, 35.5599756 ] } },
{ "type": "Feature", "properties": { "内容": "市川訪問介護ステーション【訪問介護】山梨県西八代郡市川三郷町高田518番地1", "url": "https://www.kaigokensaku.mhlw.go.jp/19/index.php?action_kouhyou_detail_004_kani=true&JigyosyoCd=1970600548-00&ServiceCd=110&Type=search", "url2": null }, "geometry": { "type": "Point", "coordinates": [ 138.49012, 35.556437 ] } },
{ "type": "Feature", "properties": { "内容": "早川町社会福祉協議会訪問介護事業所【訪問介護】山梨県南巨摩郡早川町草塩８８番地", "url": "https://www.kaigokensaku.mhlw.go.jp/19/index.php?action_kouhyou_detail_004_kani=true&JigyosyoCd=1970701387-00&ServiceCd=110&Type=search", "url2": "https://h-syakyo.com" }, "geometry": { "type": "Point", "coordinates": [ 138.34182050000004, 35.4280008 ] } },
{ "type": "Feature", "properties": { "内容": "身延町社会福祉協議会　指定訪問介護事業所【訪問介護】山梨県南巨摩郡身延町波木井272-1", "url": "https://www.kaigokensaku.mhlw.go.jp/19/index.php?action_kouhyou_detail_004_kani=true&JigyosyoCd=1970700553-00&ServiceCd=110&Type=search", "url2": "www.minobushakyo.jp" }, "geometry": { "type": "Point", "coordinates": [ 138.444937100000061, 35.3723702 ] } },
{ "type": "Feature", "properties": { "内容": "ヘルパーステーションいいとみ【訪問介護】山梨県南巨摩郡身延町飯富１６２８", "url": "https://www.kaigokensaku.mhlw.go.jp/19/index.php?action_kouhyou_detail_004_kani=true&JigyosyoCd=1960790028-00&ServiceCd=110&Type=search", "url2": "http://www6.ocn.ne.jp/~iitomi/" }, "geometry": { "type": "Point", "coordinates": [ 138.4378994, 35.4354226 ] } },
{ "type": "Feature", "properties": { "内容": "福祉ネットスマイル【訪問介護】山梨県南巨摩郡身延町身延３６３７番地", "url": "https://www.kaigokensaku.mhlw.go.jp/19/index.php?action_kouhyou_detail_004_kani=true&JigyosyoCd=1970700496-00&ServiceCd=110&Type=search", "url2": null }, "geometry": { "type": "Point", "coordinates": [ 138.421917400000012, 35.3796221 ] } },
{ "type": "Feature", "properties": { "内容": "ヘルパーステーションさつき【訪問介護】山梨県南巨摩郡南部町福士2688-3", "url": "https://www.kaigokensaku.mhlw.go.jp/19/index.php?action_kouhyou_detail_004_kani=true&JigyosyoCd=1970700405-00&ServiceCd=110&Type=search", "url2": "http://www/fujikoseikai.or.jp" }, "geometry": { "type": "Point", "coordinates": [ 138.4822792, 35.2421346 ] } },
{ "type": "Feature", "properties": { "内容": "やさしい手　富士川事業所【訪問介護】山梨県南巨摩郡富士川町大椚264-1", "url": "https://www.kaigokensaku.mhlw.go.jp/19/index.php?action_kouhyou_detail_004_kani=true&JigyosyoCd=1970700322-00&ServiceCd=110&Type=search", "url2": null }, "geometry": { "type": "Point", "coordinates": [ 138.470114130606078, 35.565566153033842 ] } },
{ "type": "Feature", "properties": { "内容": "株式会社ヒューマンサービス山梨【訪問介護】山梨県南巨摩郡富士川町長沢６８７番地２", "url": "https://www.kaigokensaku.mhlw.go.jp/19/index.php?action_kouhyou_detail_004_kani=true&JigyosyoCd=1970700082-00&ServiceCd=110&Type=search", "url2": "http://care-net.biz/19/human/" }, "geometry": { "type": "Point", "coordinates": [ 138.467763399999967, 35.5719241 ] } },
{ "type": "Feature", "properties": { "内容": "ぽっかぽか【訪問介護】山梨県南巨摩郡富士川町大椚267－1", "url": "https://www.kaigokensaku.mhlw.go.jp/19/index.php?action_kouhyou_detail_004_kani=true&JigyosyoCd=1970700959-00&ServiceCd=110&Type=search", "url2": null }, "geometry": { "type": "Point", "coordinates": [ 138.4703948, 35.5654355 ] } },
{ "type": "Feature", "properties": { "内容": "ニチイケアセンター甲府昭和【訪問介護】山梨県中巨摩郡昭和町飯喰895-1", "url": "https://www.kaigokensaku.mhlw.go.jp/19/index.php?action_kouhyou_detail_004_kani=true&JigyosyoCd=1970801252-00&ServiceCd=110&Type=search", "url2": null }, "geometry": { "type": "Point", "coordinates": [ 138.522386200000028, 35.6220682 ] } },
{ "type": "Feature", "properties": { "内容": "訪問介護ゆらぎ【訪問介護】山梨県中巨摩郡昭和町押越1700", "url": "https://www.kaigokensaku.mhlw.go.jp/19/index.php?action_kouhyou_detail_004_kani=true&JigyosyoCd=1970801278-00&ServiceCd=110&Type=search", "url2": null }, "geometry": { "type": "Point", "coordinates": [ 138.540735799999965, 35.6280925 ] } },
{ "type": "Feature", "properties": { "内容": "ヘルパーステーション「どうし」【訪問介護】山梨県南都留郡道志村9334番地", "url": "https://www.kaigokensaku.mhlw.go.jp/19/index.php?action_kouhyou_detail_004_kani=true&JigyosyoCd=1971300965-00&ServiceCd=110&Type=search", "url2": "https://doshimura-shakyo.com" }, "geometry": { "type": "Point", "coordinates": [ 138.994009439742939, 35.506663594617685 ] } },
{ "type": "Feature", "properties": { "内容": "西桂地域福祉事業所　ばいかも【訪問介護】山梨県南都留郡西桂町下暮地915-7", "url": "https://www.kaigokensaku.mhlw.go.jp/19/index.php?action_kouhyou_detail_004_kani=true&JigyosyoCd=1971300783-00&ServiceCd=110&Type=search", "url2": null }, "geometry": { "type": "Point", "coordinates": [ 138.842914, 35.5236907 ] } },
{ "type": "Feature", "properties": { "内容": "忍野村訪問介護事業所【訪問介護】山梨県南都留郡忍野村忍草１４４５－１番地", "url": "https://www.kaigokensaku.mhlw.go.jp/19/index.php?action_kouhyou_detail_004_kani=true&JigyosyoCd=1971300593-00&ServiceCd=110&Type=search", "url2": "https://oshino-syakyo.cms.ne.jp/" }, "geometry": { "type": "Point", "coordinates": [ 138.84745190000001, 35.4584231 ] } },
{ "type": "Feature", "properties": { "内容": "メディホス訪問介護河口湖【訪問介護】山梨県南都留郡鳴沢村2357-1", "url": "https://www.kaigokensaku.mhlw.go.jp/19/index.php?action_kouhyou_detail_004_kani=true&JigyosyoCd=1971300908-00&ServiceCd=110&Type=search", "url2": "https://medihos-kawaguchiko.jp/" }, "geometry": { "type": "Point", "coordinates": [ 138.71567490000001, 35.4858182 ] } },
{ "type": "Feature", "properties": { "内容": "ニチイケアセンター富士河口湖【訪問介護】山梨県南都留郡富士河口湖町河口2746-1", "url": "https://www.kaigokensaku.mhlw.go.jp/19/index.php?action_kouhyou_detail_004_kani=true&JigyosyoCd=1971300841-00&ServiceCd=110&Type=search", "url2": null }, "geometry": { "type": "Point", "coordinates": [ 138.772253699999965, 35.5194607 ] } },
{ "type": "Feature", "properties": { "内容": "はまなす訪問介護センター【訪問介護】南都留郡富士河口湖町船津６８８７", "url": "https://www.kaigokensaku.mhlw.go.jp/19/index.php?action_kouhyou_detail_004_kani=true&JigyosyoCd=1971300619-00&ServiceCd=110&Type=search", "url2": null }, "geometry": { "type": "Point", "coordinates": [ 138.7607855, 35.4912589 ] } },
{ "type": "Feature", "properties": { "内容": "ライフサポートすばる【訪問介護】山梨県南都留郡富士河口湖町河口2870パークハイツワカサ１０５号", "url": "https://www.kaigokensaku.mhlw.go.jp/19/index.php?action_kouhyou_detail_004_kani=true&JigyosyoCd=1971300817-00&ServiceCd=110&Type=search", "url2": "https://lifesupport-subaru.com" }, "geometry": { "type": "Point", "coordinates": [ 138.775228200000043, 35.524091399999989 ] } },
{ "type": "Feature", "properties": { "内容": "訪問介護事業所ほの字船津【訪問介護】山梨県南都留郡富士河口湖町船津7415-1-1F", "url": "https://www.kaigokensaku.mhlw.go.jp/19/index.php?action_kouhyou_detail_004_kani=true&JigyosyoCd=1971300916-00&ServiceCd=110&Type=search", "url2": null }, "geometry": { "type": "Point", "coordinates": [ 138.763191873541274, 35.488124270773845 ] } },
{ "type": "Feature", "properties": { "内容": "訪問介護事業所ひまわり【訪問介護】山梨県南都留郡富士河口湖町小立1538.3号室", "url": "https://www.kaigokensaku.mhlw.go.jp/19/index.php?action_kouhyou_detail_004_kani=true&JigyosyoCd=1971300825-00&ServiceCd=110&Type=search", "url2": null }, "geometry": { "type": "Point", "coordinates": [ 138.756348438359026, 35.506555031328865 ] } },
{ "type": "Feature", "properties": { "内容": "セントケア河口湖【訪問介護】山梨県南都留郡富士河口湖町船津２０９１－２　Ｓビル１階Ａ号", "url": "https://www.kaigokensaku.mhlw.go.jp/19/index.php?action_kouhyou_detail_004_kani=true&JigyosyoCd=1971300494-00&ServiceCd=110&Type=search", "url2": null }, "geometry": { "type": "Point", "coordinates": [ 138.763327600000025, 35.4944726 ] } },
{ "type": "Feature", "properties": { "内容": "訪問介護サービスらいふケア【訪問介護】山梨県南都留郡富士河口湖町小立456訪問介護サービスらいふケア", "url": "https://www.kaigokensaku.mhlw.go.jp/19/index.php?action_kouhyou_detail_004_kani=true&JigyosyoCd=1971300726-00&ServiceCd=110&Type=search", "url2": null }, "geometry": { "type": "Point", "coordinates": [ 138.749735581753527, 35.511266698986837 ] } }
]
}
