{
"type": "FeatureCollection",
"name": "geo_19_地域密着型通所介護",
"crs": { "type": "name", "properties": { "name": "urn:ogc:def:crs:OGC:1.3:CRS84" } },
"features": [
{ "type": "Feature", "properties": { "内容": "リハビリスタジオあさかわ【地域密着型通所介護】山梨県甲府市上石田4-1-18一瀬グランドパレ", "url": "https://www.kaigokensaku.mhlw.go.jp/19/index.php?action_kouhyou_detail_004_kani=true&JigyosyoCd=1970104194-00&ServiceCd=780&Type=search", "url2": "http://www.kofu-asakawa.com/" }, "geometry": { "type": "Point", "coordinates": [ 138.550634400000035, 35.6505642 ] } },
{ "type": "Feature", "properties": { "内容": "リハビリスタジオあさかわ　湯村スタジオ【地域密着型通所介護】山梨県甲府市千塚1丁目9番8号第二ヤマカワビル", "url": "https://www.kaigokensaku.mhlw.go.jp/19/index.php?action_kouhyou_detail_004_kani=true&JigyosyoCd=1990100537-00&ServiceCd=780&Type=search", "url2": "http://www.kofu-asakawa.com/" }, "geometry": { "type": "Point", "coordinates": [ 138.544181, 35.6809768 ] } },
{ "type": "Feature", "properties": { "内容": "ショート＆デイサービスセンター「桜森荘」【地域密着型通所介護】山梨県甲府市上石田1-3-14", "url": "https://www.kaigokensaku.mhlw.go.jp/19/index.php?action_kouhyou_detail_004_kani=true&JigyosyoCd=1970103345-00&ServiceCd=780&Type=search", "url2": "http://oumorisou.jp/" }, "geometry": { "type": "Point", "coordinates": [ 138.552292201852396, 35.659154482828669 ] } },
{ "type": "Feature", "properties": { "内容": "デイサービス　ほのか【地域密着型通所介護】山梨県甲府市小瀬町573-2", "url": "https://www.kaigokensaku.mhlw.go.jp/19/index.php?action_kouhyou_detail_004_kani=true&JigyosyoCd=1970102032-00&ServiceCd=780&Type=search", "url2": null }, "geometry": { "type": "Point", "coordinates": [ 138.583024199999954, 35.627409900000011 ] } },
{ "type": "Feature", "properties": { "内容": "憩いホーム緑町【地域密着型通所介護】若松町4-15", "url": "https://www.kaigokensaku.mhlw.go.jp/19/index.php?action_kouhyou_detail_004_kani=true&JigyosyoCd=1970103352-00&ServiceCd=780&Type=search", "url2": null }, "geometry": { "type": "Point", "coordinates": [ 138.570722441188764, 35.656571625212528 ] } },
{ "type": "Feature", "properties": { "内容": "ほっとるーむｋ【地域密着型通所介護】国母２－８－２", "url": "https://www.kaigokensaku.mhlw.go.jp/19/index.php?action_kouhyou_detail_004_kani=true&JigyosyoCd=1970104053-00&ServiceCd=780&Type=search", "url2": null }, "geometry": { "type": "Point", "coordinates": [ 138.562835299999961, 35.6401139 ] } },
{ "type": "Feature", "properties": { "内容": "医療法人正寿会　デイサービス倖せ【地域密着型通所介護】城東4丁目２－２３医療法人正寿会　デイサービス倖せ", "url": "https://www.kaigokensaku.mhlw.go.jp/19/index.php?action_kouhyou_detail_004_kani=true&JigyosyoCd=1970102289-00&ServiceCd=780&Type=search", "url2": null }, "geometry": { "type": "Point", "coordinates": [ 138.584503700000027, 35.6579684 ] } },
{ "type": "Feature", "properties": { "内容": "フォーリーブス甲府【地域密着型通所介護】山梨県甲府市東下条町107番地フォーリーブス甲府", "url": "https://www.kaigokensaku.mhlw.go.jp/19/index.php?action_kouhyou_detail_004_kani=true&JigyosyoCd=1970104129-00&ServiceCd=780&Type=search", "url2": "http://yotsuba-k.or.jp/" }, "geometry": { "type": "Point", "coordinates": [ 138.574508700000024, 35.6126674 ] } },
{ "type": "Feature", "properties": { "内容": "株式会社栄光【地域密着型通所介護】徳行1-3-22", "url": "https://www.kaigokensaku.mhlw.go.jp/19/index.php?action_kouhyou_detail_004_kani=true&JigyosyoCd=1970103543-00&ServiceCd=780&Type=search", "url2": null }, "geometry": { "type": "Point", "coordinates": [ 138.546326300000032, 35.6547859 ] } },
{ "type": "Feature", "properties": { "内容": "地域密着型通所介護「みっちゃん家」【地域密着型通所介護】山梨県甲府市中町145－1", "url": "https://www.kaigokensaku.mhlw.go.jp/19/index.php?action_kouhyou_detail_004_kani=true&JigyosyoCd=1990100800-00&ServiceCd=780&Type=search", "url2": null }, "geometry": { "type": "Point", "coordinates": [ 138.5732382, 35.6152565 ] } },
{ "type": "Feature", "properties": { "内容": "デイサービス　リハビリテーションこんね千塚【地域密着型通所介護】山梨県甲府市千塚３丁目１－４３", "url": "https://www.kaigokensaku.mhlw.go.jp/19/index.php?action_kouhyou_detail_004_kani=true&JigyosyoCd=1990100784-00&ServiceCd=780&Type=search", "url2": "https://www.rehaconne.com" }, "geometry": { "type": "Point", "coordinates": [ 138.5398659, 35.6815599 ] } },
{ "type": "Feature", "properties": { "内容": "通所介護「庵　雅楽」【地域密着型通所介護】山梨県甲府市中小河原町1608-1", "url": "https://www.kaigokensaku.mhlw.go.jp/19/index.php?action_kouhyou_detail_004_kani=true&JigyosyoCd=1970104343-00&ServiceCd=780&Type=search", "url2": "koharubi-kaigo.com" }, "geometry": { "type": "Point", "coordinates": [ 138.56900870000004, 35.630659 ] } },
{ "type": "Feature", "properties": { "内容": "社会福祉法人旭寿会【地域密着型通所介護】山梨県甲府市堀之内町8-1あけぼのディサービスセンター", "url": "https://www.kaigokensaku.mhlw.go.jp/19/index.php?action_kouhyou_detail_004_kani=true&JigyosyoCd=1970101588-00&ServiceCd=780&Type=search", "url2": "http://www.akebono-kofu.com/" }, "geometry": { "type": "Point", "coordinates": [ 138.586420600000054, 35.6299197 ] } },
{ "type": "Feature", "properties": { "内容": "株式会社　日医調剤　デイサービスけやきの郷【地域密着型通所介護】山梨県甲府市上町1866番地3", "url": "https://www.kaigokensaku.mhlw.go.jp/19/index.php?action_kouhyou_detail_004_kani=true&JigyosyoCd=1990100958-00&ServiceCd=780&Type=search", "url2": "www.nichiiko-yamanashi.co.jp" }, "geometry": { "type": "Point", "coordinates": [ 138.5850318, 35.6308126 ] } },
{ "type": "Feature", "properties": { "内容": "あかしＪＯＹデイサービス【地域密着型通所介護】住吉本町１４０７番地", "url": "https://www.kaigokensaku.mhlw.go.jp/19/index.php?action_kouhyou_detail_004_kani=true&JigyosyoCd=1970103832-00&ServiceCd=780&Type=search", "url2": "http://www.akashi.or.jp" }, "geometry": { "type": "Point", "coordinates": [ 138.5865847, 35.6373307 ] } },
{ "type": "Feature", "properties": { "内容": "機能訓練型デイサロン　リーベンモア【地域密着型通所介護】山梨県甲府市愛宕町３３", "url": "https://www.kaigokensaku.mhlw.go.jp/19/index.php?action_kouhyou_detail_004_kani=true&JigyosyoCd=1970104475-00&ServiceCd=780&Type=search", "url2": "http://www.lieben.me.more/" }, "geometry": { "type": "Point", "coordinates": [ 138.574522699999989, 35.669084900000023 ] } },
{ "type": "Feature", "properties": { "内容": "ハートデイサービス大国【地域密着型通所介護】山梨県甲府市後屋町40-1", "url": "https://www.kaigokensaku.mhlw.go.jp/19/index.php?action_kouhyou_detail_004_kani=true&JigyosyoCd=1970103501-00&ServiceCd=780&Type=search", "url2": "http://heart-service.co.jp/" }, "geometry": { "type": "Point", "coordinates": [ 138.563626, 35.6269899 ] } },
{ "type": "Feature", "properties": { "内容": "ハートデイサービス湯村【地域密着型通所介護】山梨県甲府市湯村3-18-12", "url": "https://www.kaigokensaku.mhlw.go.jp/19/index.php?action_kouhyou_detail_004_kani=true&JigyosyoCd=1990100925-00&ServiceCd=780&Type=search", "url2": "http://heart-service.co.jp/" }, "geometry": { "type": "Point", "coordinates": [ 138.5469023, 35.6844339 ] } },
{ "type": "Feature", "properties": { "内容": "ケア・コスモス【地域密着型通所介護】山梨県甲府市増坪町457-1", "url": "https://www.kaigokensaku.mhlw.go.jp/19/index.php?action_kouhyou_detail_004_kani=true&JigyosyoCd=1970103253-00&ServiceCd=780&Type=search", "url2": "http://carecosmos.jp" }, "geometry": { "type": "Point", "coordinates": [ 138.5933868, 35.6368396 ] } },
{ "type": "Feature", "properties": { "内容": "デイサービスやすらぎの家【地域密着型通所介護】山梨県甲府市丸の内二丁目１１－１", "url": "https://www.kaigokensaku.mhlw.go.jp/19/index.php?action_kouhyou_detail_004_kani=true&JigyosyoCd=1970104624-00&ServiceCd=780&Type=search", "url2": null }, "geometry": { "type": "Point", "coordinates": [ 138.564882200000056, 35.6654378 ] } },
{ "type": "Feature", "properties": { "内容": "フィットネスデイサービス　にこにこ【地域密着型通所介護】上今井町763-3", "url": "https://www.kaigokensaku.mhlw.go.jp/19/index.php?action_kouhyou_detail_004_kani=true&JigyosyoCd=1990100693-00&ServiceCd=780&Type=search", "url2": "https://www.fir.gr.jpnikoniko" }, "geometry": { "type": "Point", "coordinates": [ 138.572113699999989, 35.6246974 ] } },
{ "type": "Feature", "properties": { "内容": "アルファケア南甲府介護施設【地域密着型通所介護】山梨県甲府市南口町２番７号", "url": "https://www.kaigokensaku.mhlw.go.jp/19/index.php?action_kouhyou_detail_004_kani=true&JigyosyoCd=1990101014-00&ServiceCd=780&Type=search", "url2": "https://www.alphacare.joto-group.com" }, "geometry": { "type": "Point", "coordinates": [ 138.579977, 35.6467658 ] } },
{ "type": "Feature", "properties": { "内容": "つぼみ茶屋【地域密着型通所介護】山梨県甲府市上今井町1498-3", "url": "https://www.kaigokensaku.mhlw.go.jp/19/index.php?action_kouhyou_detail_004_kani=true&JigyosyoCd=1990100974-00&ServiceCd=780&Type=search", "url2": null }, "geometry": { "type": "Point", "coordinates": [ 138.575037400000014, 35.6194509 ] } },
{ "type": "Feature", "properties": { "内容": "憩いホーム　湯田の里【地域密着型通所介護】甲府市幸町15-10", "url": "https://www.kaigokensaku.mhlw.go.jp/19/index.php?action_kouhyou_detail_004_kani=true&JigyosyoCd=1990101048-00&ServiceCd=780&Type=search", "url2": "https://shoju.or.jp/" }, "geometry": { "type": "Point", "coordinates": [ 138.5720254, 35.645783 ] } },
{ "type": "Feature", "properties": { "内容": "甲府市中道デイサービスセンター【地域密着型通所介護】甲府市下向山町９１０", "url": "https://www.kaigokensaku.mhlw.go.jp/19/index.php?action_kouhyou_detail_004_kani=true&JigyosyoCd=1970102081-00&ServiceCd=780&Type=search", "url2": "http://www.kofu-syakyo.or.jp/zaitaku/tusyo.htm" }, "geometry": { "type": "Point", "coordinates": [ 138.586400700000013, 35.5854028 ] } },
{ "type": "Feature", "properties": { "内容": "山梨県甲府市宝二丁目12番16号【地域密着型通所介護】山梨県甲府市宝二丁目12番16号", "url": "https://www.kaigokensaku.mhlw.go.jp/19/index.php?action_kouhyou_detail_004_kani=true&JigyosyoCd=1990101071-00&ServiceCd=780&Type=search", "url2": null }, "geometry": { "type": "Point", "coordinates": [ 138.559683, 35.661634399999983 ] } },
{ "type": "Feature", "properties": { "内容": "ソーシャルデイひと花【地域密着型通所介護】城東5丁目10-11", "url": "https://www.kaigokensaku.mhlw.go.jp/19/index.php?action_kouhyou_detail_004_kani=true&JigyosyoCd=1990100883-00&ServiceCd=780&Type=search", "url2": null }, "geometry": { "type": "Point", "coordinates": [ 140.4991073, 36.3777774 ] } },
{ "type": "Feature", "properties": { "内容": "山梨ＹＭＣＡデイサービスセンターオリーブの木【地域密着型通所介護】山梨県甲府市中央３丁目１０－７", "url": "https://www.kaigokensaku.mhlw.go.jp/19/index.php?action_kouhyou_detail_004_kani=true&JigyosyoCd=1990100834-00&ServiceCd=780&Type=search", "url2": "https://yamanashi-ymca-olive.jimdosite.com/" }, "geometry": { "type": "Point", "coordinates": [ 138.575772999336209, 35.662003401183163 ] } },
{ "type": "Feature", "properties": { "内容": "リハビリスタジオあさかわ　貢川スタジオ【地域密着型通所介護】山梨県甲府市貢川本町1-6", "url": "https://www.kaigokensaku.mhlw.go.jp/19/index.php?action_kouhyou_detail_004_kani=true&JigyosyoCd=1990100818-00&ServiceCd=780&Type=search", "url2": "http://www.kofu-asakawa.com/" }, "geometry": { "type": "Point", "coordinates": [ 138.552907794369133, 35.655256194587366 ] } },
{ "type": "Feature", "properties": { "内容": "甲州デイサービスセンターきぼう甲府南事業所【地域密着型通所介護】山梨県甲府市高畑1丁目22-14", "url": "https://www.kaigokensaku.mhlw.go.jp/19/index.php?action_kouhyou_detail_004_kani=true&JigyosyoCd=1990100826-00&ServiceCd=780&Type=search", "url2": "https://www.krg.ne.jp/care/" }, "geometry": { "type": "Point", "coordinates": [ 138.562864599999983, 35.6493768 ] } },
{ "type": "Feature", "properties": { "内容": "甲州デイサービスセンターきぼう甲府中央事業所【地域密着型通所介護】山梨県甲府市中央2丁目10-8シマヅビル１階", "url": "https://www.kaigokensaku.mhlw.go.jp/19/index.php?action_kouhyou_detail_004_kani=true&JigyosyoCd=1990100727-00&ServiceCd=780&Type=search", "url2": "https://www.krg.ne.jp/care/" }, "geometry": { "type": "Point", "coordinates": [ 138.573512199999982, 35.661996 ] } },
{ "type": "Feature", "properties": { "内容": "デイサービス　にこにこ　One　day【地域密着型通所介護】住吉３丁目22-2", "url": "https://www.kaigokensaku.mhlw.go.jp/19/index.php?action_kouhyou_detail_004_kani=true&JigyosyoCd=1990101089-00&ServiceCd=780&Type=search", "url2": "https://gep-kh.com" }, "geometry": { "type": "Point", "coordinates": [ 138.582489258895521, 35.641573248296929 ] } },
{ "type": "Feature", "properties": { "内容": "オアゾＳやましろデイサービスセンター【地域密着型通所介護】山梨県甲府市上町９１６－２", "url": "https://www.kaigokensaku.mhlw.go.jp/19/index.php?action_kouhyou_detail_004_kani=true&JigyosyoCd=1970103964-00&ServiceCd=780&Type=search", "url2": "http://fuurinsou.com" }, "geometry": { "type": "Point", "coordinates": [ 138.593534299999988, 35.6290514 ] } },
{ "type": "Feature", "properties": { "内容": "リハビリ型デイサービス　森の子【地域密着型通所介護】宝２丁目22-6", "url": "https://www.kaigokensaku.mhlw.go.jp/19/index.php?action_kouhyou_detail_004_kani=true&JigyosyoCd=1990100719-00&ServiceCd=780&Type=search", "url2": null }, "geometry": { "type": "Point", "coordinates": [ 138.5615132, 35.6600001 ] } },
{ "type": "Feature", "properties": { "内容": "レコードブック甲府貢川【地域密着型通所介護】貢川本町4-26ビブレ21　西館1F", "url": "https://www.kaigokensaku.mhlw.go.jp/19/index.php?action_kouhyou_detail_004_kani=true&JigyosyoCd=1990100594-00&ServiceCd=780&Type=search", "url2": "http://www.recordbook.jp/facility/koufukugawa/" }, "geometry": { "type": "Point", "coordinates": [ 138.5502861, 35.6554394 ] } },
{ "type": "Feature", "properties": { "内容": "みつばやあんき【地域密着型通所介護】山梨県甲府市宝２丁目１７番８号", "url": "https://www.kaigokensaku.mhlw.go.jp/19/index.php?action_kouhyou_detail_004_kani=true&JigyosyoCd=1970104673-00&ServiceCd=780&Type=search", "url2": "http://mitsubaya.wixsite.com/mitsubaya" }, "geometry": { "type": "Point", "coordinates": [ 138.561607699999968, 35.6604605 ] } },
{ "type": "Feature", "properties": { "内容": "かいのさと　いわくぼ【地域密着型通所介護】岩窪町83-4", "url": "https://www.kaigokensaku.mhlw.go.jp/19/index.php?action_kouhyou_detail_004_kani=true&JigyosyoCd=1990100701-00&ServiceCd=780&Type=search", "url2": "https://www.kainosato.com/" }, "geometry": { "type": "Point", "coordinates": [ 138.5817, 35.6822271 ] } },
{ "type": "Feature", "properties": { "内容": "さいデイサービスセンターこうふ【地域密着型通所介護】山梨県甲府市上阿原町５２６－７", "url": "https://www.kaigokensaku.mhlw.go.jp/19/index.php?action_kouhyou_detail_004_kani=true&JigyosyoCd=1990101055-00&ServiceCd=780&Type=search", "url2": null }, "geometry": { "type": "Point", "coordinates": [ 138.606615125794974, 35.644375766090299 ] } },
{ "type": "Feature", "properties": { "内容": "デイサービスセンター　輝【地域密着型通所介護】山梨県甲府市下石田２丁目７－１０サービス付高齢者住宅・志庵併設", "url": "https://www.kaigokensaku.mhlw.go.jp/19/index.php?action_kouhyou_detail_004_kani=true&JigyosyoCd=1970104111-00&ServiceCd=780&Type=search", "url2": null }, "geometry": { "type": "Point", "coordinates": [ 138.5531704, 35.647473 ] } },
{ "type": "Feature", "properties": { "内容": "デイサービスセンターレモンハート【地域密着型通所介護】山梨県甲府市千塚3丁目9番3号ルネマンション千塚103号", "url": "https://www.kaigokensaku.mhlw.go.jp/19/index.php?action_kouhyou_detail_004_kani=true&JigyosyoCd=1970104749-00&ServiceCd=780&Type=search", "url2": "http://www.kaigo-lemon-heart.com" }, "geometry": { "type": "Point", "coordinates": [ 138.538771399999973, 35.6836544 ] } },
{ "type": "Feature", "properties": { "内容": "デイサービスセンターレモンハート　リハビリテーションジャスミン【地域密着型通所介護】山梨県甲府市千塚3-9-13", "url": "https://www.kaigokensaku.mhlw.go.jp/19/index.php?action_kouhyou_detail_004_kani=true&JigyosyoCd=1990100933-00&ServiceCd=780&Type=search", "url2": "http://www.kaigo-lemon-heart.com" }, "geometry": { "type": "Point", "coordinates": [ 138.538956898811335, 35.684028018261237 ] } },
{ "type": "Feature", "properties": { "内容": "ＮＰＯ法人　デイサービスかんむら【地域密着型通所介護】山梨県甲府市上町177-1", "url": "https://www.kaigokensaku.mhlw.go.jp/19/index.php?action_kouhyou_detail_004_kani=true&JigyosyoCd=1970102891-00&ServiceCd=780&Type=search", "url2": "https://kanmura.or.jp/" }, "geometry": { "type": "Point", "coordinates": [ 138.584970453195069, 35.62919382406583 ] } },
{ "type": "Feature", "properties": { "内容": "郁の家甲府小瀬【地域密着型通所介護】山梨県甲府市小瀬町３７９－１", "url": "https://www.kaigokensaku.mhlw.go.jp/19/index.php?action_kouhyou_detail_004_kani=true&JigyosyoCd=1970103881-00&ServiceCd=780&Type=search", "url2": "http://www.39kaigo.jp" }, "geometry": { "type": "Point", "coordinates": [ 138.579777299999932, 35.6270515 ] } },
{ "type": "Feature", "properties": { "内容": "郁の家甲府中央【地域密着型通所介護】中央３－１０－２５", "url": "https://www.kaigokensaku.mhlw.go.jp/19/index.php?action_kouhyou_detail_004_kani=true&JigyosyoCd=1990100982-00&ServiceCd=780&Type=search", "url2": "m-alps2@39kaigo.jp" }, "geometry": { "type": "Point", "coordinates": [ 140.8769364, 38.2584326 ] } },
{ "type": "Feature", "properties": { "内容": "サテライト尚古園デイサービスセンター【地域密着型通所介護】山梨県甲府市中央1-16-2", "url": "https://www.kaigokensaku.mhlw.go.jp/19/index.php?action_kouhyou_detail_004_kani=true&JigyosyoCd=1970104061-00&ServiceCd=780&Type=search", "url2": "zenrinkai.or.jp" }, "geometry": { "type": "Point", "coordinates": [ 138.570021, 35.6591165 ] } },
{ "type": "Feature", "properties": { "内容": "デイサービあっとほーむ1号館【地域密着型通所介護】山梨県甲府市住吉4丁目20-15", "url": "https://www.kaigokensaku.mhlw.go.jp/19/index.php?action_kouhyou_detail_004_kani=true&JigyosyoCd=1970103162-00&ServiceCd=780&Type=search", "url2": "https://www.athome-kofu.com/" }, "geometry": { "type": "Point", "coordinates": [ 138.579896299999973, 35.6381332 ] } },
{ "type": "Feature", "properties": { "内容": "だんらんの家　山宮【地域密着型通所介護】山梨県甲府市山宮町3336", "url": "https://www.kaigokensaku.mhlw.go.jp/19/index.php?action_kouhyou_detail_004_kani=true&JigyosyoCd=1990100867-00&ServiceCd=780&Type=search", "url2": "https://danrannoie.com/home/shinyurigaoka.html" }, "geometry": { "type": "Point", "coordinates": [ 138.5376574, 35.6933447 ] } },
{ "type": "Feature", "properties": { "内容": "デイサービスあっとほーむ2号館【地域密着型通所介護】山梨県甲府市住吉4-20-15", "url": "https://www.kaigokensaku.mhlw.go.jp/19/index.php?action_kouhyou_detail_004_kani=true&JigyosyoCd=1970104236-00&ServiceCd=780&Type=search", "url2": "https://www.athome-kofu.com/" }, "geometry": { "type": "Point", "coordinates": [ 138.579896299999973, 35.6381332 ] } },
{ "type": "Feature", "properties": { "内容": "デイサービスあっとほーむ甲府伊勢【地域密着型通所介護】山梨県甲府市伊勢3丁目5-10", "url": "https://www.kaigokensaku.mhlw.go.jp/19/index.php?action_kouhyou_detail_004_kani=true&JigyosyoCd=1990100651-00&ServiceCd=780&Type=search", "url2": "https://www.athome-kofu.com/" }, "geometry": { "type": "Point", "coordinates": [ 138.565355599999947, 35.6435043 ] } },
{ "type": "Feature", "properties": { "内容": "デイサービスセンター「笑くぼ」【地域密着型通所介護】山梨県甲府市住吉3-21-16", "url": "https://www.kaigokensaku.mhlw.go.jp/19/index.php?action_kouhyou_detail_004_kani=true&JigyosyoCd=1970101612-00&ServiceCd=780&Type=search", "url2": "http://www.goodcare-kaigo.com/" }, "geometry": { "type": "Point", "coordinates": [ 138.581061200000022, 35.6402084 ] } },
{ "type": "Feature", "properties": { "内容": "デイサービスセンター「よつ葉」【地域密着型通所介護】山梨県甲府市東光寺2-19-29", "url": "https://www.kaigokensaku.mhlw.go.jp/19/index.php?action_kouhyou_detail_004_kani=true&JigyosyoCd=1970102065-00&ServiceCd=780&Type=search", "url2": "http://www.goodcare-kaigo.com/" }, "geometry": { "type": "Point", "coordinates": [ 138.5877858, 35.6623167 ] } },
{ "type": "Feature", "properties": { "内容": "なでしこの家【地域密着型通所介護】山梨県甲府市上今井町659-3", "url": "https://www.kaigokensaku.mhlw.go.jp/19/index.php?action_kouhyou_detail_004_kani=true&JigyosyoCd=1970102503-00&ServiceCd=780&Type=search", "url2": null }, "geometry": { "type": "Point", "coordinates": [ 138.5726124, 35.6257841 ] } },
{ "type": "Feature", "properties": { "内容": "デイサービスセンター「すみよし」【地域密着型通所介護】山梨県甲府市住吉5-21-1", "url": "https://www.kaigokensaku.mhlw.go.jp/19/index.php?action_kouhyou_detail_004_kani=true&JigyosyoCd=1970104350-00&ServiceCd=780&Type=search", "url2": "http://www.goodcare-kaigo.com/" }, "geometry": { "type": "Point", "coordinates": [ 138.576485700000035, 35.6343114 ] } },
{ "type": "Feature", "properties": { "内容": "デイサービスPeakAssistance甲府丸の内【地域密着型通所介護】山梨県甲府市丸の内2-35-9丸の内スクエア1F", "url": "https://www.kaigokensaku.mhlw.go.jp/19/index.php?action_kouhyou_detail_004_kani=true&JigyosyoCd=1990100685-00&ServiceCd=780&Type=search", "url2": "https://peak.3eee.co.jp/" }, "geometry": { "type": "Point", "coordinates": [ 138.5644777, 35.6624047 ] } },
{ "type": "Feature", "properties": { "内容": "デイサービス　ソレアード【地域密着型通所介護】山梨県甲府市貢川2丁目8-11", "url": "https://www.kaigokensaku.mhlw.go.jp/19/index.php?action_kouhyou_detail_004_kani=true&JigyosyoCd=1970103014-00&ServiceCd=780&Type=search", "url2": "https://www.day-soleado.com/" }, "geometry": { "type": "Point", "coordinates": [ 138.535377199999971, 35.6614181 ] } },
{ "type": "Feature", "properties": { "内容": "縁広場【地域密着型通所介護】山梨県甲府市下積翠寺町1534", "url": "https://www.kaigokensaku.mhlw.go.jp/19/index.php?action_kouhyou_detail_004_kani=true&JigyosyoCd=1970103428-00&ServiceCd=780&Type=search", "url2": null }, "geometry": { "type": "Point", "coordinates": [ 138.58399510000001, 35.691915700000045 ] } },
{ "type": "Feature", "properties": { "内容": "地域密着型デイサービスしおん【地域密着型通所介護】山梨県富士吉田市中曽根3－6－31", "url": "https://www.kaigokensaku.mhlw.go.jp/19/index.php?action_kouhyou_detail_004_kani=true&JigyosyoCd=1971200553-00&ServiceCd=780&Type=search", "url2": "http://wakatuki-shou.com/NewFolder" }, "geometry": { "type": "Point", "coordinates": [ 138.806419784655759, 35.482339424152862 ] } },
{ "type": "Feature", "properties": { "内容": "地域密着型デイサービス　めぐみ【地域密着型通所介護】山梨県富士吉田市上暮地4-15-11", "url": "https://www.kaigokensaku.mhlw.go.jp/19/index.php?action_kouhyou_detail_004_kani=true&JigyosyoCd=1991200245-00&ServiceCd=780&Type=search", "url2": null }, "geometry": { "type": "Point", "coordinates": [ 138.832147589024373, 35.516510875785066 ] } },
{ "type": "Feature", "properties": { "内容": "デイサービスセンターぽぷら・時乃家【地域密着型通所介護】山梨県富士吉田市中曽根1-8-24", "url": "https://www.kaigokensaku.mhlw.go.jp/19/index.php?action_kouhyou_detail_004_kani=true&JigyosyoCd=1971200066-00&ServiceCd=780&Type=search", "url2": null }, "geometry": { "type": "Point", "coordinates": [ 138.8012205, 35.485568700000023 ] } },
{ "type": "Feature", "properties": { "内容": "クローバーケアフィットネス【地域密着型通所介護】山梨県富士吉田市上暮地1-17-23", "url": "https://www.kaigokensaku.mhlw.go.jp/19/index.php?action_kouhyou_detail_004_kani=true&JigyosyoCd=1991200237-00&ServiceCd=780&Type=search", "url2": "https://clovercare.co.jp/" }, "geometry": { "type": "Point", "coordinates": [ 138.825440799999967, 35.5081838 ] } },
{ "type": "Feature", "properties": { "内容": "フィットネスサロンあおい【地域密着型通所介護】山梨県富士吉田市下吉田5-32-13", "url": "https://www.kaigokensaku.mhlw.go.jp/19/index.php?action_kouhyou_detail_004_kani=true&JigyosyoCd=1991200229-00&ServiceCd=780&Type=search", "url2": "https://jsp.co.jp/facility/fs-aoi/" }, "geometry": { "type": "Point", "coordinates": [ 138.8053435, 35.4853842 ] } },
{ "type": "Feature", "properties": { "内容": "フィットネスサロン粋【地域密着型通所介護】山梨県富士吉田市上吉田2-17", "url": "https://www.kaigokensaku.mhlw.go.jp/19/index.php?action_kouhyou_detail_004_kani=true&JigyosyoCd=1991200203-00&ServiceCd=780&Type=search", "url2": "https://jsp.co.jp/" }, "geometry": { "type": "Point", "coordinates": [ 138.793629401407969, 35.473779005381004 ] } },
{ "type": "Feature", "properties": { "内容": "デイサービスあかふじ【地域密着型通所介護】上吉田東１－１－３２", "url": "https://www.kaigokensaku.mhlw.go.jp/19/index.php?action_kouhyou_detail_004_kani=true&JigyosyoCd=1971200496-00&ServiceCd=780&Type=search", "url2": "https://jsp.co.jp/about/" }, "geometry": { "type": "Point", "coordinates": [ 138.8020256, 35.4740921 ] } },
{ "type": "Feature", "properties": { "内容": "デイサービス愛歩里【地域密着型通所介護】山梨県富士吉田市富士見1-3-8", "url": "https://www.kaigokensaku.mhlw.go.jp/19/index.php?action_kouhyou_detail_004_kani=true&JigyosyoCd=1971200629-00&ServiceCd=780&Type=search", "url2": null }, "geometry": { "type": "Point", "coordinates": [ 138.808565, 35.4965653 ] } },
{ "type": "Feature", "properties": { "内容": "デイサービスセンター慶和荘【地域密着型通所介護】山梨県富士吉田市上吉田字熊穴4584", "url": "https://www.kaigokensaku.mhlw.go.jp/19/index.php?action_kouhyou_detail_004_kani=true&JigyosyoCd=1971200306-00&ServiceCd=780&Type=search", "url2": "http://www.mswc.or.jp" }, "geometry": { "type": "Point", "coordinates": [ 138.776184591201712, 35.471993158548514 ] } },
{ "type": "Feature", "properties": { "内容": "優しい時間夏狩【地域密着型通所介護】山梨県都留市夏狩２１１７番地5", "url": "https://www.kaigokensaku.mhlw.go.jp/19/index.php?action_kouhyou_detail_004_kani=true&JigyosyoCd=1971100258-00&ServiceCd=780&Type=search", "url2": "http://www.heisei294.org" }, "geometry": { "type": "Point", "coordinates": [ 138.8733019, 35.5413253 ] } },
{ "type": "Feature", "properties": { "内容": "よこぶきデイ【地域密着型通所介護】山梨県都留市川茂328-4", "url": "https://www.kaigokensaku.mhlw.go.jp/19/index.php?action_kouhyou_detail_004_kani=true&JigyosyoCd=1991100148-00&ServiceCd=780&Type=search", "url2": "http://www.yokobukiso.or.jp" }, "geometry": { "type": "Point", "coordinates": [ 138.9055266, 35.5516369 ] } },
{ "type": "Feature", "properties": { "内容": "れりーふ【地域密着型通所介護】玉川610-85", "url": "https://www.kaigokensaku.mhlw.go.jp/19/index.php?action_kouhyou_detail_004_kani=true&JigyosyoCd=1971100357-00&ServiceCd=780&Type=search", "url2": null }, "geometry": { "type": "Point", "coordinates": [ 139.626083, 35.6125332 ] } },
{ "type": "Feature", "properties": { "内容": "フィットネスサロンはる【地域密着型通所介護】山梨県都留市田原1-3-3", "url": "https://www.kaigokensaku.mhlw.go.jp/19/index.php?action_kouhyou_detail_004_kani=true&JigyosyoCd=1991100189-00&ServiceCd=780&Type=search", "url2": "https://jsp.co.jp" }, "geometry": { "type": "Point", "coordinates": [ 138.8965557, 35.543477 ] } },
{ "type": "Feature", "properties": { "内容": "フィットネスサロンあいる【地域密着型通所介護】山梨県都留市田野倉546-1", "url": "https://www.kaigokensaku.mhlw.go.jp/19/index.php?action_kouhyou_detail_004_kani=true&JigyosyoCd=1991100130-00&ServiceCd=780&Type=search", "url2": "https://jsp.co.jp" }, "geometry": { "type": "Point", "coordinates": [ 138.9293944, 35.5955162 ] } },
{ "type": "Feature", "properties": { "内容": "デイサービスこわた【地域密着型通所介護】山梨県都留市鹿留2079‐1", "url": "https://www.kaigokensaku.mhlw.go.jp/19/index.php?action_kouhyou_detail_004_kani=true&JigyosyoCd=1971100266-00&ServiceCd=780&Type=search", "url2": "www.jsp.co.jp" }, "geometry": { "type": "Point", "coordinates": [ 138.878035, 35.5317514 ] } },
{ "type": "Feature", "properties": { "内容": "デイサービスリアン【地域密着型通所介護】山梨県山梨市七日市場710-1コミュニティサポートリアン", "url": "https://www.kaigokensaku.mhlw.go.jp/19/index.php?action_kouhyou_detail_004_kani=true&JigyosyoCd=1970200638-00&ServiceCd=780&Type=search", "url2": "http://www.fruits.jp/~jyukokai/" }, "geometry": { "type": "Point", "coordinates": [ 138.699420700000019, 35.6999872 ] } },
{ "type": "Feature", "properties": { "内容": "ﾘﾊﾋﾞﾘいろどり【地域密着型通所介護】山梨県山梨市七日市場245-1", "url": "https://www.kaigokensaku.mhlw.go.jp/19/index.php?action_kouhyou_detail_004_kani=true&JigyosyoCd=1990200154-00&ServiceCd=780&Type=search", "url2": null }, "geometry": { "type": "Point", "coordinates": [ 138.7001263, 35.7053221 ] } },
{ "type": "Feature", "properties": { "内容": "デイサービス　あさひ【地域密着型通所介護】山梨県山梨市万力726-3", "url": "https://www.kaigokensaku.mhlw.go.jp/19/index.php?action_kouhyou_detail_004_kani=true&JigyosyoCd=1970200497-00&ServiceCd=780&Type=search", "url2": "r.goope.jp/sr-19-192051s0096" }, "geometry": { "type": "Point", "coordinates": [ 138.669987399999968, 35.6897459 ] } },
{ "type": "Feature", "properties": { "内容": "デイサービスセンターローズマリーの家【地域密着型通所介護】山梨県山梨市七日市場３１４番地４", "url": "https://www.kaigokensaku.mhlw.go.jp/19/index.php?action_kouhyou_detail_004_kani=true&JigyosyoCd=1990200097-00&ServiceCd=780&Type=search", "url2": "https://anjubirdsong.wixsite.com/rosemary-home" }, "geometry": { "type": "Point", "coordinates": [ 138.701182899999964, 35.704730500000011 ] } },
{ "type": "Feature", "properties": { "内容": "デイサービス日和【地域密着型通所介護】山梨県山梨市南1006-5", "url": "https://www.kaigokensaku.mhlw.go.jp/19/index.php?action_kouhyou_detail_004_kani=true&JigyosyoCd=1970200489-00&ServiceCd=780&Type=search", "url2": null }, "geometry": { "type": "Point", "coordinates": [ 138.688969, 35.7001707 ] } },
{ "type": "Feature", "properties": { "内容": "いきがいフィットネス【地域密着型通所介護】山梨県大月市猿橋町桂台1-100-1", "url": "https://www.kaigokensaku.mhlw.go.jp/19/index.php?action_kouhyou_detail_004_kani=true&JigyosyoCd=1991400092-00&ServiceCd=780&Type=search", "url2": "www.heisei294.org" }, "geometry": { "type": "Point", "coordinates": [ 138.968940239286809, 35.608786484001456 ] } },
{ "type": "Feature", "properties": { "内容": "デイサービスセンター「ハッピーサークル」【地域密着型通所介護】山梨県大月市七保町葛野１５７４番地２", "url": "https://www.kaigokensaku.mhlw.go.jp/19/index.php?action_kouhyou_detail_004_kani=true&JigyosyoCd=1971400567-00&ServiceCd=780&Type=search", "url2": null }, "geometry": { "type": "Point", "coordinates": [ 138.957694700000047, 35.6297446 ] } },
{ "type": "Feature", "properties": { "内容": "大月富士見苑【地域密着型通所介護】大月町真木４６６０番地", "url": "https://www.kaigokensaku.mhlw.go.jp/19/index.php?action_kouhyou_detail_004_kani=true&JigyosyoCd=1991400068-00&ServiceCd=780&Type=search", "url2": "https://www.heisei294.org" }, "geometry": { "type": "Point", "coordinates": [ 138.906628100000034, 35.6188681 ] } },
{ "type": "Feature", "properties": { "内容": "とりどりのとまり木BLGおおつき【地域密着型通所介護】山梨県大月市富浜町鳥沢3392", "url": "https://www.kaigokensaku.mhlw.go.jp/19/index.php?action_kouhyou_detail_004_kani=true&JigyosyoCd=1991400126-00&ServiceCd=780&Type=search", "url2": "goodwillsmilellc.jimdosite.com" }, "geometry": { "type": "Point", "coordinates": [ 139.0130474, 35.604367138909318 ] } },
{ "type": "Feature", "properties": { "内容": "デイサービス　リハビリテーションこんね藤井【地域密着型通所介護】山梨県韮崎市藤井町駒井２６５８－１-", "url": "https://www.kaigokensaku.mhlw.go.jp/19/index.php?action_kouhyou_detail_004_kani=true&JigyosyoCd=1970900328-00&ServiceCd=780&Type=search", "url2": "https://www.rehaconne.com" }, "geometry": { "type": "Point", "coordinates": [ 138.4469785, 35.7318553 ] } },
{ "type": "Feature", "properties": { "内容": "有限会社ひだまり【地域密着型通所介護】山梨県韮崎市旭町上条北割2757-1", "url": "https://www.kaigokensaku.mhlw.go.jp/19/index.php?action_kouhyou_detail_004_kani=true&JigyosyoCd=1970900039-00&ServiceCd=780&Type=search", "url2": "http://www.hidamarikaigo.info" }, "geometry": { "type": "Point", "coordinates": [ 138.437275100663783, 35.691183727350477 ] } },
{ "type": "Feature", "properties": { "内容": "リハビリサロンフルリール【地域密着型通所介護】山梨県韮崎市一ツ谷1596-1", "url": "https://www.kaigokensaku.mhlw.go.jp/19/index.php?action_kouhyou_detail_004_kani=true&JigyosyoCd=1990900134-00&ServiceCd=780&Type=search", "url2": "https://fluriru.flurirurehasalon.com/" }, "geometry": { "type": "Point", "coordinates": [ 138.4394796, 35.7150127 ] } },
{ "type": "Feature", "properties": { "内容": "デイサービスみかん【地域密着型通所介護】山梨県南アルプス市飯野３５９４", "url": "https://www.kaigokensaku.mhlw.go.jp/19/index.php?action_kouhyou_detail_004_kani=true&JigyosyoCd=1971600547-00&ServiceCd=780&Type=search", "url2": null }, "geometry": { "type": "Point", "coordinates": [ 138.464540199999988, 35.633671 ] } },
{ "type": "Feature", "properties": { "内容": "デイサービスお茶の間【地域密着型通所介護】山梨県南アルプス市上宮地251-1", "url": "https://www.kaigokensaku.mhlw.go.jp/19/index.php?action_kouhyou_detail_004_kani=true&JigyosyoCd=1971600539-00&ServiceCd=780&Type=search", "url2": null }, "geometry": { "type": "Point", "coordinates": [ 138.4475589, 35.6218422 ] } },
{ "type": "Feature", "properties": { "内容": "デイサービスすごろく【地域密着型通所介護】山梨県南アルプス市江原203-4", "url": "https://www.kaigokensaku.mhlw.go.jp/19/index.php?action_kouhyou_detail_004_kani=true&JigyosyoCd=1971600885-00&ServiceCd=780&Type=search", "url2": null }, "geometry": { "type": "Point", "coordinates": [ 138.475320799999963, 35.5998288 ] } },
{ "type": "Feature", "properties": { "内容": "南アルプスデイサービスセンターはしゅこ【地域密着型通所介護】在家塚1409", "url": "https://www.kaigokensaku.mhlw.go.jp/19/index.php?action_kouhyou_detail_004_kani=true&JigyosyoCd=1971601198-00&ServiceCd=780&Type=search", "url2": null }, "geometry": { "type": "Point", "coordinates": [ 138.471086799999966, 35.63990350000001 ] } },
{ "type": "Feature", "properties": { "内容": "デイサービス　あんず【地域密着型通所介護】山梨県南アルプス市曲輪田２６２０", "url": "https://www.kaigokensaku.mhlw.go.jp/19/index.php?action_kouhyou_detail_004_kani=true&JigyosyoCd=1971600588-00&ServiceCd=780&Type=search", "url2": null }, "geometry": { "type": "Point", "coordinates": [ 138.438243199999988, 35.6264859 ] } },
{ "type": "Feature", "properties": { "内容": "櫛形荘通所介護事業所【地域密着型通所介護】山梨県南アルプス市上宮地1408", "url": "https://www.kaigokensaku.mhlw.go.jp/19/index.php?action_kouhyou_detail_004_kani=true&JigyosyoCd=1970800478-00&ServiceCd=780&Type=search", "url2": "kushigatasou.coｍ" }, "geometry": { "type": "Point", "coordinates": [ 138.444051100000024, 35.6141961 ] } },
{ "type": "Feature", "properties": { "内容": "デイサービス在家塚福栄荘【地域密着型通所介護】山梨県南アルプス市在家塚603－1", "url": "https://www.kaigokensaku.mhlw.go.jp/19/index.php?action_kouhyou_detail_004_kani=true&JigyosyoCd=1971601040-00&ServiceCd=780&Type=search", "url2": "http://www.shiraneseimeikai.com/" }, "geometry": { "type": "Point", "coordinates": [ 138.4720896, 35.6385682 ] } },
{ "type": "Feature", "properties": { "内容": "デイサービス　にじ【地域密着型通所介護】山梨県南アルプス市曲輪田711-2", "url": "https://www.kaigokensaku.mhlw.go.jp/19/index.php?action_kouhyou_detail_004_kani=true&JigyosyoCd=1971600968-00&ServiceCd=780&Type=search", "url2": null }, "geometry": { "type": "Point", "coordinates": [ 138.450033399999938, 35.632571100000014 ] } },
{ "type": "Feature", "properties": { "内容": "ハートデイサービス　甲西【地域密着型通所介護】山梨県南アルプス市大師671番地2", "url": "https://www.kaigokensaku.mhlw.go.jp/19/index.php?action_kouhyou_detail_004_kani=true&JigyosyoCd=1991600246-00&ServiceCd=780&Type=search", "url2": "http://heart-service.co.jp/" }, "geometry": { "type": "Point", "coordinates": [ 138.466491, 35.586925 ] } },
{ "type": "Feature", "properties": { "内容": "寄りあいどころきらら【地域密着型通所介護】南アルプス市百々1329", "url": "https://www.kaigokensaku.mhlw.go.jp/19/index.php?action_kouhyou_detail_004_kani=true&JigyosyoCd=1971600455-00&ServiceCd=780&Type=search", "url2": null }, "geometry": { "type": "Point", "coordinates": [ 138.459825599999988, 35.657005 ] } },
{ "type": "Feature", "properties": { "内容": "デイサービスリハかのん若草【地域密着型通所介護】山梨県南アルプス市浅原240", "url": "https://www.kaigokensaku.mhlw.go.jp/19/index.php?action_kouhyou_detail_004_kani=true&JigyosyoCd=1971700420-00&ServiceCd=780&Type=search", "url2": "ｈｔｐｐ：//ｙｆｓ-kanon.com" }, "geometry": { "type": "Point", "coordinates": [ 138.501657300000034, 35.591494 ] } },
{ "type": "Feature", "properties": { "内容": "デイサービスリハかのん白根【地域密着型通所介護】南アルプス市飯野2954－１", "url": "https://www.kaigokensaku.mhlw.go.jp/19/index.php?action_kouhyou_detail_004_kani=true&JigyosyoCd=1991600188-00&ServiceCd=780&Type=search", "url2": "yfs-kanon.com" }, "geometry": { "type": "Point", "coordinates": [ 138.4603189, 35.6393449 ] } },
{ "type": "Feature", "properties": { "内容": "甲州デイサービスセンターきぼう南アルプス事業所【地域密着型通所介護】山梨県南アルプス市上今諏訪461-3", "url": "https://www.kaigokensaku.mhlw.go.jp/19/index.php?action_kouhyou_detail_004_kani=true&JigyosyoCd=1991600154-00&ServiceCd=780&Type=search", "url2": "https://www.krg.ne.jp/care/" }, "geometry": { "type": "Point", "coordinates": [ 138.501580399999966, 35.6371014 ] } },
{ "type": "Feature", "properties": { "内容": "アルプスデイサービス【地域密着型通所介護】飯野3453", "url": "https://www.kaigokensaku.mhlw.go.jp/19/index.php?action_kouhyou_detail_004_kani=true&JigyosyoCd=1971601107-00&ServiceCd=780&Type=search", "url2": null }, "geometry": { "type": "Point", "coordinates": [ 138.465192900000034, 35.6374427 ] } },
{ "type": "Feature", "properties": { "内容": "デイサービスとりじん【地域密着型通所介護】小笠原４９１", "url": "https://www.kaigokensaku.mhlw.go.jp/19/index.php?action_kouhyou_detail_004_kani=true&JigyosyoCd=1971601263-00&ServiceCd=780&Type=search", "url2": "http://hp.kaipoke.biz/426/" }, "geometry": { "type": "Point", "coordinates": [ 138.463385878037229, 35.611494525287995 ] } },
{ "type": "Feature", "properties": { "内容": "株式会社　やさしい手甲府　南アルプスデイサービスセンター【地域密着型通所介護】山梨県　南アルプス市　百々　3011-6", "url": "https://www.kaigokensaku.mhlw.go.jp/19/index.php?action_kouhyou_detail_004_kani=true&JigyosyoCd=1970800775-00&ServiceCd=780&Type=search", "url2": null }, "geometry": { "type": "Point", "coordinates": [ 138.464381799999956, 35.6550267 ] } },
{ "type": "Feature", "properties": { "内容": "郁の家南アルプス【地域密着型通所介護】山梨県南アルプス市藤田２６０７－２", "url": "https://www.kaigokensaku.mhlw.go.jp/19/index.php?action_kouhyou_detail_004_kani=true&JigyosyoCd=1971601164-00&ServiceCd=780&Type=search", "url2": "http://www.39kaigo.jp" }, "geometry": { "type": "Point", "coordinates": [ 138.5046873, 35.5964793 ] } },
{ "type": "Feature", "properties": { "内容": "また明日デイサービス【地域密着型通所介護】山梨県南アルプス市百々２３５５－１ハイツ２１", "url": "https://www.kaigokensaku.mhlw.go.jp/19/index.php?action_kouhyou_detail_004_kani=true&JigyosyoCd=1971600869-00&ServiceCd=780&Type=search", "url2": "https://www.mataasita.com/" }, "geometry": { "type": "Point", "coordinates": [ 138.4686921, 35.6586822 ] } },
{ "type": "Feature", "properties": { "内容": "リハビリ空間　ゆたか【地域密着型通所介護】山梨県南アルプス市飯野2937-1", "url": "https://www.kaigokensaku.mhlw.go.jp/19/index.php?action_kouhyou_detail_004_kani=true&JigyosyoCd=1991600212-00&ServiceCd=780&Type=search", "url2": "https://www.rihabili-yutaka.com/" }, "geometry": { "type": "Point", "coordinates": [ 138.460182300000014, 35.6402268 ] } },
{ "type": "Feature", "properties": { "内容": "デイサービスあゆみ指定通所介護事業所【地域密着型通所介護】山梨県南アルプス市有野3370番地1", "url": "https://www.kaigokensaku.mhlw.go.jp/19/index.php?action_kouhyou_detail_004_kani=true&JigyosyoCd=1971600729-00&ServiceCd=780&Type=search", "url2": "http://will-ayumi.com/" }, "geometry": { "type": "Point", "coordinates": [ 138.441738386508177, 35.661454460006368 ] } },
{ "type": "Feature", "properties": { "内容": "リハビリ特化型デイサービス　カラダラボ南アルプス【地域密着型通所介護】山梨県南アルプス市下宮地261", "url": "https://www.kaigokensaku.mhlw.go.jp/19/index.php?action_kouhyou_detail_004_kani=true&JigyosyoCd=1971601123-00&ServiceCd=780&Type=search", "url2": "https://www.karadalabo.com/" }, "geometry": { "type": "Point", "coordinates": [ 138.465176899999989, 35.6018076 ] } },
{ "type": "Feature", "properties": { "内容": "デイサービス花あかり【地域密着型通所介護】山梨県南アルプス市江原171-1", "url": "https://www.kaigokensaku.mhlw.go.jp/19/index.php?action_kouhyou_detail_004_kani=true&JigyosyoCd=1971600323-00&ServiceCd=780&Type=search", "url2": null }, "geometry": { "type": "Point", "coordinates": [ 138.47396319140168, 35.601456546933889 ] } },
{ "type": "Feature", "properties": { "内容": "よりあいどころ・ほくと・さくら苑【地域密着型通所介護】長坂町白井沢1172-19長坂町白井沢1172-19", "url": "https://www.kaigokensaku.mhlw.go.jp/19/index.php?action_kouhyou_detail_004_kani=true&JigyosyoCd=1971900350-00&ServiceCd=780&Type=search", "url2": "http：//www.fluriru.com" }, "geometry": { "type": "Point", "coordinates": [ 138.367455299999961, 35.8533665 ] } },
{ "type": "Feature", "properties": { "内容": "リハ特化半日デイるんるん【地域密着型通所介護】長坂町長坂上条435", "url": "https://www.kaigokensaku.mhlw.go.jp/19/index.php?action_kouhyou_detail_004_kani=true&JigyosyoCd=1991900158-00&ServiceCd=780&Type=search", "url2": "info@dandankai.com" }, "geometry": { "type": "Point", "coordinates": [ 138.3713774, 35.8210605 ] } },
{ "type": "Feature", "properties": { "内容": "デイサービスセンターふるさと敷島【地域密着型通所介護】山梨県甲斐市大下条425-1", "url": "https://www.kaigokensaku.mhlw.go.jp/19/index.php?action_kouhyou_detail_004_kani=true&JigyosyoCd=1971700362-00&ServiceCd=780&Type=search", "url2": null }, "geometry": { "type": "Point", "coordinates": [ 138.525536200000033, 35.672733 ] } },
{ "type": "Feature", "properties": { "内容": "合同会社　おれんじ【地域密着型通所介護】富竹新田９２－６", "url": "https://www.kaigokensaku.mhlw.go.jp/19/index.php?action_kouhyou_detail_004_kani=true&JigyosyoCd=1991700079-00&ServiceCd=780&Type=search", "url2": "orange_kaigo/net" }, "geometry": { "type": "Point", "coordinates": [ 138.530146629499768, 35.66151445698533 ] } },
{ "type": "Feature", "properties": { "内容": "あい下今井【地域密着型通所介護】山梨県甲斐市下今井2689番地3", "url": "https://www.kaigokensaku.mhlw.go.jp/19/index.php?action_kouhyou_detail_004_kani=true&JigyosyoCd=1971700586-00&ServiceCd=780&Type=search", "url2": null }, "geometry": { "type": "Point", "coordinates": [ 138.502797099999952, 35.6800042 ] } },
{ "type": "Feature", "properties": { "内容": "あい響が丘【地域密着型通所介護】山梨県甲斐市龍地3066番地1", "url": "https://www.kaigokensaku.mhlw.go.jp/19/index.php?action_kouhyou_detail_004_kani=true&JigyosyoCd=1971700594-00&ServiceCd=780&Type=search", "url2": null }, "geometry": { "type": "Point", "coordinates": [ 138.510351600000035, 35.6852369 ] } },
{ "type": "Feature", "properties": { "内容": "あい竜王丘【地域密着型通所介護】山梨県甲斐市西八幡869番地", "url": "https://www.kaigokensaku.mhlw.go.jp/19/index.php?action_kouhyou_detail_004_kani=true&JigyosyoCd=1971700735-00&ServiceCd=780&Type=search", "url2": null }, "geometry": { "type": "Point", "coordinates": [ 138.518846100000019, 35.6480586 ] } },
{ "type": "Feature", "properties": { "内容": "老人功労者　デイサービス　かおり【地域密着型通所介護】山梨県甲斐市竜王新町２０５７番地１２", "url": "https://www.kaigokensaku.mhlw.go.jp/19/index.php?action_kouhyou_detail_004_kani=true&JigyosyoCd=1971700172-00&ServiceCd=780&Type=search", "url2": null }, "geometry": { "type": "Point", "coordinates": [ 138.511226800000031, 35.6732161 ] } },
{ "type": "Feature", "properties": { "内容": "デイサービスリハかのん【地域密着型通所介護】山梨県甲斐市西八幡903", "url": "https://www.kaigokensaku.mhlw.go.jp/19/index.php?action_kouhyou_detail_004_kani=true&JigyosyoCd=1971700123-00&ServiceCd=780&Type=search", "url2": "http://yfs-kanon.com" }, "geometry": { "type": "Point", "coordinates": [ 138.517215599999986, 35.6491001 ] } },
{ "type": "Feature", "properties": { "内容": "リハビリサロン　げんき甲斐【地域密着型通所介護】大下条956-1", "url": "https://www.kaigokensaku.mhlw.go.jp/19/index.php?action_kouhyou_detail_004_kani=true&JigyosyoCd=1991700095-00&ServiceCd=780&Type=search", "url2": "https://nursing-agency-1608.business.site/" }, "geometry": { "type": "Point", "coordinates": [ 138.5226906, 35.675754 ] } },
{ "type": "Feature", "properties": { "内容": "デイサービスセンター　げんき甲斐【地域密着型通所介護】山梨県甲斐市大下条956-1げんき甲斐", "url": "https://www.kaigokensaku.mhlw.go.jp/19/index.php?action_kouhyou_detail_004_kani=true&JigyosyoCd=1971700305-00&ServiceCd=780&Type=search", "url2": "https://nursing-agency-1608.business.site/" }, "geometry": { "type": "Point", "coordinates": [ 138.522639300000037, 35.6757381 ] } },
{ "type": "Feature", "properties": { "内容": "デイサービス　リハビリテーションこんね中下条【地域密着型通所介護】山梨県甲斐市中下条１９２８－１", "url": "https://www.kaigokensaku.mhlw.go.jp/19/index.php?action_kouhyou_detail_004_kani=true&JigyosyoCd=1971700776-00&ServiceCd=780&Type=search", "url2": "https://www.rehaconne.com" }, "geometry": { "type": "Point", "coordinates": [ 138.533268635581976, 35.679022347537625 ] } },
{ "type": "Feature", "properties": { "内容": "デイサービスつくし乃【地域密着型通所介護】山梨県甲斐市岩森1392-2", "url": "https://www.kaigokensaku.mhlw.go.jp/19/index.php?action_kouhyou_detail_004_kani=true&JigyosyoCd=1991700202-00&ServiceCd=780&Type=search", "url2": "tsukushi-no.com" }, "geometry": { "type": "Point", "coordinates": [ 138.4898667, 35.6894853 ] } },
{ "type": "Feature", "properties": { "内容": "甲斐の家ゆい【地域密着型通所介護】山梨県甲斐市龍地4320番地3", "url": "https://www.kaigokensaku.mhlw.go.jp/19/index.php?action_kouhyou_detail_004_kani=true&JigyosyoCd=1971700529-00&ServiceCd=780&Type=search", "url2": null }, "geometry": { "type": "Point", "coordinates": [ 138.4995222, 35.6881032 ] } },
{ "type": "Feature", "properties": { "内容": "デイサービスセンターつづく【地域密着型通所介護】山梨県甲斐市万才218-1", "url": "https://www.kaigokensaku.mhlw.go.jp/19/index.php?action_kouhyou_detail_004_kani=true&JigyosyoCd=1991600196-00&ServiceCd=780&Type=search", "url2": null }, "geometry": { "type": "Point", "coordinates": [ 138.530875620615006, 35.645954348316366 ] } },
{ "type": "Feature", "properties": { "内容": "リハビリ道　甲斐事業所【地域密着型通所介護】山梨県甲斐市篠原845-1", "url": "https://www.kaigokensaku.mhlw.go.jp/19/index.php?action_kouhyou_detail_004_kani=true&JigyosyoCd=1991700194-00&ServiceCd=780&Type=search", "url2": "rehabilido.com" }, "geometry": { "type": "Point", "coordinates": [ 138.5267141, 35.6471024 ] } },
{ "type": "Feature", "properties": { "内容": "デイサービスセンターきたじま苑　お伊勢の杜【地域密着型通所介護】笛吹市八代町北字伊勢之宮1290－1", "url": "https://www.kaigokensaku.mhlw.go.jp/19/index.php?action_kouhyou_detail_004_kani=true&JigyosyoCd=1971800816-00&ServiceCd=780&Type=search", "url2": "kitajimaen.com" }, "geometry": { "type": "Point", "coordinates": [ 138.64359, 35.622562 ] } },
{ "type": "Feature", "properties": { "内容": "デイサービスセンターのぞみ【地域密着型通所介護】山梨県笛吹市石和町唐柏538-2", "url": "https://www.kaigokensaku.mhlw.go.jp/19/index.php?action_kouhyou_detail_004_kani=true&JigyosyoCd=1971800535-00&ServiceCd=780&Type=search", "url2": null }, "geometry": { "type": "Point", "coordinates": [ 138.614873900000021, 35.63467 ] } },
{ "type": "Feature", "properties": { "内容": "ファミーユ【地域密着型通所介護】笛吹市春日居町鎮目714-1", "url": "https://www.kaigokensaku.mhlw.go.jp/19/index.php?action_kouhyou_detail_004_kani=true&JigyosyoCd=1971800964-00&ServiceCd=780&Type=search", "url2": null }, "geometry": { "type": "Point", "coordinates": [ 138.6423787, 35.663646 ] } },
{ "type": "Feature", "properties": { "内容": "指定通所介護事業所　絆　森の上【地域密着型通所介護】山梨県笛吹市八代町南346-3高齢者生活支援施設　絆", "url": "https://www.kaigokensaku.mhlw.go.jp/19/index.php?action_kouhyou_detail_004_kani=true&JigyosyoCd=1991800218-00&ServiceCd=780&Type=search", "url2": "http://kizuna.social" }, "geometry": { "type": "Point", "coordinates": [ 138.645721399999957, 35.6147511 ] } },
{ "type": "Feature", "properties": { "内容": "かすがいの家【地域密着型通所介護】山梨県笛吹市春日居町小松1013", "url": "https://www.kaigokensaku.mhlw.go.jp/19/index.php?action_kouhyou_detail_004_kani=true&JigyosyoCd=1971800451-00&ServiceCd=780&Type=search", "url2": "https://kasugai-house.com/" }, "geometry": { "type": "Point", "coordinates": [ 138.657136799999989, 35.6651026 ] } },
{ "type": "Feature", "properties": { "内容": "こつぶデイサービス【地域密着型通所介護】山梨県上野原市松留22－4", "url": "https://www.kaigokensaku.mhlw.go.jp/19/index.php?action_kouhyou_detail_004_kani=true&JigyosyoCd=1972000275-00&ServiceCd=780&Type=search", "url2": null }, "geometry": { "type": "Point", "coordinates": [ 139.105793700000049, 35.6148026 ] } },
{ "type": "Feature", "properties": { "内容": "デイサービスらくっと【地域密着型通所介護】山梨県上野原市上野原3584", "url": "https://www.kaigokensaku.mhlw.go.jp/19/index.php?action_kouhyou_detail_004_kani=true&JigyosyoCd=1972000341-00&ServiceCd=780&Type=search", "url2": null }, "geometry": { "type": "Point", "coordinates": [ 139.1119761, 35.6293843 ] } },
{ "type": "Feature", "properties": { "内容": "デイサービス　あお葉【地域密着型通所介護】山梨県上野原市上野原7380番地２", "url": "https://www.kaigokensaku.mhlw.go.jp/19/index.php?action_kouhyou_detail_004_kani=true&JigyosyoCd=1972000242-00&ServiceCd=780&Type=search", "url2": null }, "geometry": { "type": "Point", "coordinates": [ 139.121331700000013, 35.6474564 ] } },
{ "type": "Feature", "properties": { "内容": "ホエールデイサービス【地域密着型通所介護】山梨県上野原市新田1140", "url": "https://www.kaigokensaku.mhlw.go.jp/19/index.php?action_kouhyou_detail_004_kani=true&JigyosyoCd=1992000057-00&ServiceCd=780&Type=search", "url2": "https://whale-day-service.com/" }, "geometry": { "type": "Point", "coordinates": [ 139.1122091, 35.6169633 ] } },
{ "type": "Feature", "properties": { "内容": "談合坂デイサービスひまわり【地域密着型通所介護】山梨県上野原市大野4813番地", "url": "https://www.kaigokensaku.mhlw.go.jp/19/index.php?action_kouhyou_detail_004_kani=true&JigyosyoCd=1972000366-00&ServiceCd=780&Type=search", "url2": null }, "geometry": { "type": "Point", "coordinates": [ 139.046826499999952, 35.6263328 ] } },
{ "type": "Feature", "properties": { "内容": "くぬぎリズム指定地域密着型通所介護事業所【地域密着型通所介護】山梨県上野原市八ツ沢2062", "url": "https://www.kaigokensaku.mhlw.go.jp/19/index.php?action_kouhyou_detail_004_kani=true&JigyosyoCd=1992000065-00&ServiceCd=780&Type=search", "url2": "https://kunugi-rhythm.com/" }, "geometry": { "type": "Point", "coordinates": [ 139.084599281614715, 35.630954562024854 ] } },
{ "type": "Feature", "properties": { "内容": "ケアハウス花まめ【地域密着型通所介護】山梨県甲州市勝沼町小佐手1015-1", "url": "https://www.kaigokensaku.mhlw.go.jp/19/index.php?action_kouhyou_detail_004_kani=true&JigyosyoCd=1992200095-00&ServiceCd=780&Type=search", "url2": "http://hp.kaipoke..biz/66f/" }, "geometry": { "type": "Point", "coordinates": [ 138.72606380000002, 35.675786 ] } },
{ "type": "Feature", "properties": { "内容": "サンクシア甲州デイサービスセンター【地域密着型通所介護】山梨県甲州市塩山小屋敷1589-1サンクシア甲州デイサービスセンター", "url": "https://www.kaigokensaku.mhlw.go.jp/19/index.php?action_kouhyou_detail_004_kani=true&JigyosyoCd=1992200145-00&ServiceCd=780&Type=search", "url2": "https://www.big-advance.site/s/158/1334/company" }, "geometry": { "type": "Point", "coordinates": [ 138.713829692030686, 35.727343391293793 ] } },
{ "type": "Feature", "properties": { "内容": "デイサービスセンター　こもれび【地域密着型通所介護】山梨県甲州市勝沼町等々力１４９９", "url": "https://www.kaigokensaku.mhlw.go.jp/19/index.php?action_kouhyou_detail_004_kani=true&JigyosyoCd=1992200103-00&ServiceCd=780&Type=search", "url2": null }, "geometry": { "type": "Point", "coordinates": [ 138.716111299999966, 35.6660339 ] } },
{ "type": "Feature", "properties": { "内容": "やさしい手　甲州事業所【地域密着型通所介護】甲州市勝沼町山1110番1", "url": "https://www.kaigokensaku.mhlw.go.jp/19/index.php?action_kouhyou_detail_004_kani=true&JigyosyoCd=1992200152-00&ServiceCd=780&Type=search", "url2": null }, "geometry": { "type": "Point", "coordinates": [ 138.725436699999989, 35.6814989 ] } },
{ "type": "Feature", "properties": { "内容": "デイサービス甲斐路【地域密着型通所介護】山梨県甲州市勝沼町休息1300-1", "url": "https://www.kaigokensaku.mhlw.go.jp/19/index.php?action_kouhyou_detail_004_kani=true&JigyosyoCd=1972200198-00&ServiceCd=780&Type=search", "url2": "http://keisen-budou.or.jp/" }, "geometry": { "type": "Point", "coordinates": [ 138.7150249, 35.6741672 ] } },
{ "type": "Feature", "properties": { "内容": "ぴーすデイサービス【地域密着型通所介護】山梨県中央市西花輪2737－7", "url": "https://www.kaigokensaku.mhlw.go.jp/19/index.php?action_kouhyou_detail_004_kani=true&JigyosyoCd=1992300077-00&ServiceCd=780&Type=search", "url2": null }, "geometry": { "type": "Point", "coordinates": [ 138.5142572, 35.5944939 ] } },
{ "type": "Feature", "properties": { "内容": "デイサービス飛鳥Ⅰ【地域密着型通所介護】山梨県中央市馬籠９３３－１", "url": "https://www.kaigokensaku.mhlw.go.jp/19/index.php?action_kouhyou_detail_004_kani=true&JigyosyoCd=1972300170-00&ServiceCd=780&Type=search", "url2": null }, "geometry": { "type": "Point", "coordinates": [ 138.521299583319404, 35.579955753420165 ] } },
{ "type": "Feature", "properties": { "内容": "デイサービス散歩道【地域密着型通所介護】山之神94－41", "url": "https://www.kaigokensaku.mhlw.go.jp/19/index.php?action_kouhyou_detail_004_kani=true&JigyosyoCd=1972300071-00&ServiceCd=780&Type=search", "url2": null }, "geometry": { "type": "Point", "coordinates": [ 138.510294499999986, 35.6201039 ] } },
{ "type": "Feature", "properties": { "内容": "デイサービスふじざくら【地域密着型通所介護】山梨県市川三郷町市川大門706", "url": "https://www.kaigokensaku.mhlw.go.jp/19/index.php?action_kouhyou_detail_004_kani=true&JigyosyoCd=1970600456-00&ServiceCd=780&Type=search", "url2": null }, "geometry": { "type": "Point", "coordinates": [ 138.500841700000024, 35.5636311 ] } },
{ "type": "Feature", "properties": { "内容": "デイサービス飛鳥Ⅱ【地域密着型通所介護】山梨県西八代郡市川三郷町上野2670-5", "url": "https://www.kaigokensaku.mhlw.go.jp/19/index.php?action_kouhyou_detail_004_kani=true&JigyosyoCd=1990600056-00&ServiceCd=780&Type=search", "url2": null }, "geometry": { "type": "Point", "coordinates": [ 138.5127645, 35.5660519 ] } },
{ "type": "Feature", "properties": { "内容": "デイサービス　はなもも【地域密着型通所介護】山梨県西八代郡市川三郷町市川大門２０３５番地１", "url": "https://www.kaigokensaku.mhlw.go.jp/19/index.php?action_kouhyou_detail_004_kani=true&JigyosyoCd=1970600514-00&ServiceCd=780&Type=search", "url2": null }, "geometry": { "type": "Point", "coordinates": [ 138.4961233, 35.5666107 ] } },
{ "type": "Feature", "properties": { "内容": "デイサービスほほえみ【地域密着型通所介護】山梨県西八代郡市川三郷町岩間2083", "url": "https://www.kaigokensaku.mhlw.go.jp/19/index.php?action_kouhyou_detail_004_kani=true&JigyosyoCd=1990600064-00&ServiceCd=780&Type=search", "url2": null }, "geometry": { "type": "Point", "coordinates": [ 138.4622312, 35.4955653 ] } },
{ "type": "Feature", "properties": { "内容": "株式会社日調剤　デイサービスいちかわ【地域密着型通所介護】山梨県西八代郡市川三郷町市川大門1577-1", "url": "https://www.kaigokensaku.mhlw.go.jp/19/index.php?action_kouhyou_detail_004_kani=true&JigyosyoCd=1990600049-00&ServiceCd=780&Type=search", "url2": null }, "geometry": { "type": "Point", "coordinates": [ 138.495832400000012, 35.5647694 ] } },
{ "type": "Feature", "properties": { "内容": "デイサービスみさと【地域密着型通所介護】大塚4459", "url": "https://www.kaigokensaku.mhlw.go.jp/19/index.php?action_kouhyou_detail_004_kani=true&JigyosyoCd=1970600498-00&ServiceCd=780&Type=search", "url2": null }, "geometry": { "type": "Point", "coordinates": [ 139.730715300000014, 35.7211304 ] } },
{ "type": "Feature", "properties": { "内容": "デイサー-ビスセンターはやかわ【地域密着型通所介護】山梨県南巨摩郡早川町草塩88", "url": "https://www.kaigokensaku.mhlw.go.jp/19/index.php?action_kouhyou_detail_004_kani=true&JigyosyoCd=1990700112-00&ServiceCd=780&Type=search", "url2": "www.fujikoseikai.or.jp/" }, "geometry": { "type": "Point", "coordinates": [ 138.34182050000004, 35.4280008 ] } },
{ "type": "Feature", "properties": { "内容": "リハビリオアシスデイサービスみのぶ【地域密着型通所介護】山梨県南巨摩郡身延町丸滝466番地", "url": "https://www.kaigokensaku.mhlw.go.jp/19/index.php?action_kouhyou_detail_004_kani=true&JigyosyoCd=1970701189-00&ServiceCd=780&Type=search", "url2": null }, "geometry": { "type": "Point", "coordinates": [ 138.4548844, 35.368098 ] } },
{ "type": "Feature", "properties": { "内容": "さいデイサービスセンターみのぶ波木井【地域密着型通所介護】山梨県南巨摩郡身延町波木井１５０７－１", "url": "https://www.kaigokensaku.mhlw.go.jp/19/index.php?action_kouhyou_detail_004_kani=true&JigyosyoCd=1970701197-00&ServiceCd=780&Type=search", "url2": null }, "geometry": { "type": "Point", "coordinates": [ 138.446721, 35.3766926 ] } },
{ "type": "Feature", "properties": { "内容": "通所介護　おんわ【地域密着型通所介護】山梨県南巨摩郡身延町下山9088-1", "url": "https://www.kaigokensaku.mhlw.go.jp/19/index.php?action_kouhyou_detail_004_kani=true&JigyosyoCd=1970700660-00&ServiceCd=780&Type=search", "url2": null }, "geometry": { "type": "Point", "coordinates": [ 138.4427585, 35.4134553 ] } },
{ "type": "Feature", "properties": { "内容": "リハビリオアシスデイサービスなんぶ【地域密着型通所介護】山梨県南巨摩郡南部町南部9438", "url": "https://www.kaigokensaku.mhlw.go.jp/19/index.php?action_kouhyou_detail_004_kani=true&JigyosyoCd=1970701213-00&ServiceCd=780&Type=search", "url2": null }, "geometry": { "type": "Point", "coordinates": [ 138.4488758, 35.2845096 ] } },
{ "type": "Feature", "properties": { "内容": "たすけあいきららデイサービス【地域密着型通所介護】山梨県南巨摩郡南部町福士2815", "url": "https://www.kaigokensaku.mhlw.go.jp/19/index.php?action_kouhyou_detail_004_kani=true&JigyosyoCd=1990700179-00&ServiceCd=780&Type=search", "url2": null }, "geometry": { "type": "Point", "coordinates": [ 138.480394834968706, 35.247427316185558 ] } },
{ "type": "Feature", "properties": { "内容": "なないろデイサービス【地域密着型通所介護】山梨県南巨摩郡南部町福士4599", "url": "https://www.kaigokensaku.mhlw.go.jp/19/index.php?action_kouhyou_detail_004_kani=true&JigyosyoCd=1990700211-00&ServiceCd=780&Type=search", "url2": null }, "geometry": { "type": "Point", "coordinates": [ 138.481790206745899, 35.236947726049365 ] } },
{ "type": "Feature", "properties": { "内容": "リハビリオアシスデイサービスあおやぎ【地域密着型通所介護】山梨県南巨摩郡富士川町青柳町508番地", "url": "https://www.kaigokensaku.mhlw.go.jp/19/index.php?action_kouhyou_detail_004_kani=true&JigyosyoCd=1990700203-00&ServiceCd=780&Type=search", "url2": null }, "geometry": { "type": "Point", "coordinates": [ 138.4642412, 35.5572392 ] } },
{ "type": "Feature", "properties": { "内容": "甲州デイサービスセンターきぼう富士川事業所【地域密着型通所介護】山梨県南巨摩郡富士川町長澤2165", "url": "https://www.kaigokensaku.mhlw.go.jp/19/index.php?action_kouhyou_detail_004_kani=true&JigyosyoCd=1990700146-00&ServiceCd=780&Type=search", "url2": "https://www.krg.ne.jp/care/" }, "geometry": { "type": "Point", "coordinates": [ 138.464183300000059, 35.5771781 ] } },
{ "type": "Feature", "properties": { "内容": "ヒューマンサービス山梨いきいきくらぶ【地域密着型通所介護】山梨県南巨摩郡富士川町最勝寺１４６６－１", "url": "https://www.kaigokensaku.mhlw.go.jp/19/index.php?action_kouhyou_detail_004_kani=true&JigyosyoCd=1970700314-00&ServiceCd=780&Type=search", "url2": "http://www.ar.7wakwak.com/~human-service" }, "geometry": { "type": "Point", "coordinates": [ 138.467849230688387, 35.572107360162768 ] } },
{ "type": "Feature", "properties": { "内容": "デイサービス富士川【地域密着型通所介護】山梨県南巨摩郡富士川町最勝寺1190", "url": "https://www.kaigokensaku.mhlw.go.jp/19/index.php?action_kouhyou_detail_004_kani=true&JigyosyoCd=1970701080-00&ServiceCd=780&Type=search", "url2": null }, "geometry": { "type": "Point", "coordinates": [ 138.4624169, 35.5571756 ] } },
{ "type": "Feature", "properties": { "内容": "鰍沢デイサービス【地域密着型通所介護】山梨県南巨摩郡富士川町駅前通2-3776", "url": "https://www.kaigokensaku.mhlw.go.jp/19/index.php?action_kouhyou_detail_004_kani=true&JigyosyoCd=1990700187-00&ServiceCd=780&Type=search", "url2": null }, "geometry": { "type": "Point", "coordinates": [ 138.4644705, 35.5405391 ] } },
{ "type": "Feature", "properties": { "内容": "リハビリオアシス　デイサービスますほ【地域密着型通所介護】山梨県南巨摩郡富士川町青柳町983-2", "url": "https://www.kaigokensaku.mhlw.go.jp/19/index.php?action_kouhyou_detail_004_kani=true&JigyosyoCd=1990700120-00&ServiceCd=780&Type=search", "url2": null }, "geometry": { "type": "Point", "coordinates": [ 138.4676575, 35.5583427 ] } },
{ "type": "Feature", "properties": { "内容": "まごころ指定通所介護事業所（デイサービスセンターまごころ）【地域密着型通所介護】山梨県　中巨摩郡　昭和町　西条新田　３６６の５", "url": "https://www.kaigokensaku.mhlw.go.jp/19/index.php?action_kouhyou_detail_004_kani=true&JigyosyoCd=1970800635-00&ServiceCd=780&Type=search", "url2": "http://nttbj.itp.ne.jp/0552407665" }, "geometry": { "type": "Point", "coordinates": [ 138.532902186508181, 35.639674301758035 ] } },
{ "type": "Feature", "properties": { "内容": "ゆらぎデイサービス【地域密着型通所介護】山梨県中巨摩郡昭和町西条30-1", "url": "https://www.kaigokensaku.mhlw.go.jp/19/index.php?action_kouhyou_detail_004_kani=true&JigyosyoCd=1970801161-00&ServiceCd=780&Type=search", "url2": null }, "geometry": { "type": "Point", "coordinates": [ 138.545232553967281, 35.63614941889486 ] } },
{ "type": "Feature", "properties": { "内容": "道志茶屋【地域密着型通所介護】山梨県南都留郡道志村谷相7710", "url": "https://www.kaigokensaku.mhlw.go.jp/19/index.php?action_kouhyou_detail_004_kani=true&JigyosyoCd=1991300177-00&ServiceCd=780&Type=search", "url2": "https://www.heisei294.org/" }, "geometry": { "type": "Point", "coordinates": [ 139.018871, 35.518381 ] } },
{ "type": "Feature", "properties": { "内容": "デイサービスセンター　ぽかぽか【地域密着型通所介護】山梨県南都留郡忍野村忍草200番地", "url": "https://www.kaigokensaku.mhlw.go.jp/19/index.php?action_kouhyou_detail_004_kani=true&JigyosyoCd=1991300060-00&ServiceCd=780&Type=search", "url2": null }, "geometry": { "type": "Point", "coordinates": [ 138.831324, 35.4578395 ] } },
{ "type": "Feature", "properties": { "内容": "ブルーゾーン心愛【地域密着型通所介護】山梨県南都留郡忍野忍忍草1083", "url": "https://www.kaigokensaku.mhlw.go.jp/19/index.php?action_kouhyou_detail_004_kani=true&JigyosyoCd=1971300932-00&ServiceCd=780&Type=search", "url2": "https://uoyoshi.org/cocoa.php" }, "geometry": { "type": "Point", "coordinates": [ 138.834485553967284, 35.455228491355946 ] } },
{ "type": "Feature", "properties": { "内容": "デイサービス　まごころ【地域密着型通所介護】山梨県南都留郡忍野村内野３４０６－２", "url": "https://www.kaigokensaku.mhlw.go.jp/19/index.php?action_kouhyou_detail_004_kani=true&JigyosyoCd=1991300169-00&ServiceCd=780&Type=search", "url2": null }, "geometry": { "type": "Point", "coordinates": [ 138.8758483, 35.4579867 ] } },
{ "type": "Feature", "properties": { "内容": "社会福祉法人博友会指定地域密着型通所介護事業所【地域密着型通所介護】山梨県南都留郡山中湖村平野１４５０山中湖村デイサービスセンター", "url": "https://www.kaigokensaku.mhlw.go.jp/19/index.php?action_kouhyou_detail_004_kani=true&JigyosyoCd=1991300052-00&ServiceCd=780&Type=search", "url2": null }, "geometry": { "type": "Point", "coordinates": [ 138.909114, 35.4352032 ] } },
{ "type": "Feature", "properties": { "内容": "合資会社　デイサービスふきのとう【地域密着型通所介護】山梨県南都留郡鳴沢村5855-1デイサービスふきのとう", "url": "https://www.kaigokensaku.mhlw.go.jp/19/index.php?action_kouhyou_detail_004_kani=true&JigyosyoCd=1971300445-00&ServiceCd=780&Type=search", "url2": null }, "geometry": { "type": "Point", "coordinates": [ 138.709683463043234, 35.4799772215042 ] } },
{ "type": "Feature", "properties": { "内容": "あおばデイサービスセンター【地域密着型通所介護】山梨県南都留郡富士河口湖町船津6809-1", "url": "https://www.kaigokensaku.mhlw.go.jp/19/index.php?action_kouhyou_detail_004_kani=true&JigyosyoCd=1991300151-00&ServiceCd=780&Type=search", "url2": null }, "geometry": { "type": "Point", "coordinates": [ 138.763799400000011, 35.4885578 ] } },
{ "type": "Feature", "properties": { "内容": "デイサービスセンターはるみさん家【地域密着型通所介護】山梨県南都留郡富士河口湖町船津1190-3", "url": "https://www.kaigokensaku.mhlw.go.jp/19/index.php?action_kouhyou_detail_004_kani=true&JigyosyoCd=1991300094-00&ServiceCd=780&Type=search", "url2": null }, "geometry": { "type": "Point", "coordinates": [ 138.7576254, 35.501257 ] } },
{ "type": "Feature", "properties": { "内容": "デイサービス四つ葉のクローバー【地域密着型通所介護】河口2818", "url": "https://www.kaigokensaku.mhlw.go.jp/19/index.php?action_kouhyou_detail_004_kani=true&JigyosyoCd=1971300718-00&ServiceCd=780&Type=search", "url2": "https://yotsuba-clover.jp" }, "geometry": { "type": "Point", "coordinates": [ 138.773561, 35.523519 ] } },
{ "type": "Feature", "properties": { "内容": "共生型サービス　あおぞら【地域密着型通所介護】山梨県南都留郡富士河口湖町小立2322-6", "url": "https://www.kaigokensaku.mhlw.go.jp/19/index.php?action_kouhyou_detail_004_kani=true&JigyosyoCd=1991300136-00&ServiceCd=780&Type=search", "url2": null }, "geometry": { "type": "Point", "coordinates": [ 138.7497655, 35.5037306 ] } },
{ "type": "Feature", "properties": { "内容": "小菅村指定地域密着型通所介護事業所【地域密着型通所介護】山梨県北都留郡小菅村6027番地", "url": "https://www.kaigokensaku.mhlw.go.jp/19/index.php?action_kouhyou_detail_004_kani=true&JigyosyoCd=1991500016-00&ServiceCd=780&Type=search", "url2": null }, "geometry": { "type": "Point", "coordinates": [ 138.936689099999967, 35.7608823 ] } },
{ "type": "Feature", "properties": { "内容": "丹波山村地域密着型通所介護事業所【地域密着型通所介護】山梨県北都留郡丹波山村2901高齢者生活福祉センター", "url": "https://www.kaigokensaku.mhlw.go.jp/19/index.php?action_kouhyou_detail_004_kani=true&JigyosyoCd=1971500077-00&ServiceCd=780&Type=search", "url2": null }, "geometry": { "type": "Point", "coordinates": [ 138.9240264, 35.7893738 ] } }
]
}
