{
"type": "FeatureCollection",
"name": "geo_19_訪問入浴介護",
"crs": { "type": "name", "properties": { "name": "urn:ogc:def:crs:OGC:1.3:CRS84" } },
"features": [
{ "type": "Feature", "properties": { "内容": "アースサポート甲府【訪問入浴介護】山梨県甲府市湯田2丁目7番15号", "url": "https://www.kaigokensaku.mhlw.go.jp/19/index.php?action_kouhyou_detail_004_kani=true&JigyosyoCd=1970102610-00&ServiceCd=120&Type=search", "url2": "https://www.earthsupport.co.jp" }, "geometry": { "type": "Point", "coordinates": [ 138.574263, 35.6465098 ] } },
{ "type": "Feature", "properties": { "内容": "アスケア訪問入浴　山梨【訪問入浴介護】甲府市上石田二丁目３１番３８号", "url": "https://www.kaigokensaku.mhlw.go.jp/19/index.php?action_kouhyou_detail_004_kani=true&JigyosyoCd=1970100762-00&ServiceCd=120&Type=search", "url2": "https://www.as-care.co.jp/" }, "geometry": { "type": "Point", "coordinates": [ 138.559350829159257, 35.655122854565271 ] } },
{ "type": "Feature", "properties": { "内容": "ニチイケアセンター富士吉田【訪問入浴介護】山梨県　富士吉田市　上吉田　三枚畠　6537", "url": "https://www.kaigokensaku.mhlw.go.jp/19/index.php?action_kouhyou_detail_004_kani=true&JigyosyoCd=1971200058-00&ServiceCd=120&Type=search", "url2": "http://www.nichiigakkann.c.jp" }, "geometry": { "type": "Point", "coordinates": [ 138.796449899999971, 35.4800585 ] } },
{ "type": "Feature", "properties": { "内容": "アスケア訪問入浴富士五湖【訪問入浴介護】山梨県富士吉田市新西原2-26-24ころぼっくる貸店舗102", "url": "https://www.kaigokensaku.mhlw.go.jp/19/index.php?action_kouhyou_detail_004_kani=true&JigyosyoCd=1971200702-00&ServiceCd=120&Type=search", "url2": null }, "geometry": { "type": "Point", "coordinates": [ 138.784335899999974, 35.4812163 ] } },
{ "type": "Feature", "properties": { "内容": "ツクイ都留中津森【訪問入浴介護】山梨県都留市中津森1033-2ツクイ都留中津森", "url": "https://www.kaigokensaku.mhlw.go.jp/19/index.php?action_kouhyou_detail_004_kani=true&JigyosyoCd=1971100456-00&ServiceCd=120&Type=search", "url2": null }, "geometry": { "type": "Point", "coordinates": [ 138.8967925, 35.5623822 ] } },
{ "type": "Feature", "properties": { "内容": "アースサポート山梨【訪問入浴介護】山梨県山梨市上神内川1680", "url": "https://www.kaigokensaku.mhlw.go.jp/19/index.php?action_kouhyou_detail_004_kani=true&JigyosyoCd=1970200620-00&ServiceCd=120&Type=search", "url2": "https://www.earthsupport.co.jp/" }, "geometry": { "type": "Point", "coordinates": [ 138.68188669999995, 35.68636919999998 ] } },
{ "type": "Feature", "properties": { "内容": "セントケアぱーとなー韮崎【訪問入浴介護】山梨県韮崎市大草町若尾72-1", "url": "https://www.kaigokensaku.mhlw.go.jp/19/index.php?action_kouhyou_detail_004_kani=true&JigyosyoCd=1971701113-00&ServiceCd=120&Type=search", "url2": "https://www.saint-care.com/" }, "geometry": { "type": "Point", "coordinates": [ 138.4429132, 35.7039207 ] } },
{ "type": "Feature", "properties": { "内容": "ニチイケアセンター甲斐【訪問入浴介護】山梨県甲斐市篠原1659", "url": "https://www.kaigokensaku.mhlw.go.jp/19/index.php?action_kouhyou_detail_004_kani=true&JigyosyoCd=1970800593-00&ServiceCd=120&Type=search", "url2": "http://www.nichiigakkan.co.jp/" }, "geometry": { "type": "Point", "coordinates": [ 138.524304300000011, 35.6503347 ] } },
{ "type": "Feature", "properties": { "内容": "ハートフル塩山訪問入浴サービス【訪問入浴介護】山梨県甲州市塩山西広門田433-1", "url": "https://www.kaigokensaku.mhlw.go.jp/19/index.php?action_kouhyou_detail_004_kani=true&JigyosyoCd=1970300073-00&ServiceCd=120&Type=search", "url2": "http://www.kosei.jp/heartfull/" }, "geometry": { "type": "Point", "coordinates": [ 138.720962336415056, 35.694988866689549 ] } },
{ "type": "Feature", "properties": { "内容": "光風園訪問入浴介護事業所【訪問入浴介護】山梨県甲州市塩山西野原603番地", "url": "https://www.kaigokensaku.mhlw.go.jp/19/index.php?action_kouhyou_detail_004_kani=true&JigyosyoCd=1972200370-00&ServiceCd=120&Type=search", "url2": "https://www.koufuukai-yamanashi.or.jp/" }, "geometry": { "type": "Point", "coordinates": [ 138.7361642, 35.6891737 ] } },
{ "type": "Feature", "properties": { "内容": "株式会社ヒューマンサービス山梨【訪問入浴介護】山梨県南巨摩郡富士川町長沢６８７番地２", "url": "https://www.kaigokensaku.mhlw.go.jp/19/index.php?action_kouhyou_detail_004_kani=true&JigyosyoCd=1970700082-00&ServiceCd=120&Type=search", "url2": "http://care-net.biz/19/human/" }, "geometry": { "type": "Point", "coordinates": [ 138.4679113, 35.5719123 ] } }
]
}
