{
"type": "FeatureCollection",
"name": "geo_19_看護小規模多機能型居宅介護（複合型サービス）",
"crs": { "type": "name", "properties": { "name": "urn:ogc:def:crs:OGC:1.3:CRS84" } },
"features": [
{ "type": "Feature", "properties": { "内容": "なかみちの里【看護小規模多機能型居宅介護（複合型サービス）】山梨県甲府市上曽根町2395", "url": "https://www.kaigokensaku.mhlw.go.jp/19/index.php?action_kouhyou_detail_004_kani=true&JigyosyoCd=1990100412-00&ServiceCd=&Type=search", "url2": "ｈｔｔｐ：//ｎａｋａｍｉｃｈｉ-ｎｏ-ｓａｔｏ.ｃｏｍ" }, "geometry": { "type": "Point", "coordinates": [ 138.592665799999963, 35.6010834 ] } },
{ "type": "Feature", "properties": { "内容": "まいほーむいけだ【看護小規模多機能型居宅介護（複合型サービス）】山梨県甲府市下飯田1-2-18", "url": "https://www.kaigokensaku.mhlw.go.jp/19/index.php?action_kouhyou_detail_004_kani=true&JigyosyoCd=1990100495-00&ServiceCd=&Type=search", "url2": "https://ykf.or.jp/" }, "geometry": { "type": "Point", "coordinates": [ 138.545021099999985, 35.6689024 ] } },
{ "type": "Feature", "properties": { "内容": "看護多機能事業所まいほーむさるはし【看護小規模多機能型居宅介護（複合型サービス）】山梨県大月市猿橋町殿上552-5", "url": "https://www.kaigokensaku.mhlw.go.jp/19/index.php?action_kouhyou_detail_004_kani=true&JigyosyoCd=1991400118-00&ServiceCd=&Type=search", "url2": "https://gunnai-kyoritsu.jp/offices.html" }, "geometry": { "type": "Point", "coordinates": [ 138.9664656, 35.6114215 ] } },
{ "type": "Feature", "properties": { "内容": "まいほーむももその【看護小規模多機能型居宅介護（複合型サービス）】桃園387-2", "url": "https://www.kaigokensaku.mhlw.go.jp/19/index.php?action_kouhyou_detail_004_kani=true&JigyosyoCd=1991600279-00&ServiceCd=&Type=search", "url2": "https://ykf.or.jp/momosono/myhomemomosono" }, "geometry": { "type": "Point", "coordinates": [ 121.305975, 24.9925185 ] } },
{ "type": "Feature", "properties": { "内容": "看護小規模多機能型居宅介護かのん【看護小規模多機能型居宅介護（複合型サービス）】山梨県甲斐市西八幡3822-1", "url": "https://www.kaigokensaku.mhlw.go.jp/19/index.php?action_kouhyou_detail_004_kani=true&JigyosyoCd=1991700236-00&ServiceCd=&Type=search", "url2": "http://yfs-kanon.com" }, "geometry": { "type": "Point", "coordinates": [ 138.516770466685529, 35.637799985996729 ] } },
{ "type": "Feature", "properties": { "内容": "しらゆり看護小規模多機能型居宅介護支援事業所【看護小規模多機能型居宅介護（複合型サービス）】山梨県甲斐市篠原1895-1", "url": "https://www.kaigokensaku.mhlw.go.jp/19/index.php?action_kouhyou_detail_004_kani=true&JigyosyoCd=1991700301-00&ServiceCd=&Type=search", "url2": "http://www.ryuo-rhp.or.jp/kantaki.html" }, "geometry": { "type": "Point", "coordinates": [ 138.51963520000001, 35.6534768 ] } },
{ "type": "Feature", "properties": { "内容": "まいほーむいさわ【看護小規模多機能型居宅介護（複合型サービス）】山梨県笛吹市石和町広瀬781", "url": "https://www.kaigokensaku.mhlw.go.jp/19/index.php?action_kouhyou_detail_004_kani=true&JigyosyoCd=1991800234-00&ServiceCd=&Type=search", "url2": "https://ykf.or.jp/" }, "geometry": { "type": "Point", "coordinates": [ 138.6251058, 35.6384521 ] } }
]
}
