{
"type": "FeatureCollection",
"name": "geo_19_短期入所療養介護（介護老人保健施設）",
"crs": { "type": "name", "properties": { "name": "urn:ogc:def:crs:OGC:1.3:CRS84" } },
"features": [
{ "type": "Feature", "properties": { "内容": "大津ケアセンター【短期入所療養介護（介護老人保健施設）】山梨県甲府市大津町１５０９番地１", "url": "https://www.kaigokensaku.mhlw.go.jp/19/index.php?action_kouhyou_detail_004_kani=true&JigyosyoCd=1950180040-00&ServiceCd=220&Type=search", "url2": "http://www.geocities.jp/ootsuhope0202/index.htm" }, "geometry": { "type": "Point", "coordinates": [ 138.564382300000034, 35.5982885 ] } },
{ "type": "Feature", "properties": { "内容": "介護老人保健施設NAC湯村【短期入所療養介護（介護老人保健施設）】山梨県甲府市湯村3-15-13", "url": "https://www.kaigokensaku.mhlw.go.jp/19/index.php?action_kouhyou_detail_004_kani=true&JigyosyoCd=1950180024-00&ServiceCd=220&Type=search", "url2": "http://www.nac-yumura.com" }, "geometry": { "type": "Point", "coordinates": [ 138.546763899999974, 35.6833931 ] } },
{ "type": "Feature", "properties": { "内容": "甲府相川ケアセンター【短期入所療養介護（介護老人保健施設）】山梨県甲府市塚原町359", "url": "https://www.kaigokensaku.mhlw.go.jp/19/index.php?action_kouhyou_detail_004_kani=true&JigyosyoCd=1950180032-00&ServiceCd=220&Type=search", "url2": "http://www.kashinokai.or.jp" }, "geometry": { "type": "Point", "coordinates": [ 138.569656099999946, 35.6941421 ] } },
{ "type": "Feature", "properties": { "内容": "介護老人保健施設　甲府南ライフケアセンター【短期入所療養介護（介護老人保健施設）】山梨県甲府市住吉５丁目２４－１４", "url": "https://www.kaigokensaku.mhlw.go.jp/19/index.php?action_kouhyou_detail_004_kani=true&JigyosyoCd=1950180016-00&ServiceCd=220&Type=search", "url2": "https://care-net.biz/19/kofuminamilife/" }, "geometry": { "type": "Point", "coordinates": [ 138.57811049999998, 35.635203 ] } },
{ "type": "Feature", "properties": { "内容": "箭本外科整形外科医院【短期入所療養介護（介護老人保健施設）】北口3-1-1", "url": "https://www.kaigokensaku.mhlw.go.jp/19/index.php?action_kouhyou_detail_004_kani=true&JigyosyoCd=1970105647-00&ServiceCd=220&Type=search", "url2": "https://www.yamotogekaseikeigeka.com/" }, "geometry": { "type": "Point", "coordinates": [ 138.568814, 35.668922 ] } },
{ "type": "Feature", "properties": { "内容": "甲府かわせみ苑【短期入所療養介護（介護老人保健施設）】山梨県甲府市横根町554", "url": "https://www.kaigokensaku.mhlw.go.jp/19/index.php?action_kouhyou_detail_004_kani=true&JigyosyoCd=1950180008-00&ServiceCd=220&Type=search", "url2": null }, "geometry": { "type": "Point", "coordinates": [ 138.615698, 35.6574311 ] } },
{ "type": "Feature", "properties": { "内容": "介護老人保健施設　白樺荘【短期入所療養介護（介護老人保健施設）】山梨県富士吉田市新屋1552-3番地", "url": "https://www.kaigokensaku.mhlw.go.jp/19/index.php?action_kouhyou_detail_004_kani=true&JigyosyoCd=1951280005-00&ServiceCd=220&Type=search", "url2": "http://www.fgo./~sirakaba" }, "geometry": { "type": "Point", "coordinates": [ 138.793153599999982, 35.4595859 ] } },
{ "type": "Feature", "properties": { "内容": "都留市立介護老人保健施設「つる」【短期入所療養介護（介護老人保健施設）】都留市つる5-1-55", "url": "https://www.kaigokensaku.mhlw.go.jp/19/index.php?action_kouhyou_detail_004_kani=true&JigyosyoCd=1951180007-00&ServiceCd=220&Type=search", "url2": "http://www.city.tsuru.yamanashi.jp" }, "geometry": { "type": "Point", "coordinates": [ 138.9030871, 35.5626288 ] } },
{ "type": "Feature", "properties": { "内容": "介護老人保健施設　ももくら【短期入所療養介護（介護老人保健施設）】山梨県大月市七保町下和田２１３２－１", "url": "https://www.kaigokensaku.mhlw.go.jp/19/index.php?action_kouhyou_detail_004_kani=true&JigyosyoCd=1971400328-00&ServiceCd=220&Type=search", "url2": "http://fujikosei.or.jp/" }, "geometry": { "type": "Point", "coordinates": [ 138.9705768, 35.6297866 ] } },
{ "type": "Feature", "properties": { "内容": "介護老人保健施設　あさひホーム【短期入所療養介護（介護老人保健施設）】山梨県韮崎市旭町上條中割４７３", "url": "https://www.kaigokensaku.mhlw.go.jp/19/index.php?action_kouhyou_detail_004_kani=true&JigyosyoCd=1950980001-00&ServiceCd=220&Type=search", "url2": "http://asahihome.biz" }, "geometry": { "type": "Point", "coordinates": [ 138.4441424, 35.6829215 ] } },
{ "type": "Feature", "properties": { "内容": "介護老人保健施設　　ケアホーム花菱【短期入所療養介護（介護老人保健施設）】山梨県南アルプス市田島１１０５番地", "url": "https://www.kaigokensaku.mhlw.go.jp/19/index.php?action_kouhyou_detail_004_kani=true&JigyosyoCd=1950880045-00&ServiceCd=220&Type=search", "url2": null }, "geometry": { "type": "Point", "coordinates": [ 138.486878299999944, 35.5927049 ] } },
{ "type": "Feature", "properties": { "内容": "峡西老人保健センター【短期入所療養介護（介護老人保健施設）】山梨県南アルプス市下宮地４２１番地", "url": "https://www.kaigokensaku.mhlw.go.jp/19/index.php?action_kouhyou_detail_004_kani=true&JigyosyoCd=1950880011-00&ServiceCd=220&Type=search", "url2": "http://www.nan-zan.or.jp" }, "geometry": { "type": "Point", "coordinates": [ 138.463430100000011, 35.6039599 ] } },
{ "type": "Feature", "properties": { "内容": "医療法人　燦生会　介護老人保健施設　フルリールむかわ【短期入所療養介護（介護老人保健施設）】山梨県北杜市武川町柳沢740-1", "url": "https://www.kaigokensaku.mhlw.go.jp/19/index.php?action_kouhyou_detail_004_kani=true&JigyosyoCd=1951080025-00&ServiceCd=220&Type=search", "url2": "https://fluriru.com/" }, "geometry": { "type": "Point", "coordinates": [ 138.3515344, 35.7868083 ] } },
{ "type": "Feature", "properties": { "内容": "介護老人保健施設しおかわ福寿の里【短期入所療養介護（介護老人保健施設）】山梨県北杜市須玉町藤田787", "url": "https://www.kaigokensaku.mhlw.go.jp/19/index.php?action_kouhyou_detail_004_kani=true&JigyosyoCd=1951980000-00&ServiceCd=220&Type=search", "url2": "http://www.city.hokuto.yamanashi.jp/hokuto_wdm/html/shiokawa-hospital/01064653612.html?lid=109" }, "geometry": { "type": "Point", "coordinates": [ 138.427841300000011, 35.7787151 ] } },
{ "type": "Feature", "properties": { "内容": "峡北シルバーケアホーム【短期入所療養介護（介護老人保健施設）】山梨県北杜市長坂町渋沢907", "url": "https://www.kaigokensaku.mhlw.go.jp/19/index.php?action_kouhyou_detail_004_kani=true&JigyosyoCd=1951080009-00&ServiceCd=220&Type=search", "url2": "http://kyohoku-silver-care-home.yamanashi.jp/" }, "geometry": { "type": "Point", "coordinates": [ 138.387138099999987, 35.8128998 ] } },
{ "type": "Feature", "properties": { "内容": "老人保健施設　ひかりの里【短期入所療養介護（介護老人保健施設）】山梨県甲斐市宇津谷1111", "url": "https://www.kaigokensaku.mhlw.go.jp/19/index.php?action_kouhyou_detail_004_kani=true&JigyosyoCd=1971700412-00&ServiceCd=220&Type=search", "url2": "http://www.hikarinosato.com" }, "geometry": { "type": "Point", "coordinates": [ 138.48191, 35.6958883 ] } },
{ "type": "Feature", "properties": { "内容": "介護老人保健施設山梨ライフケアホーム短期入所療養介護【短期入所療養介護（介護老人保健施設）】山梨県甲斐市竜王新町2128", "url": "https://www.kaigokensaku.mhlw.go.jp/19/index.php?action_kouhyou_detail_004_kani=true&JigyosyoCd=1950880003-00&ServiceCd=220&Type=search", "url2": "http://park14.wakwak.com/^lifecarehome/" }, "geometry": { "type": "Point", "coordinates": [ 138.5083268, 35.6784477 ] } },
{ "type": "Feature", "properties": { "内容": "いちのみやケアセンター【短期入所療養介護（介護老人保健施設）】山梨県笛吹市一宮町竹原田１２５５－１", "url": "https://www.kaigokensaku.mhlw.go.jp/19/index.php?action_kouhyou_detail_004_kani=true&JigyosyoCd=1950580017-00&ServiceCd=220&Type=search", "url2": "http://www3.ocn.ne.jp/~icare/" }, "geometry": { "type": "Point", "coordinates": [ 138.672572100000025, 35.6475919 ] } },
{ "type": "Feature", "properties": { "内容": "介護老人保健施設ふじ苑【短期入所療養介護（介護老人保健施設）】山梨県笛吹市春日居町小松855-6", "url": "https://www.kaigokensaku.mhlw.go.jp/19/index.php?action_kouhyou_detail_004_kani=true&JigyosyoCd=1950480002-00&ServiceCd=220&Type=search", "url2": "http://www11.ocn.ne.jp/~fuji-hp/" }, "geometry": { "type": "Point", "coordinates": [ 138.658692400000064, 35.6613921 ] } },
{ "type": "Feature", "properties": { "内容": "甲州ケア・ホーム【短期入所療養介護（介護老人保健施設）】山梨県笛吹市石和町四日市場2031", "url": "https://www.kaigokensaku.mhlw.go.jp/19/index.php?action_kouhyou_detail_004_kani=true&JigyosyoCd=1970500367-00&ServiceCd=220&Type=search", "url2": "https://www.krg.ne.jp/care/" }, "geometry": { "type": "Point", "coordinates": [ 138.625647699999945, 35.6465102 ] } },
{ "type": "Feature", "properties": { "内容": "みのりの里　介護老人保健施設　旭ヶ丘【短期入所療養介護（介護老人保健施設）】山梨県上野原市上野原7806", "url": "https://www.kaigokensaku.mhlw.go.jp/19/index.php?action_kouhyou_detail_004_kani=true&JigyosyoCd=1951580008-00&ServiceCd=220&Type=search", "url2": "http://www.keifuu.or.jp" }, "geometry": { "type": "Point", "coordinates": [ 139.122816300000068, 35.6441771 ] } },
{ "type": "Feature", "properties": { "内容": "恵信ケアセンター【短期入所療養介護（介護老人保健施設）】山梨県甲州市塩山上於曽1195", "url": "https://www.kaigokensaku.mhlw.go.jp/19/index.php?action_kouhyou_detail_004_kani=true&JigyosyoCd=1950380004-00&ServiceCd=220&Type=search", "url2": "http://www.keishin-group.net" }, "geometry": { "type": "Point", "coordinates": [ 138.72821, 35.7077459 ] } },
{ "type": "Feature", "properties": { "内容": "介護老人保健施設　勝沼ナーシングセンター　短期入所療養介護【短期入所療養介護（介護老人保健施設）】山梨県甲州市勝沼町菱山中平4300", "url": "https://www.kaigokensaku.mhlw.go.jp/19/index.php?action_kouhyou_detail_004_kani=true&JigyosyoCd=1950480010-00&ServiceCd=220&Type=search", "url2": "http://www.katsunuma-nursing.com/" }, "geometry": { "type": "Point", "coordinates": [ 138.738777, 35.667027 ] } },
{ "type": "Feature", "properties": { "内容": "介護老人保健施設玉穂ケアセンター【短期入所療養介護（介護老人保健施設）】山梨県中央市乙黒２４７－１", "url": "https://www.kaigokensaku.mhlw.go.jp/19/index.php?action_kouhyou_detail_004_kani=true&JigyosyoCd=1950880052-00&ServiceCd=220&Type=search", "url2": null }, "geometry": { "type": "Point", "coordinates": [ 138.552884, 35.5970085 ] } },
{ "type": "Feature", "properties": { "内容": "介護老人保健施設　ナーシングプラザ三珠【短期入所療養介護（介護老人保健施設）】山梨県西八代郡市川三郷町上野２９６８番地", "url": "https://www.kaigokensaku.mhlw.go.jp/19/index.php?action_kouhyou_detail_004_kani=true&JigyosyoCd=1950680007-00&ServiceCd=220&Type=search", "url2": "npmitama.com" }, "geometry": { "type": "Point", "coordinates": [ 138.515742100000011, 35.5631367 ] } },
{ "type": "Feature", "properties": { "内容": "介護老人保健施設ケアセンターいちかわ【短期入所療養介護（介護老人保健施設）】山梨県西八代郡市川三郷町市川大門416", "url": "https://www.kaigokensaku.mhlw.go.jp/19/index.php?action_kouhyou_detail_004_kani=true&JigyosyoCd=1970600480-00&ServiceCd=220&Type=search", "url2": "https://www.kyonan-mc.jp" }, "geometry": { "type": "Point", "coordinates": [ 138.4928621, 35.5599756 ] } },
{ "type": "Feature", "properties": { "内容": "介護老人保健施設　峡南ケアホームいいとみ【短期入所療養介護（介護老人保健施設）】山梨県南巨摩郡身延町飯富1655", "url": "https://www.kaigokensaku.mhlw.go.jp/19/index.php?action_kouhyou_detail_004_kani=true&JigyosyoCd=1950780005-00&ServiceCd=220&Type=search", "url2": "http://www6.ocn.ne.jp/~iitomi/" }, "geometry": { "type": "Point", "coordinates": [ 138.438049500000034, 35.4358684 ] } },
{ "type": "Feature", "properties": { "内容": "介護老人保健施設サンビューふじかわ【短期入所療養介護（介護老人保健施設）】山梨県南巨摩郡富士川町鰍沢340-1", "url": "https://www.kaigokensaku.mhlw.go.jp/19/index.php?action_kouhyou_detail_004_kani=true&JigyosyoCd=1970701296-00&ServiceCd=220&Type=search", "url2": "http://www.kyonan-mc.jp/" }, "geometry": { "type": "Point", "coordinates": [ 138.4661351, 35.5490829 ] } },
{ "type": "Feature", "properties": { "内容": "ノイエス【短期入所療養介護（介護老人保健施設）】山梨県中巨摩郡昭和町河東中島４４３", "url": "https://www.kaigokensaku.mhlw.go.jp/19/index.php?action_kouhyou_detail_004_kani=true&JigyosyoCd=1950880037-00&ServiceCd=220&Type=search", "url2": "https://ri-shikai.or.jp" }, "geometry": { "type": "Point", "coordinates": [ 138.5355591, 35.6213462 ] } },
{ "type": "Feature", "properties": { "内容": "介護老人保健施設ひばり苑【短期入所療養介護（介護老人保健施設）】山梨県中巨摩郡昭和町飯喰1277", "url": "https://www.kaigokensaku.mhlw.go.jp/19/index.php?action_kouhyou_detail_004_kani=true&JigyosyoCd=1950880029-00&ServiceCd=220&Type=search", "url2": "https://care-net.biz/19/hibari-en/" }, "geometry": { "type": "Point", "coordinates": [ 138.520001800000045, 35.6225676 ] } },
{ "type": "Feature", "properties": { "内容": "介護老人保健施設　山中湖あんずの森【短期入所療養介護（介護老人保健施設）】山梨県南都留郡山中湖村山中1069-3", "url": "https://www.kaigokensaku.mhlw.go.jp/19/index.php?action_kouhyou_detail_004_kani=true&JigyosyoCd=1971300411-00&ServiceCd=220&Type=search", "url2": "http://fujikosei.or.jp" }, "geometry": { "type": "Point", "coordinates": [ 138.8444292, 35.4383855 ] } },
{ "type": "Feature", "properties": { "内容": "介護老人保健施設　はまなす【短期入所療養介護（介護老人保健施設）】山梨県南都留郡富士河口湖町船津字桜休場６９０１", "url": "https://www.kaigokensaku.mhlw.go.jp/19/index.php?action_kouhyou_detail_004_kani=true&JigyosyoCd=1951380003-00&ServiceCd=220&Type=search", "url2": null }, "geometry": { "type": "Point", "coordinates": [ 138.760349117721546, 35.491299515961039 ] } }
]
}
