{
"type": "FeatureCollection",
"name": "geo_19_1",
"crs": { "type": "name", "properties": { "name": "urn:ogc:def:crs:OGC:1.3:CRS84" } },
"features": [
{ "type": "Feature", "properties": { "ID": 1911190000001, "正式名称": "独立行政法人国立病院機構甲府病院", "機関区分": 1, "都道府県コード": 19, "市区町村コード": 201, "所在地": "山梨県甲府市天神町１１－３５", "緯度": 35.67815, "経度": 138.567446, "url": "https://www.iryou.teikyouseido.mhlw.go.jp/znk-web/juminkanja/S2430/initialize?prefCd=19&kikanCd=1190000001&kikanKbn=1", "url2": "https://kofu.hosp.go.jp/", "内容": "独立行政法人国立病院機構甲府病院【1:病院】【診療科目:内科_糖尿病内科_呼吸器内科_循環器内科_消化器内科_神経内科_外科_脳神経外科_消化器外科_整形外科_小児科_産婦人科_眼科_耳鼻いんこう科_皮膚科_泌尿器科_精神科_歯科_リハビリテーション科_放射線科_麻酔科】【一般病床数:270療養病床数:0精神病床数:0感染症病床数:0合計病床数:276】山梨県甲府市天神町１１－３５" }, "geometry": { "type": "Point", "coordinates": [ 138.567446, 35.67815 ] } },
{ "type": "Feature", "properties": { "ID": 1911190000003, "正式名称": "山梨大学医学部附属病院", "機関区分": 1, "都道府県コード": 19, "市区町村コード": 214, "所在地": "山梨県中央市下河東１１１０", "緯度": 35.610241, "経度": 138.539313, "url": "https://www.iryou.teikyouseido.mhlw.go.jp/znk-web/juminkanja/S2430/initialize?prefCd=19&kikanCd=1190000003&kikanKbn=1", "url2": "https://www.hosp.yamanashi.ac.jp/", "内容": "山梨大学医学部附属病院【1:病院】【診療科目:血液・腫瘍内科_糖尿病・内分泌内科_呼吸器内科_循環器内科_消化器内科_腎臓内科_神経内科_リウマチ膠原病内科_脳神経外科_呼吸器外科_心臓血管外科_消化器外科_乳腺・内分泌外科_整形外科_形成外科_小児科_小児外科_産婦人科_眼科_頭頸部・耳鼻いんこう科_皮膚科_泌尿器科_精神科_歯科口腔外科_リハビリテーション科_放射線診断科_放射線治療科_病理診断科_救急科_麻酔科】【一般病床数:578療養病床数:0精神病床数:32感染症病床数:0合計病床数:610】山梨県中央市下河東１１１０" }, "geometry": { "type": "Point", "coordinates": [ 138.539313, 35.610241 ] } },
{ "type": "Feature", "properties": { "ID": 1911190000004, "正式名称": "地方独立行政法人山梨県立病院機構　山梨県立中央病院", "機関区分": 1, "都道府県コード": 19, "市区町村コード": 201, "所在地": "山梨県甲府市富士見１－１－１", "緯度": 35.671179, "経度": 138.549253, "url": "https://www.iryou.teikyouseido.mhlw.go.jp/znk-web/juminkanja/S2430/initialize?prefCd=19&kikanCd=1190000004&kikanKbn=1", "url2": "https://www.ych.pref.yamanashi.jp/", "内容": "地方独立行政法人山梨県立病院機構　山梨県立中央病院【1:病院】【診療科目:血液内科_糖尿病・内分泌内科_呼吸器内科_循環器内科_消化器内科_腎臓内科_神経内科_脳神経外科_呼吸器外科_心臓血管外科_消化器外科_乳腺外科_整形外科_形成外科_小児科_小児外科_新生児内科_産科_婦人科_眼科_耳鼻いんこう科_皮膚科_泌尿器科_精神科_歯科口腔外科_リハビリテーション科_放射線診断科_放射線治療科_病理診断科_臨床検査科_救急科_麻酔科】【一般病床数:622療養病床数:0精神病床数:4感染症病床数:2合計病床数:644】山梨県甲府市富士見１－１－１" }, "geometry": { "type": "Point", "coordinates": [ 138.549253, 35.671179 ] } },
{ "type": "Feature", "properties": { "ID": 1911190000005, "正式名称": "市立甲府病院", "機関区分": 1, "都道府県コード": 19, "市区町村コード": 201, "所在地": "山梨県甲府市増坪町３６６", "緯度": 35.634128, "経度": 138.591779, "url": "https://www.iryou.teikyouseido.mhlw.go.jp/znk-web/juminkanja/S2430/initialize?prefCd=19&kikanCd=1190000005&kikanKbn=1", "url2": "http://www.city-kofu-hp-.jp", "内容": "市立甲府病院【1:病院】【診療科目:内科_糖尿病内科_内分泌内科_呼吸器内科_循環器内科_消化器内科_腎臓内科_神経内科_緩和ケア内科_外科_脳神経外科_呼吸器外科_消化器外科_乳腺外科_整形外科_形成外科_小児科_産婦人科_眼科_耳鼻いんこう科_皮膚科_泌尿器科_精神科_歯科口腔外科_リハビリテーション科_放射線診断科_放射線治療科_病理診断科_救急科_麻酔科】【一般病床数:393療養病床数:0精神病床数:0感染症病床数:6合計病床数:399】山梨県甲府市増坪町３６６" }, "geometry": { "type": "Point", "coordinates": [ 138.591779, 35.634128 ] } },
{ "type": "Feature", "properties": { "ID": 1911190000006, "正式名称": "独立行政法人地域医療機能推進機構山梨病院", "機関区分": 1, "都道府県コード": 19, "市区町村コード": 201, "所在地": "山梨県甲府市朝日３－１１－１６", "緯度": 35.670818, "経度": 138.563724, "url": "https://www.iryou.teikyouseido.mhlw.go.jp/znk-web/juminkanja/S2430/initialize?prefCd=19&kikanCd=1190000006&kikanKbn=1", "url2": "https://yamanashi.jcho.go.jp", "内容": "独立行政法人地域医療機能推進機構山梨病院【1:病院】【診療科目:内科_血液内科_代謝・内分泌内科_脳神経内科_呼吸器内科_循環器内科_消化器内科_外科_消化器外科_乳腺外科_肛門外科_整形外科_婦人科_耳鼻いんこう科_皮膚科_リウマチ科_リハビリテーション科_放射線科_病理診断科_麻酔科】【一般病床数:168療養病床数:0精神病床数:0感染症病床数:0合計病床数:168】山梨県甲府市朝日３－１１－１６" }, "geometry": { "type": "Point", "coordinates": [ 138.563724, 35.670818 ] } },
{ "type": "Feature", "properties": { "ID": 1911190000008, "正式名称": "医療法人　山角会　山角病院", "機関区分": 1, "都道府県コード": 19, "市区町村コード": 201, "所在地": "山梨県甲府市美咲１－６－１０", "緯度": 35.673846, "経度": 138.562697, "url": "https://www.iryou.teikyouseido.mhlw.go.jp/znk-web/juminkanja/S2430/initialize?prefCd=19&kikanCd=1190000008&kikanKbn=1", "url2": "http://www.yamazumikai.jp", "内容": "医療法人　山角会　山角病院【1:病院】【診療科目:精神科】【一般病床数:0療養病床数:0精神病床数:209感染症病床数:0合計病床数:209】山梨県甲府市美咲１－６－１０" }, "geometry": { "type": "Point", "coordinates": [ 138.562697, 35.673846 ] } },
{ "type": "Feature", "properties": { "ID": 1911190000009, "正式名称": "医療法人武川会　武川病院", "機関区分": 1, "都道府県コード": 19, "市区町村コード": 384, "所在地": "山梨県中巨摩郡昭和町飯喰１２７７", "緯度": 35.622322, "経度": 138.519758, "url": "https://www.iryou.teikyouseido.mhlw.go.jp/znk-web/juminkanja/S2430/initialize?prefCd=19&kikanCd=1190000009&kikanKbn=1", "url2": "http://www.takekawa-hp.jp", "内容": "医療法人武川会　武川病院【1:病院】【診療科目:内科_循環器内科_心臓内科_消化器内科_外科_肛門外科_整形外科】【一般病床数:45療養病床数:0精神病床数:0感染症病床数:0合計病床数:45】山梨県中巨摩郡昭和町飯喰１２７７" }, "geometry": { "type": "Point", "coordinates": [ 138.519758, 35.622322 ] } },
{ "type": "Feature", "properties": { "ID": 1911190000010, "正式名称": "医療法人　小宮山会　貢川整形外科病院", "機関区分": 1, "都道府県コード": 19, "市区町村コード": 201, "所在地": "山梨県甲府市新田町１０－２６", "緯度": 35.664263, "経度": 138.536532, "url": "https://www.iryou.teikyouseido.mhlw.go.jp/znk-web/juminkanja/S2430/initialize?prefCd=19&kikanCd=1190000010&kikanKbn=1", "url2": "http://www.kugawaseikeigeka.com", "内容": "医療法人　小宮山会　貢川整形外科病院【1:病院】【診療科目:整形外科_リハビリテーション科_麻酔科】【一般病床数:53療養病床数:0精神病床数:0感染症病床数:0合計病床数:53】山梨県甲府市新田町１０－２６" }, "geometry": { "type": "Point", "coordinates": [ 138.536532, 35.664263 ] } },
{ "type": "Feature", "properties": { "ID": 1911190000011, "正式名称": "医療法人八香会湯村温泉病院", "機関区分": 1, "都道府県コード": 19, "市区町村コード": 201, "所在地": "山梨県甲府市湯村３－３－４", "緯度": 35.680564, "経度": 138.549278, "url": "https://www.iryou.teikyouseido.mhlw.go.jp/znk-web/juminkanja/S2430/initialize?prefCd=19&kikanCd=1190000011&kikanKbn=1", "url2": "https://www.yumura-reha.com/", "内容": "医療法人八香会湯村温泉病院【1:病院】【診療科目:内科_脳神経内科_呼吸器内科_消化器内科_外科_脳神経外科_整形外科_歯科_アレルギー科_リハビリテーション科_放射線科】【一般病床数:151療養病床数:39精神病床数:0感染症病床数:0合計病床数:190】山梨県甲府市湯村３－３－４" }, "geometry": { "type": "Point", "coordinates": [ 138.549278, 35.680564 ] } },
{ "type": "Feature", "properties": { "ID": 1911190000012, "正式名称": "医療法人慈光会　甲府城南病院", "機関区分": 1, "都道府県コード": 19, "市区町村コード": 201, "所在地": "山梨県甲府市上町７５３－１", "緯度": 35.629212, "経度": 138.595501, "url": "https://www.iryou.teikyouseido.mhlw.go.jp/znk-web/juminkanja/S2430/initialize?prefCd=19&kikanCd=1190000012&kikanKbn=1", "url2": "https://www.kofujonan.or.jp", "内容": "医療法人慈光会　甲府城南病院【1:病院】【診療科目:内科_循環器内科_脳神経外科_心臓血管外科】【一般病床数:74療養病床数:224精神病床数:0感染症病床数:0合計病床数:298】山梨県甲府市上町７５３－１" }, "geometry": { "type": "Point", "coordinates": [ 138.595501, 35.629212 ] } },
{ "type": "Feature", "properties": { "ID": 1911190000013, "正式名称": "医療法人甲療会赤坂台病院", "機関区分": 1, "都道府県コード": 19, "市区町村コード": 210, "所在地": "山梨県甲斐市竜王新町２１５０", "緯度": 35.678344, "経度": 138.507367, "url": "https://www.iryou.teikyouseido.mhlw.go.jp/znk-web/juminkanja/S2430/initialize?prefCd=19&kikanCd=1190000013&kikanKbn=1", "url2": "http://akasakadai.com", "内容": "医療法人甲療会赤坂台病院【1:病院】【診療科目:内科_呼吸器内科_消化器内科_神経内科_耳鼻いんこう科_リハビリテーション科】【一般病床数:48療養病床数:52精神病床数:0感染症病床数:0合計病床数:100】山梨県甲斐市竜王新町２１５０" }, "geometry": { "type": "Point", "coordinates": [ 138.507367, 35.678344 ] } },
{ "type": "Feature", "properties": { "ID": 1911190000014, "正式名称": "医療法人仁和会竜王リハビリテーション病院", "機関区分": 1, "都道府県コード": 19, "市区町村コード": 210, "所在地": "山梨県甲斐市万才２８７－７", "緯度": 35.650265, "経度": 138.530312, "url": "https://www.iryou.teikyouseido.mhlw.go.jp/znk-web/juminkanja/S2430/initialize?prefCd=19&kikanCd=1190000014&kikanKbn=1", "url2": "http://www.ryuo-rhp.or.jp", "内容": "医療法人仁和会竜王リハビリテーション病院【1:病院】【診療科目:内科_循環器内科_消化器内科_神経内科_リハビリテーション科】【一般病床数:0療養病床数:118精神病床数:0感染症病床数:0合計病床数:118】山梨県甲斐市万才２８７－７" }, "geometry": { "type": "Point", "coordinates": [ 138.530312, 35.650265 ] } },
{ "type": "Feature", "properties": { "ID": 1911190000015, "正式名称": "医療法人慶友会　城東病院", "機関区分": 1, "都道府県コード": 19, "市区町村コード": 201, "所在地": "山梨県甲府市城東４－１３－１５", "緯度": 35.657098, "経度": 138.581973, "url": "https://www.iryou.teikyouseido.mhlw.go.jp/znk-web/juminkanja/S2430/initialize?prefCd=19&kikanCd=1190000015&kikanKbn=1", "url2": "http://www.joto-group.com", "内容": "医療法人慶友会　城東病院【1:病院】【診療科目:内科】【一般病床数:0療養病床数:55精神病床数:0感染症病床数:0合計病床数:55】山梨県甲府市城東４－１３－１５" }, "geometry": { "type": "Point", "coordinates": [ 138.581973, 35.657098 ] } },
{ "type": "Feature", "properties": { "ID": 1911190000016, "正式名称": "医療法人社団　篠原会　甲府脳神経外科病院", "機関区分": 1, "都道府県コード": 19, "市区町村コード": 201, "所在地": "山梨県甲府市酒折１－１６－１８", "緯度": 35.65707, "経度": 138.595806, "url": "https://www.iryou.teikyouseido.mhlw.go.jp/znk-web/juminkanja/S2430/initialize?prefCd=19&kikanCd=1190000016&kikanKbn=1", "url2": "https://www.atama-pet.com", "内容": "医療法人社団　篠原会　甲府脳神経外科病院【1:病院】【診療科目:脳神経内科_脳神経外科_整形外科_歯科_歯科口腔外科_リハビリテーション科_放射線科】【一般病床数:70療養病床数:0精神病床数:0感染症病床数:0合計病床数:70】山梨県甲府市酒折１－１６－１８" }, "geometry": { "type": "Point", "coordinates": [ 138.595806, 35.65707 ] } },
{ "type": "Feature", "properties": { "ID": 1911190000017, "正式名称": "甲府共立病院", "機関区分": 1, "都道府県コード": 19, "市区町村コード": 201, "所在地": "山梨県甲府市宝１－９－１", "緯度": 35.667207, "経度": 138.564585, "url": "https://www.iryou.teikyouseido.mhlw.go.jp/znk-web/juminkanja/S2430/initialize?prefCd=19&kikanCd=1190000017&kikanKbn=1", "url2": "http://www.yamanashi-min.jp/kofukyouritsu/", "内容": "甲府共立病院【1:病院】【診療科目:内科_糖尿病内科_脳神経内科_呼吸器内科_循環器内科_消化器内科_腎臓内科_人工透析内科_神経内科_外科_呼吸器外科_心臓血管外科_消化器外科_乳腺外科_肛門外科_整形外科_小児科_小児外科_産婦人科_眼科_耳鼻いんこう科_精神科_リハビリテーション科_放射線診断科_病理診断科_臨床検査科_救急科_麻酔科】【一般病床数:283療養病床数:0精神病床数:0感染症病床数:0合計病床数:283】山梨県甲府市宝１－９－１" }, "geometry": { "type": "Point", "coordinates": [ 138.564585, 35.667207 ] } },
{ "type": "Feature", "properties": { "ID": 1911190000018, "正式名称": "公益財団法人　住吉偕成会　住吉病院", "機関区分": 1, "都道府県コード": 19, "市区町村コード": 201, "所在地": "山梨県甲府市住吉４－１０－３２", "緯度": 35.639628, "経度": 138.579002, "url": "https://www.iryou.teikyouseido.mhlw.go.jp/znk-web/juminkanja/S2430/initialize?prefCd=19&kikanCd=1190000018&kikanKbn=1", "url2": "https://www.sumiyoshi-kaisei.jp", "内容": "公益財団法人　住吉偕成会　住吉病院【1:病院】【診療科目:精神科】【一般病床数:0療養病床数:0精神病床数:249感染症病床数:0合計病床数:249】山梨県甲府市住吉４－１０－３２" }, "geometry": { "type": "Point", "coordinates": [ 138.579002, 35.639628 ] } },
{ "type": "Feature", "properties": { "ID": 1911190000019, "正式名称": "公益財団法人リヴィーズ　ＨＡＮＡＺＯＮＯホスピタル", "機関区分": 1, "都道府県コード": 19, "市区町村コード": 201, "所在地": "山梨県甲府市和田町２９６８", "緯度": 35.691399, "経度": 138.562501, "url": "https://www.iryou.teikyouseido.mhlw.go.jp/znk-web/juminkanja/S2430/initialize?prefCd=19&kikanCd=1190000019&kikanKbn=1", "url2": "http://www.liveith.jp", "内容": "公益財団法人リヴィーズ　ＨＡＮＡＺＯＮＯホスピタル【1:病院】【診療科目:精神科】【一般病床数:0療養病床数:0精神病床数:229感染症病床数:0合計病床数:229】山梨県甲府市和田町２９６８" }, "geometry": { "type": "Point", "coordinates": [ 138.562501, 35.691399 ] } },
{ "type": "Feature", "properties": { "ID": 1911190000021, "正式名称": "医療法人社団慈成会三枝病院", "機関区分": 1, "都道府県コード": 19, "市区町村コード": 210, "所在地": "山梨県甲斐市竜王新町１４４０", "緯度": 35.669706, "経度": 138.511895, "url": "https://www.iryou.teikyouseido.mhlw.go.jp/znk-web/juminkanja/S2430/initialize?prefCd=19&kikanCd=1190000021&kikanKbn=1", "url2": "http://saigusa-hp.com/", "内容": "医療法人社団慈成会三枝病院【1:病院】【診療科目:内科_呼吸器内科_循環器内科_胃腸内科_小児科_放射線科】【一般病床数:96療養病床数:0精神病床数:0感染症病床数:0合計病床数:96】山梨県甲斐市竜王新町１４４０" }, "geometry": { "type": "Point", "coordinates": [ 138.511895, 35.669706 ] } },
{ "type": "Feature", "properties": { "ID": 1911190000022, "正式名称": "医療法人恵信会　恵信甲府病院", "機関区分": 1, "都道府県コード": 19, "市区町村コード": 201, "所在地": "山梨県甲府市上阿原町３３８－１", "緯度": 35.645211, "経度": 138.611582, "url": "https://www.iryou.teikyouseido.mhlw.go.jp/znk-web/juminkanja/S2430/initialize?prefCd=19&kikanCd=1190000022&kikanKbn=1", "url2": "http://www.keishin-group.net/", "内容": "医療法人恵信会　恵信甲府病院【1:病院】【診療科目:内科_外科_リハビリテーション科】【一般病床数:0療養病床数:150精神病床数:0感染症病床数:0合計病床数:150】山梨県甲府市上阿原町３３８－１" }, "geometry": { "type": "Point", "coordinates": [ 138.611582, 35.645211 ] } },
{ "type": "Feature", "properties": { "ID": 1911190000023, "正式名称": "山梨市立牧丘病院", "機関区分": 1, "都道府県コード": 19, "市区町村コード": 205, "所在地": "山梨県山梨市牧丘町窪平３０２－２", "緯度": 35.740341, "経度": 138.715125, "url": "https://www.iryou.teikyouseido.mhlw.go.jp/znk-web/juminkanja/S2430/initialize?prefCd=19&kikanCd=1190000023&kikanKbn=1", "url2": "http://makioka.y-min.or.jp/", "内容": "山梨市立牧丘病院【1:病院】【診療科目:内科_消化器内科_小児科】【一般病床数:24療養病床数:0精神病床数:0感染症病床数:0合計病床数:24】山梨県山梨市牧丘町窪平３０２－２" }, "geometry": { "type": "Point", "coordinates": [ 138.715125, 35.740341 ] } },
{ "type": "Feature", "properties": { "ID": 1911190000024, "正式名称": "甲州市立　勝沼病院", "機関区分": 1, "都道府県コード": 19, "市区町村コード": 213, "所在地": "山梨県甲州市勝沼町勝沼９５０", "緯度": 35.669599, "経度": 138.725572, "url": "https://www.iryou.teikyouseido.mhlw.go.jp/znk-web/juminkanja/S2430/initialize?prefCd=19&kikanCd=1190000024&kikanKbn=1", "url2": "http://www6.ocn.ne.jp/~katunuma/index.html", "内容": "甲州市立　勝沼病院【1:病院】【診療科目:内科_外科_整形外科_眼科_耳鼻いんこう科_皮膚科_泌尿器科_リハビリテーション科】【一般病床数:39療養病床数:0精神病床数:0感染症病床数:0合計病床数:39】山梨県甲州市勝沼町勝沼９５０" }, "geometry": { "type": "Point", "coordinates": [ 138.725572, 35.669599 ] } },
{ "type": "Feature", "properties": { "ID": 1911190000025, "正式名称": "社会医療法人　加納岩　加納岩総合病院", "機関区分": 1, "都道府県コード": 19, "市区町村コード": 205, "所在地": "山梨県山梨市上神内川１３０９", "緯度": 35.689901, "経度": 138.683713, "url": "https://www.iryou.teikyouseido.mhlw.go.jp/znk-web/juminkanja/S2430/initialize?prefCd=19&kikanCd=1190000025&kikanKbn=1", "url2": "http://www.kanoiwa-hospital.or.jp/", "内容": "社会医療法人　加納岩　加納岩総合病院【1:病院】【診療科目:内科_糖尿病内科_呼吸器内科_循環器内科_消化器内科_腎臓内科_神経内科_外科_脳神経外科_心臓血管外科_消化器外科_整形外科_形成外科_婦人科_眼科_耳鼻いんこう科_皮膚科_泌尿器科_リハビリテーション科_麻酔科】【一般病床数:160療養病床数:0精神病床数:0感染症病床数:0合計病床数:160】山梨県山梨市上神内川１３０９" }, "geometry": { "type": "Point", "coordinates": [ 138.683713, 35.689901 ] } },
{ "type": "Feature", "properties": { "ID": 1911190000026, "正式名称": "社会医療法人　加納岩　日下部記念病院", "機関区分": 1, "都道府県コード": 19, "市区町村コード": 205, "所在地": "山梨県山梨市上神内川１３６３", "緯度": 35.690235, "経度": 138.683797, "url": "https://www.iryou.teikyouseido.mhlw.go.jp/znk-web/juminkanja/S2430/initialize?prefCd=19&kikanCd=1190000026&kikanKbn=1", "url2": "http://www.kusakabe-hp.jp", "内容": "社会医療法人　加納岩　日下部記念病院【1:病院】【診療科目:精神科_老年精神科】【一般病床数:0療養病床数:0精神病床数:282感染症病床数:0合計病床数:282】山梨県山梨市上神内川１３６３" }, "geometry": { "type": "Point", "coordinates": [ 138.683797, 35.690235 ] } },
{ "type": "Feature", "properties": { "ID": 1911190000027, "正式名称": "山梨リハビリテーション病院", "機関区分": 1, "都道府県コード": 19, "市区町村コード": 211, "所在地": "山梨県笛吹市春日居町小松８５５", "緯度": 35.660661, "経度": 138.657352, "url": "https://www.iryou.teikyouseido.mhlw.go.jp/znk-web/juminkanja/S2430/initialize?prefCd=19&kikanCd=1190000027&kikanKbn=1", "url2": "http://www.yamanashireha.jp", "内容": "山梨リハビリテーション病院【1:病院】【診療科目:内科_神経内科_脳神経外科_整形外科_小児科_皮膚科_リハビリテーション科】【一般病床数:0療養病床数:135精神病床数:0感染症病床数:0合計病床数:135】山梨県笛吹市春日居町小松８５５" }, "geometry": { "type": "Point", "coordinates": [ 138.657352, 35.660661 ] } },
{ "type": "Feature", "properties": { "ID": 1911190000028, "正式名称": "医療法人　景雲会　春日居総合リハビリテーション病院", "機関区分": 1, "都道府県コード": 19, "市区町村コード": 211, "所在地": "山梨県笛吹市春日居町国府４３６", "緯度": 35.660043, "経度": 138.652023, "url": "https://www.iryou.teikyouseido.mhlw.go.jp/znk-web/juminkanja/S2430/initialize?prefCd=19&kikanCd=1190000028&kikanKbn=1", "url2": "http://www.kasugai-reha.com", "内容": "医療法人　景雲会　春日居総合リハビリテーション病院【1:病院】【診療科目:内科_外科_脳神経外科_整形外科_リハビリテーション科_放射線科】【一般病床数:0療養病床数:200精神病床数:0感染症病床数:0合計病床数:200】山梨県笛吹市春日居町国府４３６" }, "geometry": { "type": "Point", "coordinates": [ 138.652023, 35.660043 ] } },
{ "type": "Feature", "properties": { "ID": 1911190000029, "正式名称": "公益財団法人　山梨厚生会　山梨厚生病院", "機関区分": 1, "都道府県コード": 19, "市区町村コード": 205, "所在地": "山梨県山梨市落合８６０", "緯度": 35.685846, "経度": 138.664438, "url": "https://www.iryou.teikyouseido.mhlw.go.jp/znk-web/juminkanja/S2430/initialize?prefCd=19&kikanCd=1190000029&kikanKbn=1", "url2": "http://www.kosei.jp/", "内容": "公益財団法人　山梨厚生会　山梨厚生病院【1:病院】【診療科目:内科_糖尿病内科_呼吸器内科_循環器内科_消化器内科_腎臓内科_神経内科_外科_脳神経外科_呼吸器外科_心臓血管外科_乳腺外科_肛門外科_整形外科_形成外科_小児科_婦人科_眼科_耳鼻いんこう科_皮膚科_泌尿器科_精神科_歯科_歯科口腔外科_リハビリテーション科_放射線診断科_麻酔科】【一般病床数:293療養病床数:0精神病床数:200感染症病床数:4合計病床数:497】山梨県山梨市落合８６０" }, "geometry": { "type": "Point", "coordinates": [ 138.664438, 35.685846 ] } },
{ "type": "Feature", "properties": { "ID": 1911190000030, "正式名称": "一般財団法人　山梨整肢更生会　富士温泉病院", "機関区分": 1, "都道府県コード": 19, "市区町村コード": 211, "所在地": "山梨県笛吹市春日居町小松１１７７", "緯度": 35.662488, "経度": 138.657939, "url": "https://www.iryou.teikyouseido.mhlw.go.jp/znk-web/juminkanja/S2430/initialize?prefCd=19&kikanCd=1190000030&kikanKbn=1", "url2": "http://fujionsen.jp/", "内容": "一般財団法人　山梨整肢更生会　富士温泉病院【1:病院】【診療科目:内科_神経内科_外科_脳神経外科_呼吸器外科_整形外科_リハビリテーション科】【一般病床数:122療養病床数:39精神病床数:0感染症病床数:0合計病床数:161】山梨県笛吹市春日居町小松１１７７" }, "geometry": { "type": "Point", "coordinates": [ 138.657939, 35.662488 ] } },
{ "type": "Feature", "properties": { "ID": 1911190000031, "正式名称": "公益財団法人山梨厚生会　塩山市民病院", "機関区分": 1, "都道府県コード": 19, "市区町村コード": 213, "所在地": "山梨県甲州市塩山西広門田４３３－１", "緯度": 35.694957, "経度": 138.721016, "url": "https://www.iryou.teikyouseido.mhlw.go.jp/znk-web/juminkanja/S2430/initialize?prefCd=19&kikanCd=1190000031&kikanKbn=1", "url2": "http://www.kosei.jp/enzan/", "内容": "公益財団法人山梨厚生会　塩山市民病院【1:病院】【診療科目:内科_内分泌内科_糖尿病・代謝内科_循環器内科_消化器内科_腎臓内科_神経内科_漢方内科_外科_脳神経外科_整形外科_小児科_婦人科_眼科_耳鼻いんこう科_皮膚科_泌尿器科_リハビリテーション科】【一般病床数:102療養病床数:59精神病床数:0感染症病床数:0合計病床数:161】山梨県甲州市塩山西広門田４３３－１" }, "geometry": { "type": "Point", "coordinates": [ 138.721016, 35.694957 ] } },
{ "type": "Feature", "properties": { "ID": 1911190000032, "正式名称": "医療法人社団協友会　笛吹中央病院", "機関区分": 1, "都道府県コード": 19, "市区町村コード": 211, "所在地": "山梨県笛吹市石和町四日市場４７－１", "緯度": 35.641183, "経度": 138.635358, "url": "https://www.iryou.teikyouseido.mhlw.go.jp/znk-web/juminkanja/S2430/initialize?prefCd=19&kikanCd=1190000032&kikanKbn=1", "url2": "http://www.fch.or.jp/", "内容": "医療法人社団協友会　笛吹中央病院【1:病院】【診療科目:内科_脳神経内科_呼吸器内科_消化器内科_外科_脳神経外科_消化器外科_整形外科_小児科_眼科_耳鼻いんこう科_皮膚科_リハビリテーション科_放射線科_麻酔科】【一般病床数:150療養病床数:0精神病床数:0感染症病床数:0合計病床数:150】山梨県笛吹市石和町四日市場４７－１" }, "geometry": { "type": "Point", "coordinates": [ 138.635358, 35.641183 ] } },
{ "type": "Feature", "properties": { "ID": 1911190000033, "正式名称": "医療法人　石和温泉病院", "機関区分": 1, "都道府県コード": 19, "市区町村コード": 211, "所在地": "山梨県笛吹市石和町八田３３０－５", "緯度": 35.655821, "経度": 138.640885, "url": "https://www.iryou.teikyouseido.mhlw.go.jp/znk-web/juminkanja/S2430/initialize?prefCd=19&kikanCd=1190000033&kikanKbn=1", "url2": "http://www.isawa-hsp.or.jp/", "内容": "医療法人　石和温泉病院【1:病院】【診療科目:内科_神経内科_外科_脳神経外科_整形外科_泌尿器科_リハビリテーション科】【一般病床数:186療養病床数:0精神病床数:0感染症病床数:0合計病床数:186】山梨県笛吹市石和町八田３３０－５" }, "geometry": { "type": "Point", "coordinates": [ 138.640885, 35.655821 ] } },
{ "type": "Feature", "properties": { "ID": 1911190000034, "正式名称": "医療法人銀門会　甲州リハビリテーション病院", "機関区分": 1, "都道府県コード": 19, "市区町村コード": 211, "所在地": "山梨県笛吹市石和町四日市場２０３１", "緯度": 35.645239, "経度": 138.625498, "url": "https://www.iryou.teikyouseido.mhlw.go.jp/znk-web/juminkanja/S2430/initialize?prefCd=19&kikanCd=1190000034&kikanKbn=1", "url2": "https://www.krg.ne.jp/rehabili/", "内容": "医療法人銀門会　甲州リハビリテーション病院【1:病院】【診療科目:内科_循環器内科_神経内科_脳神経外科_整形外科_精神科_歯科_リウマチ科_リハビリテーション科】【一般病床数:91療養病床数:89精神病床数:0感染症病床数:0合計病床数:180】山梨県笛吹市石和町四日市場２０３１" }, "geometry": { "type": "Point", "coordinates": [ 138.625498, 35.645239 ] } },
{ "type": "Feature", "properties": { "ID": 1911190000035, "正式名称": "医療法人桃花会　一宮温泉病院", "機関区分": 1, "都道府県コード": 19, "市区町村コード": 211, "所在地": "山梨県笛吹市一宮町坪井１７４５", "緯度": 35.653155, "経度": 138.663105, "url": "https://www.iryou.teikyouseido.mhlw.go.jp/znk-web/juminkanja/S2430/initialize?prefCd=19&kikanCd=1190000035&kikanKbn=1", "url2": "http://1nomiya.or.jp/", "内容": "医療法人桃花会　一宮温泉病院【1:病院】【診療科目:内科_糖尿病内科_循環器内科_消化器内科_神経内科_外科_整形外科_小児科_歯科_リハビリテーション科】【一般病床数:58療養病床数:46精神病床数:0感染症病床数:0合計病床数:104】山梨県笛吹市一宮町坪井１７４５" }, "geometry": { "type": "Point", "coordinates": [ 138.663105, 35.653155 ] } },
{ "type": "Feature", "properties": { "ID": 1911190000036, "正式名称": "公益社団法人　山梨勤労者医療協会　石和共立病院", "機関区分": 1, "都道府県コード": 19, "市区町村コード": 211, "所在地": "山梨県笛吹市石和町広瀬６２３", "緯度": 35.643017, "経度": 138.616888, "url": "https://www.iryou.teikyouseido.mhlw.go.jp/znk-web/juminkanja/S2430/initialize?prefCd=19&kikanCd=1190000036&kikanKbn=1", "url2": "https://isawakyouritsu.com/", "内容": "公益社団法人　山梨勤労者医療協会　石和共立病院【1:病院】【診療科目:内科_呼吸器内科_循環器内科_消化器内科_人工透析内科_神経内科_外科_小児科_精神科_リハビリテーション科_放射線科】【一般病床数:99療養病床数:0精神病床数:0感染症病床数:0合計病床数:99】山梨県笛吹市石和町広瀬６２３" }, "geometry": { "type": "Point", "coordinates": [ 138.616888, 35.643017 ] } },
{ "type": "Feature", "properties": { "ID": 1911190000037, "正式名称": "身延町早川町国民健康保険病院一部事務組合立飯富病院", "機関区分": 1, "都道府県コード": 19, "市区町村コード": 365, "所在地": "山梨県南巨摩郡身延町飯富１６２８", "緯度": 35.435508, "経度": 138.437912, "url": "https://www.iryou.teikyouseido.mhlw.go.jp/znk-web/juminkanja/S2430/initialize?prefCd=19&kikanCd=1190000037&kikanKbn=1", "url2": "http://iitomi.jp", "内容": "身延町早川町国民健康保険病院一部事務組合立飯富病院【1:病院】【診療科目:内科_外科_整形外科_眼科_耳鼻いんこう科_皮膚科_心療内科_リハビリテーション科_放射線科】【一般病床数:60療養病床数:0精神病床数:0感染症病床数:0合計病床数:60】山梨県南巨摩郡身延町飯富１６２８" }, "geometry": { "type": "Point", "coordinates": [ 138.437912, 35.435508 ] } },
{ "type": "Feature", "properties": { "ID": 1911190000039, "正式名称": "峡南医療センター企業団富士川病院", "機関区分": 1, "都道府県コード": 19, "市区町村コード": 368, "所在地": "山梨県南巨摩郡富士川町鰍沢３４０－１", "緯度": 35.549357, "経度": 138.465349, "url": "https://www.iryou.teikyouseido.mhlw.go.jp/znk-web/juminkanja/S2430/initialize?prefCd=19&kikanCd=1190000039&kikanKbn=1", "url2": "https://www.kyonan-mc.jp", "内容": "峡南医療センター企業団富士川病院【1:病院】【診療科目:内科_呼吸器内科_消化器内科_外科_脳神経外科_整形外科_小児科_皮膚科_泌尿器科_心療内科_リハビリテーション科_放射線科_病理診断科】【一般病床数:130療養病床数:14精神病床数:0感染症病床数:4合計病床数:148】山梨県南巨摩郡富士川町鰍沢３４０－１" }, "geometry": { "type": "Point", "coordinates": [ 138.465349, 35.549357 ] } },
{ "type": "Feature", "properties": { "ID": 1911190000040, "正式名称": "医療法人桃花会しもべ病院", "機関区分": 1, "都道府県コード": 19, "市区町村コード": 365, "所在地": "山梨県南巨摩郡身延町下部１０６３", "緯度": 35.424232, "経度": 138.47727, "url": "https://www.iryou.teikyouseido.mhlw.go.jp/znk-web/juminkanja/S2430/initialize?prefCd=19&kikanCd=1190000040&kikanKbn=1", "url2": "http://www.shimobe-hp.or.jp", "内容": "医療法人桃花会しもべ病院【1:病院】【診療科目:内科_外科_乳腺外科_整形外科_皮膚科_泌尿器科_リハビリテーション科】【一般病床数:0療養病床数:68精神病床数:0感染症病床数:0合計病床数:68】山梨県南巨摩郡身延町下部１０６３" }, "geometry": { "type": "Point", "coordinates": [ 138.47727, 35.424232 ] } },
{ "type": "Feature", "properties": { "ID": 1911190000041, "正式名称": "医療法人峡南会峡南病院", "機関区分": 1, "都道府県コード": 19, "市区町村コード": 368, "所在地": "山梨県南巨摩郡富士川町鰍沢１８０６", "緯度": 35.544025, "経度": 138.458406, "url": "https://www.iryou.teikyouseido.mhlw.go.jp/znk-web/juminkanja/S2430/initialize?prefCd=19&kikanCd=1190000041&kikanKbn=1", "url2": "https://www.kyonan.or.jp", "内容": "医療法人峡南会峡南病院【1:病院】【診療科目:内科_循環器内科_神経内科_外科_肛門外科_整形外科】【一般病床数:40療養病床数:0精神病床数:0感染症病床数:0合計病床数:40】山梨県南巨摩郡富士川町鰍沢１８０６" }, "geometry": { "type": "Point", "coordinates": [ 138.458406, 35.544025 ] } },
{ "type": "Feature", "properties": { "ID": 1911190000042, "正式名称": "公益財団法人　身延山病院", "機関区分": 1, "都道府県コード": 19, "市区町村コード": 365, "所在地": "山梨県南巨摩郡身延町梅平２４８３－１６７", "緯度": 35.370793, "経度": 138.443998, "url": "https://www.iryou.teikyouseido.mhlw.go.jp/znk-web/juminkanja/S2430/initialize?prefCd=19&kikanCd=1190000042&kikanKbn=1", "url2": "http://minobusanbyouin.or.jp", "内容": "公益財団法人　身延山病院【1:病院】【診療科目:内科_肝臓内科_神経内科_漢方内科_女性内科_外科_整形外科_小児科_眼科】【一般病床数:50療養病床数:30精神病床数:0感染症病床数:0合計病床数:80】山梨県南巨摩郡身延町梅平２４８３－１６７" }, "geometry": { "type": "Point", "coordinates": [ 138.443998, 35.370793 ] } },
{ "type": "Feature", "properties": { "ID": 1911190000043, "正式名称": "特定医療法人　南山会　峡西病院", "機関区分": 1, "都道府県コード": 19, "市区町村コード": 208, "所在地": "山梨県南アルプス市下宮地４２１", "緯度": 35.604156, "経度": 138.463485, "url": "https://www.iryou.teikyouseido.mhlw.go.jp/znk-web/juminkanja/S2430/initialize?prefCd=19&kikanCd=1190000043&kikanKbn=1", "url2": "http://www.nan-zan.or.jp", "内容": "特定医療法人　南山会　峡西病院【1:病院】【診療科目:精神科_老年精神科】【一般病床数:0療養病床数:0精神病床数:210感染症病床数:0合計病床数:210】山梨県南アルプス市下宮地４２１" }, "geometry": { "type": "Point", "coordinates": [ 138.463485, 35.604156 ] } },
{ "type": "Feature", "properties": { "ID": 1911190000044, "正式名称": "医療法人弘済会宮川病院", "機関区分": 1, "都道府県コード": 19, "市区町村コード": 208, "所在地": "山梨県南アルプス市上今諏訪１７５０", "緯度": 35.633988, "経度": 138.495565, "url": "https://www.iryou.teikyouseido.mhlw.go.jp/znk-web/juminkanja/S2430/initialize?prefCd=19&kikanCd=1190000044&kikanKbn=1", "url2": "http://www.miyagawa-hospital.com", "内容": "医療法人弘済会宮川病院【1:病院】【診療科目:内科_外科_整形外科】【一般病床数:41療養病床数:0精神病床数:0感染症病床数:0合計病床数:41】山梨県南アルプス市上今諏訪１７５０" }, "geometry": { "type": "Point", "coordinates": [ 138.495565, 35.633988 ] } },
{ "type": "Feature", "properties": { "ID": 1911190000045, "正式名称": "巨摩共立病院", "機関区分": 1, "都道府県コード": 19, "市区町村コード": 208, "所在地": "山梨県南アルプス市桃園３４０", "緯度": 35.629404, "経度": 138.462123, "url": "https://www.iryou.teikyouseido.mhlw.go.jp/znk-web/juminkanja/S2430/initialize?prefCd=19&kikanCd=1190000045&kikanKbn=1", "url2": "https://komakyouritsu.com/", "内容": "巨摩共立病院【1:病院】【診療科目:内科_脳神経内科_呼吸器内科_循環器内科_消化器内科_人工透析内科_外科_整形外科_小児科_眼科_リハビリテーション科】【一般病床数:103療養病床数:48精神病床数:0感染症病床数:0合計病床数:151】山梨県南アルプス市桃園３４０" }, "geometry": { "type": "Point", "coordinates": [ 138.462123, 35.629404 ] } },
{ "type": "Feature", "properties": { "ID": 1911190000046, "正式名称": "医療法人高原会　高原病院", "機関区分": 1, "都道府県コード": 19, "市区町村コード": 208, "所在地": "山梨県南アルプス市荊沢２５５", "緯度": 35.587047, "経度": 138.464542, "url": "https://www.iryou.teikyouseido.mhlw.go.jp/znk-web/juminkanja/S2430/initialize?prefCd=19&kikanCd=1190000046&kikanKbn=1", "url2": "http://www.takahara-hp.or.jp/", "内容": "医療法人高原会　高原病院【1:病院】【診療科目:内科_循環器内科_消化器内科】【一般病床数:0療養病床数:42精神病床数:0感染症病床数:0合計病床数:42】山梨県南アルプス市荊沢２５５" }, "geometry": { "type": "Point", "coordinates": [ 138.464542, 35.587047 ] } },
{ "type": "Feature", "properties": { "ID": 1911190000047, "正式名称": "医療法人徳洲会　白根徳洲会病院", "機関区分": 1, "都道府県コード": 19, "市区町村コード": 208, "所在地": "山梨県南アルプス市西野２２９４－２", "緯度": 35.638792, "経度": 138.478843, "url": "https://www.iryou.teikyouseido.mhlw.go.jp/znk-web/juminkanja/S2430/initialize?prefCd=19&kikanCd=1190000047&kikanKbn=1", "url2": "http://www.shiranetoku.jp", "内容": "医療法人徳洲会　白根徳洲会病院【1:病院】【診療科目:内科_糖尿病内科_呼吸器内科_循環器内科_消化器内科_腎臓内科_神経内科_外科_脳神経外科_呼吸器外科_心臓血管外科_消化器外科_整形外科_小児科_婦人科_耳鼻いんこう科_歯科口腔外科_リハビリテーション科_放射線科】【一般病床数:145療養病床数:54精神病床数:0感染症病床数:0合計病床数:199】山梨県南アルプス市西野２２９４－２" }, "geometry": { "type": "Point", "coordinates": [ 138.478843, 35.638792 ] } },
{ "type": "Feature", "properties": { "ID": 1911190000048, "正式名称": "山梨県立あけぼの医療福祉センター", "機関区分": 1, "都道府県コード": 19, "市区町村コード": 207, "所在地": "山梨県韮崎市旭町上條南割３２５１－１", "緯度": 35.668733, "経度": 138.446929, "url": "https://www.iryou.teikyouseido.mhlw.go.jp/znk-web/juminkanja/S2430/initialize?prefCd=19&kikanCd=1190000048&kikanKbn=1", "url2": "https://www.pref.yamanashi.jp/akbn-iryo/index.html", "内容": "山梨県立あけぼの医療福祉センター【1:病院】【診療科目:整形外科_小児科_皮膚科_泌尿器科_歯科_リハビリテーション科】【一般病床数:98療養病床数:0精神病床数:0感染症病床数:0合計病床数:98】山梨県韮崎市旭町上條南割３２５１－１" }, "geometry": { "type": "Point", "coordinates": [ 138.446929, 35.668733 ] } },
{ "type": "Feature", "properties": { "ID": 1911190000049, "正式名称": "山梨県立北病院", "機関区分": 1, "都道府県コード": 19, "市区町村コード": 207, "所在地": "山梨県韮崎市旭町上條南割３３１４－１３", "緯度": 35.666011, "経度": 138.438096, "url": "https://www.iryou.teikyouseido.mhlw.go.jp/znk-web/juminkanja/S2430/initialize?prefCd=19&kikanCd=1190000049&kikanKbn=1", "url2": "https://www.ych.pref.yamanashi.jp/kitabyo/", "内容": "山梨県立北病院【1:病院】【診療科目:精神科】【一般病床数:0療養病床数:0精神病床数:188感染症病床数:0合計病床数:188】山梨県韮崎市旭町上條南割３３１４－１３" }, "geometry": { "type": "Point", "coordinates": [ 138.438096, 35.666011 ] } },
{ "type": "Feature", "properties": { "ID": 1911190000050, "正式名称": "韮崎市国民健康保険韮崎市立病院", "機関区分": 1, "都道府県コード": 19, "市区町村コード": 207, "所在地": "山梨県韮崎市本町３－５－３", "緯度": 35.701952, "経度": 138.457259, "url": "https://www.iryou.teikyouseido.mhlw.go.jp/znk-web/juminkanja/S2430/initialize?prefCd=19&kikanCd=1190000050&kikanKbn=1", "url2": "http://www.nirasaki-cityhospital.jp/", "内容": "韮崎市国民健康保険韮崎市立病院【1:病院】【診療科目:内科_糖尿病内科_呼吸器内科_循環器内科_消化器内科_外科_脳神経外科_呼吸器外科_消化器外科_乳腺外科_整形外科_小児科_眼科_皮膚科_泌尿器科_リウマチ科_リハビリテーション科_放射線科】【一般病床数:137療養病床数:34精神病床数:0感染症病床数:0合計病床数:171】山梨県韮崎市本町３－５－３" }, "geometry": { "type": "Point", "coordinates": [ 138.457259, 35.701952 ] } },
{ "type": "Feature", "properties": { "ID": 1911190000051, "正式名称": "北杜市立甲陽病院", "機関区分": 1, "都道府県コード": 19, "市区町村コード": 209, "所在地": "山梨県北杜市長坂町大八田３９５４", "緯度": 35.830493, "経度": 138.383177, "url": "https://www.iryou.teikyouseido.mhlw.go.jp/znk-web/juminkanja/S2430/initialize?prefCd=19&kikanCd=1190000051&kikanKbn=1", "url2": "https://www.kouyou-hp.info/", "内容": "北杜市立甲陽病院【1:病院】【診療科目:内科_糖尿病・内分泌内科_循環器内科_消化器内科_人工透析内科_神経内科_外科_脳神経外科_消化器外科_整形外科_小児科_婦人科_眼科_皮膚科_泌尿器科_リハビリテーション科】【一般病床数:86療養病床数:32精神病床数:0感染症病床数:4合計病床数:122】山梨県北杜市長坂町大八田３９５４" }, "geometry": { "type": "Point", "coordinates": [ 138.383177, 35.830493 ] } },
{ "type": "Feature", "properties": { "ID": 1911190000052, "正式名称": "北杜市立塩川病院", "機関区分": 1, "都道府県コード": 19, "市区町村コード": 209, "所在地": "山梨県北杜市須玉町藤田７７３", "緯度": 35.778887, "経度": 138.427314, "url": "https://www.iryou.teikyouseido.mhlw.go.jp/znk-web/juminkanja/S2430/initialize?prefCd=19&kikanCd=1190000052&kikanKbn=1", "url2": "http://cf759334.cloudfree.jp/", "内容": "北杜市立塩川病院【1:病院】【診療科目:内科_呼吸器内科_循環器内科_消化器内科_腎臓内科_人工透析内科_外科_整形外科_小児科_眼科_皮膚科_泌尿器科_精神科_リハビリテーション科_放射線科】【一般病床数:54療養病床数:54精神病床数:0感染症病床数:0合計病床数:108】山梨県北杜市須玉町藤田７７３" }, "geometry": { "type": "Point", "coordinates": [ 138.427314, 35.778887 ] } },
{ "type": "Feature", "properties": { "ID": 1911190000053, "正式名称": "韮崎東ケ丘病院", "機関区分": 1, "都道府県コード": 19, "市区町村コード": 207, "所在地": "山梨県韮崎市穂坂町宮久保１２１６", "緯度": 35.722172, "経度": 138.462036, "url": "https://www.iryou.teikyouseido.mhlw.go.jp/znk-web/juminkanja/S2430/initialize?prefCd=19&kikanCd=1190000053&kikanKbn=1", "url2": "http://higashigaoka.com/", "内容": "韮崎東ケ丘病院【1:病院】【診療科目:精神科_心療内科_老年精神科】【一般病床数:0療養病床数:48精神病床数:99感染症病床数:0合計病床数:147】山梨県韮崎市穂坂町宮久保１２１６" }, "geometry": { "type": "Point", "coordinates": [ 138.462036, 35.722172 ] } },
{ "type": "Feature", "properties": { "ID": 1911190000054, "正式名称": "医療法人恵信韮崎会　恵信韮崎病院", "機関区分": 1, "都道府県コード": 19, "市区町村コード": 207, "所在地": "山梨県韮崎市一ツ谷１８６５－１", "緯度": 35.717594, "経度": 138.436261, "url": "https://www.iryou.teikyouseido.mhlw.go.jp/znk-web/juminkanja/S2430/initialize?prefCd=19&kikanCd=1190000054&kikanKbn=1", "url2": "https://keishin-group.net/iryou/nirasaki/", "内容": "医療法人恵信韮崎会　恵信韮崎病院【1:病院】【診療科目:内科_糖尿病内科_腎臓内科_人工透析内科_外科_整形外科_リハビリテーション科】【一般病床数:27療養病床数:37精神病床数:0感染症病床数:0合計病床数:64】山梨県韮崎市一ツ谷１８６５－１" }, "geometry": { "type": "Point", "coordinates": [ 138.436261, 35.717594 ] } },
{ "type": "Feature", "properties": { "ID": 1911190000055, "正式名称": "医療法人　恵信韮崎会　恵信リハビリテーション病院", "機関区分": 1, "都道府県コード": 19, "市区町村コード": 210, "所在地": "山梨県甲斐市岩森１１１１", "緯度": 35.692759, "経度": 138.494729, "url": "https://www.iryou.teikyouseido.mhlw.go.jp/znk-web/juminkanja/S2430/initialize?prefCd=19&kikanCd=1190000055&kikanKbn=1", "url2": "http://www.keishin-group.net/rihoku/index.html", "内容": "医療法人　恵信韮崎会　恵信リハビリテーション病院【1:病院】【診療科目:内科_外科_リハビリテーション科】【一般病床数:0療養病床数:92精神病床数:0感染症病床数:0合計病床数:92】山梨県甲斐市岩森１１１１" }, "geometry": { "type": "Point", "coordinates": [ 138.494729, 35.692759 ] } },
{ "type": "Feature", "properties": { "ID": 1911190000056, "正式名称": "国民健康保険　富士吉田市立病院", "機関区分": 1, "都道府県コード": 19, "市区町村コード": 202, "所在地": "山梨県富士吉田市上吉田東７－１１－１", "緯度": 35.474038, "経度": 138.802019, "url": "https://www.iryou.teikyouseido.mhlw.go.jp/znk-web/juminkanja/S2430/initialize?prefCd=19&kikanCd=1190000056&kikanKbn=1", "url2": "https://www.fymh.jp/", "内容": "国民健康保険　富士吉田市立病院【1:病院】【診療科目:内科_糖尿病・内分泌内科_脳神経内科_呼吸器内科_循環器内科_消化器内科_腎臓内科_膠原病内科_外科_脳神経外科_呼吸器外科_心臓血管外科_消化器外科_乳腺外科_乳腺・内分泌外科_整形外科_形成外科_小児科_産婦人科_眼科_耳鼻いんこう科_皮膚科_泌尿器科_精神科_歯科口腔外科_リウマチ科_リハビリテーション科_放射線科_救急科_麻酔科】【一般病床数:256療養病床数:50精神病床数:0感染症病床数:4合計病床数:310】山梨県富士吉田市上吉田東７－１１－１" }, "geometry": { "type": "Point", "coordinates": [ 138.802019, 35.474038 ] } },
{ "type": "Feature", "properties": { "ID": 1911190000057, "正式名称": "日本赤十字社　山梨県支部　山梨赤十字病院", "機関区分": 1, "都道府県コード": 19, "市区町村コード": 430, "所在地": "山梨県南都留郡富士河口湖町船津６６６３－１", "緯度": 35.486786, "経度": 138.769521, "url": "https://www.iryou.teikyouseido.mhlw.go.jp/znk-web/juminkanja/S2430/initialize?prefCd=19&kikanCd=1190000057&kikanKbn=1", "url2": "http://www.yamanashi-med.jrc.or.jp/", "内容": "日本赤十字社　山梨県支部　山梨赤十字病院【1:病院】【診療科目:内科_呼吸器内科_循環器内科_消化器内科_腎臓内科_外科_脳神経外科_心臓血管外科_整形外科_形成外科_小児科_産婦人科_眼科_耳鼻いんこう科_皮膚科_泌尿器科_歯科口腔外科_リハビリテーション科_放射線科_麻酔科】【一般病床数:219療養病床数:45精神病床数:0感染症病床数:0合計病床数:264】山梨県南都留郡富士河口湖町船津６６６３－１" }, "geometry": { "type": "Point", "coordinates": [ 138.769521, 35.486786 ] } },
{ "type": "Feature", "properties": { "ID": 1911190000058, "正式名称": "地方独立行政法人大月市立中央病院", "機関区分": 1, "都道府県コード": 19, "市区町村コード": 206, "所在地": "山梨県大月市大月町花咲１２２５", "緯度": 35.607577, "経度": 138.936029, "url": "https://www.iryou.teikyouseido.mhlw.go.jp/znk-web/juminkanja/S2430/initialize?prefCd=19&kikanCd=1190000058&kikanKbn=1", "url2": "https://otsuki-hosp.jp/", "内容": "地方独立行政法人大月市立中央病院【1:病院】【診療科目:内科_外科_脳神経外科_整形外科_小児科_婦人科_眼科_耳鼻いんこう科_皮膚科_泌尿器科_歯科口腔外科_リハビリテーション科_放射線科_麻酔科】【一般病床数:138療養病床数:42精神病床数:0感染症病床数:4合計病床数:184】山梨県大月市大月町花咲１２２５" }, "geometry": { "type": "Point", "coordinates": [ 138.936029, 35.607577 ] } },
{ "type": "Feature", "properties": { "ID": 1911190000059, "正式名称": "都留市立病院", "機関区分": 1, "都道府県コード": 19, "市区町村コード": 204, "所在地": "山梨県都留市つる五丁目１番５５号", "緯度": 35.56278, "経度": 138.903146, "url": "https://www.iryou.teikyouseido.mhlw.go.jp/znk-web/juminkanja/S2430/initialize?prefCd=19&kikanCd=1190000059&kikanKbn=1", "url2": "https://www.city.tsuru.yamanashi.jp/byoin/", "内容": "都留市立病院【1:病院】【診療科目:内科_外科_脳神経外科_呼吸器外科_消化器外科_整形外科_形成外科_小児科_産婦人科_眼科_耳鼻いんこう科_皮膚科_泌尿器科_リハビリテーション科】【一般病床数:126療養病床数:0精神病床数:0感染症病床数:0合計病床数:126】山梨県都留市つる五丁目１番５５号" }, "geometry": { "type": "Point", "coordinates": [ 138.903146, 35.56278 ] } },
{ "type": "Feature", "properties": { "ID": 1911190000060, "正式名称": "上野原市立病院", "機関区分": 1, "都道府県コード": 19, "市区町村コード": 212, "所在地": "山梨県上野原市上野原３５０４－３", "緯度": 35.631249, "経度": 139.111541, "url": "https://www.iryou.teikyouseido.mhlw.go.jp/znk-web/juminkanja/S2430/initialize?prefCd=19&kikanCd=1190000060&kikanKbn=1", "url2": "https://www.uenohara-jadecom.jp/index.php", "内容": "上野原市立病院【1:病院】【診療科目:内科_外科_脳神経外科_肛門外科_整形外科_小児科_婦人科_眼科_耳鼻いんこう科_皮膚科_泌尿器科_リハビリテーション科_放射線科_麻酔科】【一般病床数:135療養病床数:0精神病床数:0感染症病床数:0合計病床数:135】山梨県上野原市上野原３５０４－３" }, "geometry": { "type": "Point", "coordinates": [ 139.111541, 35.631249 ] } },
{ "type": "Feature", "properties": { "ID": 1911190000061, "正式名称": "医療法人　回生堂病院", "機関区分": 1, "都道府県コード": 19, "市区町村コード": 204, "所在地": "山梨県都留市四日市場２７０", "緯度": 35.567724, "経度": 138.9132, "url": "https://www.iryou.teikyouseido.mhlw.go.jp/znk-web/juminkanja/S2430/initialize?prefCd=19&kikanCd=1190000061&kikanKbn=1", "url2": "http://www.kaisei-do.jp/", "内容": "医療法人　回生堂病院【1:病院】【診療科目:精神科_心療内科_放射線科】【一般病床数:0療養病床数:0精神病床数:220感染症病床数:0合計病床数:220】山梨県都留市四日市場２７０" }, "geometry": { "type": "Point", "coordinates": [ 138.9132, 35.567724 ] } },
{ "type": "Feature", "properties": { "ID": 1911190000062, "正式名称": "公益財団法人三生会　三生会病院", "機関区分": 1, "都道府県コード": 19, "市区町村コード": 212, "所在地": "山梨県上野原市上野原１１８５", "緯度": 35.62575, "経度": 139.120041, "url": "https://www.iryou.teikyouseido.mhlw.go.jp/znk-web/juminkanja/S2430/initialize?prefCd=19&kikanCd=1190000062&kikanKbn=1", "url2": "https://www.sanseikai3.org", "内容": "公益財団法人三生会　三生会病院【1:病院】【診療科目:精神科】【一般病床数:0療養病床数:0精神病床数:258感染症病床数:0合計病床数:258】山梨県上野原市上野原１１８５" }, "geometry": { "type": "Point", "coordinates": [ 139.120041, 35.62575 ] } },
{ "type": "Feature", "properties": { "ID": 1911190000063, "正式名称": "社会医療法人青虎会　　ツル虎ノ門整形外科・リハビリテーション病院", "機関区分": 1, "都道府県コード": 19, "市区町村コード": 204, "所在地": "山梨県都留市四日市場１８８", "緯度": 35.562642, "経度": 138.918172, "url": "https://www.iryou.teikyouseido.mhlw.go.jp/znk-web/juminkanja/S2430/initialize?prefCd=19&kikanCd=1190000063&kikanKbn=1", "url2": "http://www.toranomon.or.jp/turu/index.html", "内容": "社会医療法人青虎会　　ツル虎ノ門整形外科・リハビリテーション病院【1:病院】【診療科目:外科_脳神経外科_整形外科_リハビリテーション科】【一般病床数:37療養病床数:0精神病床数:0感染症病床数:0合計病床数:37】山梨県都留市四日市場１８８" }, "geometry": { "type": "Point", "coordinates": [ 138.918172, 35.562642 ] } }
]
}
