{
"type": "FeatureCollection",
"name": "geo_19_認知症対応型共同生活介護",
"crs": { "type": "name", "properties": { "name": "urn:ogc:def:crs:OGC:1.3:CRS84" } },
"features": [
{ "type": "Feature", "properties": { "内容": "パナ介護地域グループホーム【認知症対応型共同生活介護】甲府市国玉町1153", "url": "https://www.kaigokensaku.mhlw.go.jp/19/index.php?action_kouhyou_detail_004_kani=true&JigyosyoCd=1990100115-00&ServiceCd=320&Type=search", "url2": "www.toyo.eei.jp" }, "geometry": { "type": "Point", "coordinates": [ 138.598627299999976, 35.6510736 ] } },
{ "type": "Feature", "properties": { "内容": "社会福祉法人ひかりの里　めだかの学校　悠ゆう【認知症対応型共同生活介護】甲府市武田2－8－17", "url": "https://www.kaigokensaku.mhlw.go.jp/19/index.php?action_kouhyou_detail_004_kani=true&JigyosyoCd=1990100024-00&ServiceCd=320&Type=search", "url2": "http://www.hikarinosato.com" }, "geometry": { "type": "Point", "coordinates": [ 138.570714700000053, 35.6711873 ] } },
{ "type": "Feature", "properties": { "内容": "グループホーム　めだかの学校湯村【認知症対応型共同生活介護】湯村３－１１－１０", "url": "https://www.kaigokensaku.mhlw.go.jp/19/index.php?action_kouhyou_detail_004_kani=true&JigyosyoCd=1990100198-00&ServiceCd=320&Type=search", "url2": "http://www.hikarinosato.com" }, "geometry": { "type": "Point", "coordinates": [ 138.54816930000004, 35.6827294 ] } },
{ "type": "Feature", "properties": { "内容": "グループホーム　めだかの学校　千塚公園西【認知症対応型共同生活介護】甲府市千塚３丁目9－31", "url": "https://www.kaigokensaku.mhlw.go.jp/19/index.php?action_kouhyou_detail_004_kani=true&JigyosyoCd=1990100222-00&ServiceCd=320&Type=search", "url2": "http://www.hikarinosato.com" }, "geometry": { "type": "Point", "coordinates": [ 138.5397259, 35.683268 ] } },
{ "type": "Feature", "properties": { "内容": "グループホーム「笑がお」【認知症対応型共同生活介護】山梨県甲府市羽黒町１４６１番地１", "url": "https://www.kaigokensaku.mhlw.go.jp/19/index.php?action_kouhyou_detail_004_kani=true&JigyosyoCd=1970101752-00&ServiceCd=320&Type=search", "url2": "http://www.kofu-egao.com/" }, "geometry": { "type": "Point", "coordinates": [ 138.543483400000014, 35.6941832 ] } },
{ "type": "Feature", "properties": { "内容": "グループホーム　めだかの学校　高畑【認知症対応型共同生活介護】高畑2丁目16-11", "url": "https://www.kaigokensaku.mhlw.go.jp/19/index.php?action_kouhyou_detail_004_kani=true&JigyosyoCd=1990100545-00&ServiceCd=320&Type=search", "url2": null }, "geometry": { "type": "Point", "coordinates": [ 136.8505937, 35.1440106 ] } },
{ "type": "Feature", "properties": { "内容": "グループホームわかば【認知症対応型共同生活介護】甲府市古上条町163-1", "url": "https://www.kaigokensaku.mhlw.go.jp/19/index.php?action_kouhyou_detail_004_kani=true&JigyosyoCd=1970101927-00&ServiceCd=320&Type=search", "url2": null }, "geometry": { "type": "Point", "coordinates": [ 138.558651200000014, 35.6283593 ] } },
{ "type": "Feature", "properties": { "内容": "グループホーム　あかし【認知症対応型共同生活介護】甲府市上町２４６３番地", "url": "https://www.kaigokensaku.mhlw.go.jp/19/index.php?action_kouhyou_detail_004_kani=true&JigyosyoCd=1970101174-00&ServiceCd=320&Type=search", "url2": "http://www.akashi.or.jp" }, "geometry": { "type": "Point", "coordinates": [ 138.5850318, 35.6308126 ] } },
{ "type": "Feature", "properties": { "内容": "グループホーム花みずき【認知症対応型共同生活介護】上阿原町５３６－１", "url": "https://www.kaigokensaku.mhlw.go.jp/19/index.php?action_kouhyou_detail_004_kani=true&JigyosyoCd=1990101006-00&ServiceCd=320&Type=search", "url2": null }, "geometry": { "type": "Point", "coordinates": [ 138.60637102156528, 35.644274902436926 ] } },
{ "type": "Feature", "properties": { "内容": "グループホーム宿の里【認知症対応型共同生活介護】山梨県甲府市右左口８０５－６", "url": "https://www.kaigokensaku.mhlw.go.jp/19/index.php?action_kouhyou_detail_004_kani=true&JigyosyoCd=1990100248-00&ServiceCd=320&Type=search", "url2": null }, "geometry": { "type": "Point", "coordinates": [ 138.590178899999955, 35.5732756 ] } },
{ "type": "Feature", "properties": { "内容": "グループホームわがや【認知症対応型共同生活介護】甲府市若松町6-35共立介護福祉センターわかまつ", "url": "https://www.kaigokensaku.mhlw.go.jp/19/index.php?action_kouhyou_detail_004_kani=true&JigyosyoCd=1970101935-00&ServiceCd=320&Type=search", "url2": "https://ykf.or.jp" }, "geometry": { "type": "Point", "coordinates": [ 138.571517300000011, 35.6555216 ] } },
{ "type": "Feature", "properties": { "内容": "グループホーム青沼【認知症対応型共同生活介護】山梨県甲府市青沼2丁目23番1号", "url": "https://www.kaigokensaku.mhlw.go.jp/19/index.php?action_kouhyou_detail_004_kani=true&JigyosyoCd=1970101315-00&ServiceCd=320&Type=search", "url2": "fate8963@gmail.com" }, "geometry": { "type": "Point", "coordinates": [ 138.5790476, 35.65269 ] } },
{ "type": "Feature", "properties": { "内容": "風林荘グループホーム【認知症対応型共同生活介護】山梨県甲府市宮原町１１９１", "url": "https://www.kaigokensaku.mhlw.go.jp/19/index.php?action_kouhyou_detail_004_kani=true&JigyosyoCd=1990100289-00&ServiceCd=320&Type=search", "url2": "http:fuurinsou.com" }, "geometry": { "type": "Point", "coordinates": [ 138.557206800000017, 35.6176865 ] } },
{ "type": "Feature", "properties": { "内容": "医療法人　笹本会　グループホームおおくにの家【認知症対応型共同生活介護】山梨県甲府市大里町5323", "url": "https://www.kaigokensaku.mhlw.go.jp/19/index.php?action_kouhyou_detail_004_kani=true&JigyosyoCd=1970101232-00&ServiceCd=320&Type=search", "url2": "http://sasamotokai.net/sasamotokai/gh-ookuni" }, "geometry": { "type": "Point", "coordinates": [ 138.558368200000018, 35.6248123 ] } },
{ "type": "Feature", "properties": { "内容": "ツクイ甲府富士見【認知症対応型共同生活介護】山梨県甲府市富士見2-2-26", "url": "https://www.kaigokensaku.mhlw.go.jp/19/index.php?action_kouhyou_detail_004_kani=true&JigyosyoCd=1990100891-00&ServiceCd=320&Type=search", "url2": "https://www.tsukui.net/group/2754/" }, "geometry": { "type": "Point", "coordinates": [ 138.548630847885107, 35.671870745729926 ] } },
{ "type": "Feature", "properties": { "内容": "やさしい手　グループホームこうふ西【認知症対応型共同生活介護】山梨県甲府市上石田1-8-23", "url": "https://www.kaigokensaku.mhlw.go.jp/19/index.php?action_kouhyou_detail_004_kani=true&JigyosyoCd=1990100446-00&ServiceCd=320&Type=search", "url2": "http://www.yasashiite-kofu.co.jp" }, "geometry": { "type": "Point", "coordinates": [ 138.55332168769678, 35.658329931304145 ] } },
{ "type": "Feature", "properties": { "内容": "はなまるホーム甲府山宮【認知症対応型共同生活介護】山梨県甲府市山宮町2904はなまるホーム甲府山宮", "url": "https://www.kaigokensaku.mhlw.go.jp/19/index.php?action_kouhyou_detail_004_kani=true&JigyosyoCd=1990100586-00&ServiceCd=320&Type=search", "url2": "https://www.aiseifukushi.jp/" }, "geometry": { "type": "Point", "coordinates": [ 138.533631057590213, 35.693297358065955 ] } },
{ "type": "Feature", "properties": { "内容": "グループホームふるかみの家【認知症対応型共同生活介護】甲府市古上条町424-5", "url": "https://www.kaigokensaku.mhlw.go.jp/19/index.php?action_kouhyou_detail_004_kani=true&JigyosyoCd=1990100214-00&ServiceCd=320&Type=search", "url2": "http://wwwsasamotokai.net/sasanohakai/index.html" }, "geometry": { "type": "Point", "coordinates": [ 138.560842800000046, 35.6303671 ] } },
{ "type": "Feature", "properties": { "内容": "愛の家グループホーム甲府中央【認知症対応型共同生活介護】山梨県甲府市中央2丁目7番17号", "url": "https://www.kaigokensaku.mhlw.go.jp/19/index.php?action_kouhyou_detail_004_kani=true&JigyosyoCd=1990100420-00&ServiceCd=320&Type=search", "url2": "https://mcs-ainoie.com/search/yamanashi/kofushi/gh197/" }, "geometry": { "type": "Point", "coordinates": [ 138.5734924, 35.6634243 ] } },
{ "type": "Feature", "properties": { "内容": "甲府ケアセンターそよ風【認知症対応型共同生活介護】山梨県甲府市富竹3-3-5", "url": "https://www.kaigokensaku.mhlw.go.jp/19/index.php?action_kouhyou_detail_004_kani=true&JigyosyoCd=1970101554-00&ServiceCd=320&Type=search", "url2": "https://www.sykz.co.jp/" }, "geometry": { "type": "Point", "coordinates": [ 138.542565500000023, 35.6555718 ] } },
{ "type": "Feature", "properties": { "内容": "グループホーム　　めだかの学校　シニア【認知症対応型共同生活介護】甲府市武田1－3－23", "url": "https://www.kaigokensaku.mhlw.go.jp/19/index.php?action_kouhyou_detail_004_kani=true&JigyosyoCd=1970101844-00&ServiceCd=320&Type=search", "url2": "http://www.hikarinosato.com" }, "geometry": { "type": "Point", "coordinates": [ 138.5703561, 35.6718621 ] } },
{ "type": "Feature", "properties": { "内容": "愛の家グループホーム甲府増坪【認知症対応型共同生活介護】山梨県甲府市増坪町338", "url": "https://www.kaigokensaku.mhlw.go.jp/19/index.php?action_kouhyou_detail_004_kani=true&JigyosyoCd=1970101745-00&ServiceCd=320&Type=search", "url2": "http://www.mcsg.co.jp" }, "geometry": { "type": "Point", "coordinates": [ 138.5905632, 35.6326304 ] } },
{ "type": "Feature", "properties": { "内容": "愛の家グループホーム甲府住吉【認知症対応型共同生活介護】山梨県甲府市住吉本町1398-1", "url": "https://www.kaigokensaku.mhlw.go.jp/19/index.php?action_kouhyou_detail_004_kani=true&JigyosyoCd=1990100305-00&ServiceCd=320&Type=search", "url2": "http://www.mcsg.co.jp" }, "geometry": { "type": "Point", "coordinates": [ 138.587068, 35.6372391 ] } },
{ "type": "Feature", "properties": { "内容": "愛の家グループホーム甲府後屋【認知症対応型共同生活介護】山梨県甲府市後屋町９７－１", "url": "https://www.kaigokensaku.mhlw.go.jp/19/index.php?action_kouhyou_detail_004_kani=true&JigyosyoCd=1970101604-00&ServiceCd=320&Type=search", "url2": "https://mcs-ainoie.com/search/yamanashi/kofushi/gh030/" }, "geometry": { "type": "Point", "coordinates": [ 138.5646616, 35.6285442 ] } },
{ "type": "Feature", "properties": { "内容": "しあわせホーム甲府【認知症対応型共同生活介護】甲府市城東３丁目７－１１", "url": "https://www.kaigokensaku.mhlw.go.jp/19/index.php?action_kouhyou_detail_004_kani=true&JigyosyoCd=1990100149-00&ServiceCd=320&Type=search", "url2": "http://kofu.shiawasehome.net" }, "geometry": { "type": "Point", "coordinates": [ 138.5866679, 35.6593441 ] } },
{ "type": "Feature", "properties": { "内容": "愛の家グループホーム甲府朝気【認知症対応型共同生活介護】山梨県甲府市朝気3丁目9番16号", "url": "https://www.kaigokensaku.mhlw.go.jp/19/index.php?action_kouhyou_detail_004_kani=true&JigyosyoCd=1990100842-00&ServiceCd=320&Type=search", "url2": "https://mcs-ainoie.com/search/yamanashi/kofushi/gh280/" }, "geometry": { "type": "Point", "coordinates": [ 138.5791053, 35.6512424 ] } },
{ "type": "Feature", "properties": { "内容": "グループホーム青葉町日和【認知症対応型共同生活介護】甲府市青葉町14-15", "url": "https://www.kaigokensaku.mhlw.go.jp/19/index.php?action_kouhyou_detail_004_kani=true&JigyosyoCd=1990100016-00&ServiceCd=320&Type=search", "url2": "http://www.kei-you.jp/" }, "geometry": { "type": "Point", "coordinates": [ 138.5823548, 35.643976 ] } },
{ "type": "Feature", "properties": { "内容": "グループホームおおさとの憩【認知症対応型共同生活介護】甲府市大里町３３７５－１", "url": "https://www.kaigokensaku.mhlw.go.jp/19/index.php?action_kouhyou_detail_004_kani=true&JigyosyoCd=1990100313-00&ServiceCd=320&Type=search", "url2": "http://www.frontiernokaigo.jp" }, "geometry": { "type": "Point", "coordinates": [ 138.5682481, 35.614353 ] } },
{ "type": "Feature", "properties": { "内容": "グループホーム山径【認知症対応型共同生活介護】山梨県甲府市和田町2948-6", "url": "https://www.kaigokensaku.mhlw.go.jp/19/index.php?action_kouhyou_detail_004_kani=true&JigyosyoCd=1970101091-00&ServiceCd=320&Type=search", "url2": "http://www.zenrinkai.or.jp" }, "geometry": { "type": "Point", "coordinates": [ 138.5615484, 35.6875623 ] } },
{ "type": "Feature", "properties": { "内容": "グループホームぽぷら【認知症対応型共同生活介護】富士吉田市中曽根1-8-25", "url": "https://www.kaigokensaku.mhlw.go.jp/19/index.php?action_kouhyou_detail_004_kani=true&JigyosyoCd=1991200047-00&ServiceCd=320&Type=search", "url2": "http://www.popuranoki.jp" }, "geometry": { "type": "Point", "coordinates": [ 138.80148, 35.485591 ] } },
{ "type": "Feature", "properties": { "内容": "医療法人　聖仁会　グループホームうらら【認知症対応型共同生活介護】山梨県富士吉田市ときわ台１－１－２６", "url": "https://www.kaigokensaku.mhlw.go.jp/19/index.php?action_kouhyou_detail_004_kani=true&JigyosyoCd=1971200231-00&ServiceCd=320&Type=search", "url2": "http://seijinkai-saiyo.com/dayservice-urara/" }, "geometry": { "type": "Point", "coordinates": [ 138.7924779, 35.4891241 ] } },
{ "type": "Feature", "properties": { "内容": "グループホーム回生荘【認知症対応型共同生活介護】山梨県都留市境36", "url": "https://www.kaigokensaku.mhlw.go.jp/19/index.php?action_kouhyou_detail_004_kani=true&JigyosyoCd=1971100126-00&ServiceCd=320&Type=search", "url2": "http://wwkaisi-sojp" }, "geometry": { "type": "Point", "coordinates": [ 138.863547899999958, 35.5286905 ] } },
{ "type": "Feature", "properties": { "内容": "ツクイ都留中津森グループホーム【認知症対応型共同生活介護】山梨県都留市中津森1033-1", "url": "https://www.kaigokensaku.mhlw.go.jp/19/index.php?action_kouhyou_detail_004_kani=true&JigyosyoCd=1991100155-00&ServiceCd=320&Type=search", "url2": null }, "geometry": { "type": "Point", "coordinates": [ 138.8971168, 35.5622813 ] } },
{ "type": "Feature", "properties": { "内容": "けあビジョンホーム都留【認知症対応型共同生活介護】山梨県都留市法能2487－1", "url": "https://www.kaigokensaku.mhlw.go.jp/19/index.php?action_kouhyou_detail_004_kani=true&JigyosyoCd=1991100171-00&ServiceCd=320&Type=search", "url2": null }, "geometry": { "type": "Point", "coordinates": [ 138.9278396, 35.5397323 ] } },
{ "type": "Feature", "properties": { "内容": "グループホーム湯苗田【認知症対応型共同生活介護】山梨市牧丘町室伏２４５２", "url": "https://www.kaigokensaku.mhlw.go.jp/19/index.php?action_kouhyou_detail_004_kani=true&JigyosyoCd=1990200014-00&ServiceCd=320&Type=search", "url2": "http://www.fruits.jp/~jyukokai/" }, "geometry": { "type": "Point", "coordinates": [ 138.721706700000027, 35.7524955 ] } },
{ "type": "Feature", "properties": { "内容": "愛の家グループホーム山梨小原西【認知症対応型共同生活介護】山梨県山梨市小原西６４１－７", "url": "https://www.kaigokensaku.mhlw.go.jp/19/index.php?action_kouhyou_detail_004_kani=true&JigyosyoCd=1970200125-00&ServiceCd=320&Type=search", "url2": "https://mcs-ainoie.com/search/yamanashi/yamanashishi/gh027/" }, "geometry": { "type": "Point", "coordinates": [ 138.6950891, 35.6958939 ] } },
{ "type": "Feature", "properties": { "内容": "山梨ケアセンターそよ風【認知症対応型共同生活介護】山梨県山梨市上神内川15-5", "url": "https://www.kaigokensaku.mhlw.go.jp/19/index.php?action_kouhyou_detail_004_kani=true&JigyosyoCd=1970200174-00&ServiceCd=320&Type=search", "url2": null }, "geometry": { "type": "Point", "coordinates": [ 138.686833500000034, 35.685103 ] } },
{ "type": "Feature", "properties": { "内容": "グループホームラシーク桂台【認知症対応型共同生活介護】山梨県大月市猿橋町桂台1-99", "url": "https://www.kaigokensaku.mhlw.go.jp/19/index.php?action_kouhyou_detail_004_kani=true&JigyosyoCd=1991400035-00&ServiceCd=320&Type=search", "url2": "www.heisei294.org" }, "geometry": { "type": "Point", "coordinates": [ 138.972951800000033, 35.6109973 ] } },
{ "type": "Feature", "properties": { "内容": "グループホーム武田の里【認知症対応型共同生活介護】山梨県韮崎市神山町北宮地８", "url": "https://www.kaigokensaku.mhlw.go.jp/19/index.php?action_kouhyou_detail_004_kani=true&JigyosyoCd=1990900142-00&ServiceCd=320&Type=search", "url2": null }, "geometry": { "type": "Point", "coordinates": [ 138.437325, 35.710058 ] } },
{ "type": "Feature", "properties": { "内容": "愛の家グループホームにらさき【認知症対応型共同生活介護】山梨県韮崎市竜岡町下條南割１９２－３", "url": "https://www.kaigokensaku.mhlw.go.jp/19/index.php?action_kouhyou_detail_004_kani=true&JigyosyoCd=1970900195-00&ServiceCd=320&Type=search", "url2": "https://mcs-ainoie.com/search/yamanashi/nirasakishi/gh051/" }, "geometry": { "type": "Point", "coordinates": [ 138.468614, 35.6755168 ] } },
{ "type": "Feature", "properties": { "内容": "グループホームふうりん【認知症対応型共同生活介護】山梨県南アルプス市飯野2300-1", "url": "https://www.kaigokensaku.mhlw.go.jp/19/index.php?action_kouhyou_detail_004_kani=true&JigyosyoCd=1971600174-00&ServiceCd=320&Type=search", "url2": "http://www.geocities.jp/fuurin_yamanashi/" }, "geometry": { "type": "Point", "coordinates": [ 138.4600739, 35.6449668 ] } },
{ "type": "Feature", "properties": { "内容": "グループホーム甲西【認知症対応型共同生活介護】南アルプス市田島１１０５", "url": "https://www.kaigokensaku.mhlw.go.jp/19/index.php?action_kouhyou_detail_004_kani=true&JigyosyoCd=1950880045-00&ServiceCd=320&Type=search", "url2": null }, "geometry": { "type": "Point", "coordinates": [ 138.486878299999944, 35.5927049 ] } },
{ "type": "Feature", "properties": { "内容": "グループホームわがや小笠原【認知症対応型共同生活介護】山梨県南アルプス市小笠原　168-1", "url": "https://www.kaigokensaku.mhlw.go.jp/19/index.php?action_kouhyou_detail_004_kani=true&JigyosyoCd=1991600022-00&ServiceCd=320&Type=search", "url2": null }, "geometry": { "type": "Point", "coordinates": [ 138.469832200000042, 35.6072805 ] } },
{ "type": "Feature", "properties": { "内容": "アルプスのなかまたち【認知症対応型共同生活介護】山梨県南アルプス市桃園３４５－３アルプスのなかまたち", "url": "https://www.kaigokensaku.mhlw.go.jp/19/index.php?action_kouhyou_detail_004_kani=true&JigyosyoCd=1991600071-00&ServiceCd=320&Type=search", "url2": "http://na-ka-ma.jp" }, "geometry": { "type": "Point", "coordinates": [ 138.4635587, 35.6296446 ] } },
{ "type": "Feature", "properties": { "内容": "グループホーム南岳荘【認知症対応型共同生活介護】山梨県南アルプス市徳永４３６－１", "url": "https://www.kaigokensaku.mhlw.go.jp/19/index.php?action_kouhyou_detail_004_kani=true&JigyosyoCd=1971600240-00&ServiceCd=320&Type=search", "url2": "http://www.nangakusou.or.jp/" }, "geometry": { "type": "Point", "coordinates": [ 138.494893, 35.6548884 ] } },
{ "type": "Feature", "properties": { "内容": "グループホーム　「やすらぎ」【認知症対応型共同生活介護】山梨県北杜市長坂町小荒間1293", "url": "https://www.kaigokensaku.mhlw.go.jp/19/index.php?action_kouhyou_detail_004_kani=true&JigyosyoCd=1971000011-00&ServiceCd=320&Type=search", "url2": "http://www.aijyukai.com" }, "geometry": { "type": "Point", "coordinates": [ 138.348050699999931, 35.8742171 ] } },
{ "type": "Feature", "properties": { "内容": "グループホームめぐみSINCE2004【認知症対応型共同生活介護】山梨県甲斐市竜王644-5", "url": "https://www.kaigokensaku.mhlw.go.jp/19/index.php?action_kouhyou_detail_004_kani=true&JigyosyoCd=1970800189-00&ServiceCd=320&Type=search", "url2": null }, "geometry": { "type": "Point", "coordinates": [ 138.507627299999967, 35.671283 ] } },
{ "type": "Feature", "properties": { "内容": "グループホーム　雀のお宿【認知症対応型共同生活介護】山梨県甲斐市下今井1730", "url": "https://www.kaigokensaku.mhlw.go.jp/19/index.php?action_kouhyou_detail_004_kani=true&JigyosyoCd=1971000128-00&ServiceCd=320&Type=search", "url2": "www2.nns.ne.jp/ent/ginnga" }, "geometry": { "type": "Point", "coordinates": [ 138.498467, 35.6825345 ] } },
{ "type": "Feature", "properties": { "内容": "グループホーム　ふるさと敷島【認知症対応型共同生活介護】山梨県甲斐市大下条425番地1", "url": "https://www.kaigokensaku.mhlw.go.jp/19/index.php?action_kouhyou_detail_004_kani=true&JigyosyoCd=1970800866-00&ServiceCd=320&Type=search", "url2": null }, "geometry": { "type": "Point", "coordinates": [ 138.525536200000033, 35.672733 ] } },
{ "type": "Feature", "properties": { "内容": "認知症高齢者グループホーム敷島荘【認知症対応型共同生活介護】山梨県甲斐市大久保135１", "url": "https://www.kaigokensaku.mhlw.go.jp/19/index.php?action_kouhyou_detail_004_kani=true&JigyosyoCd=1970800221-00&ServiceCd=320&Type=search", "url2": "https://shikishimasou.net/" }, "geometry": { "type": "Point", "coordinates": [ 138.5150696, 35.6935606 ] } },
{ "type": "Feature", "properties": { "内容": "ナイスケア樫の木【認知症対応型共同生活介護】山梨県甲斐市長塚157-3", "url": "https://www.kaigokensaku.mhlw.go.jp/19/index.php?action_kouhyou_detail_004_kani=true&JigyosyoCd=1970800528-00&ServiceCd=320&Type=search", "url2": "http://www6.ocn.ne.jp/~kasinoki/sub6.html" }, "geometry": { "type": "Point", "coordinates": [ 138.5351014, 35.6757283 ] } },
{ "type": "Feature", "properties": { "内容": "グループホーム敷島荘【認知症対応型共同生活介護】山梨県大久保1357", "url": "https://www.kaigokensaku.mhlw.go.jp/19/index.php?action_kouhyou_detail_004_kani=true&JigyosyoCd=1991700335-00&ServiceCd=320&Type=search", "url2": "https://shikishimasou.net" }, "geometry": { "type": "Point", "coordinates": [ 138.638887899999986, 35.6635113 ] } },
{ "type": "Feature", "properties": { "内容": "クレール西八幡【認知症対応型共同生活介護】西八幡1769-1", "url": "https://www.kaigokensaku.mhlw.go.jp/19/index.php?action_kouhyou_detail_004_kani=true&JigyosyoCd=1991600253-00&ServiceCd=320&Type=search", "url2": null }, "geometry": { "type": "Point", "coordinates": [ 138.523115100000012, 35.6416841 ] } },
{ "type": "Feature", "properties": { "内容": "愛の家グループホーム甲斐長塚【認知症対応型共同生活介護】山梨県甲斐市長塚363番地1", "url": "https://www.kaigokensaku.mhlw.go.jp/19/index.php?action_kouhyou_detail_004_kani=true&JigyosyoCd=1991700293-00&ServiceCd=320&Type=search", "url2": "https://mcs-ainoie.com/search/yamanashi/kaishi/gh315/" }, "geometry": { "type": "Point", "coordinates": [ 138.5324786, 35.6724047 ] } },
{ "type": "Feature", "properties": { "内容": "カーサ西八幡【認知症対応型共同生活介護】山梨県甲斐市西八幡1707-1", "url": "https://www.kaigokensaku.mhlw.go.jp/19/index.php?action_kouhyou_detail_004_kani=true&JigyosyoCd=1991700244-00&ServiceCd=320&Type=search", "url2": null }, "geometry": { "type": "Point", "coordinates": [ 138.523788700000011, 35.6405376 ] } },
{ "type": "Feature", "properties": { "内容": "寿ノ家　グループホーム【認知症対応型共同生活介護】山梨県　笛吹市　石和町　四日市場　２０３１", "url": "https://www.kaigokensaku.mhlw.go.jp/19/index.php?action_kouhyou_detail_004_kani=true&JigyosyoCd=1970500516-00&ServiceCd=320&Type=search", "url2": "http://www.krg.jp./kt.html/" }, "geometry": { "type": "Point", "coordinates": [ 138.625631, 35.646513 ] } },
{ "type": "Feature", "properties": { "内容": "寿ノ家グループホームみさか【認知症対応型共同生活介護】山梨県笛吹市御坂町下野原８３９－１", "url": "https://www.kaigokensaku.mhlw.go.jp/19/index.php?action_kouhyou_detail_004_kani=true&JigyosyoCd=1991800093-00&ServiceCd=320&Type=search", "url2": "http://www.krg.ne.jp/kotobuki/" }, "geometry": { "type": "Point", "coordinates": [ 138.667438753303486, 35.622742491161738 ] } },
{ "type": "Feature", "properties": { "内容": "グループホーム芙蓉【認知症対応型共同生活介護】山梨県笛吹市一宮町竹原田1359-1", "url": "https://www.kaigokensaku.mhlw.go.jp/19/index.php?action_kouhyou_detail_004_kani=true&JigyosyoCd=1970500623-00&ServiceCd=320&Type=search", "url2": null }, "geometry": { "type": "Point", "coordinates": [ 138.6727703, 35.6449312 ] } },
{ "type": "Feature", "properties": { "内容": "けあビジョンホーム笛吹【認知症対応型共同生活介護】八代町米倉803-1", "url": "https://www.kaigokensaku.mhlw.go.jp/19/index.php?action_kouhyou_detail_004_kani=true&JigyosyoCd=1991800259-00&ServiceCd=320&Type=search", "url2": null }, "geometry": { "type": "Point", "coordinates": [ 138.6363336, 35.608834 ] } },
{ "type": "Feature", "properties": { "内容": "愛の家グループホーム笛吹石和【認知症対応型共同生活介護】山梨県笛吹市石和町唐柏466", "url": "https://www.kaigokensaku.mhlw.go.jp/19/index.php?action_kouhyou_detail_004_kani=true&JigyosyoCd=1991800143-00&ServiceCd=320&Type=search", "url2": "gh-251@mcsg.co.jp" }, "geometry": { "type": "Point", "coordinates": [ 138.6152846, 35.6330095 ] } },
{ "type": "Feature", "properties": { "内容": "グループホームあずさ【認知症対応型共同生活介護】山梨県笛吹市春日居町国府436", "url": "https://www.kaigokensaku.mhlw.go.jp/19/index.php?action_kouhyou_detail_004_kani=true&JigyosyoCd=1970400170-00&ServiceCd=320&Type=search", "url2": "http:/www.kasugai-reha.com" }, "geometry": { "type": "Point", "coordinates": [ 138.650301399999989, 35.6596475 ] } },
{ "type": "Feature", "properties": { "内容": "グループホームにんじん・上野原【認知症対応型共同生活介護】山梨県上野原市上野原522", "url": "https://www.kaigokensaku.mhlw.go.jp/19/index.php?action_kouhyou_detail_004_kani=true&JigyosyoCd=1992000016-00&ServiceCd=320&Type=search", "url2": "https://ninjin.or.jp" }, "geometry": { "type": "Point", "coordinates": [ 139.1113547, 35.6290367 ] } },
{ "type": "Feature", "properties": { "内容": "グループホームひかり長屋【認知症対応型共同生活介護】山梨県甲州市塩山西野原600番地", "url": "https://www.kaigokensaku.mhlw.go.jp/19/index.php?action_kouhyou_detail_004_kani=true&JigyosyoCd=1970300123-00&ServiceCd=320&Type=search", "url2": "http://www.koufuukai-yamanashi.or.jp/" }, "geometry": { "type": "Point", "coordinates": [ 138.735535, 35.6891986 ] } },
{ "type": "Feature", "properties": { "内容": "認知症高齢者　グループホーム　アゼリア【認知症対応型共同生活介護】山梨県甲州市勝沼町菱山中平４３００", "url": "https://www.kaigokensaku.mhlw.go.jp/19/index.php?action_kouhyou_detail_004_kani=true&JigyosyoCd=1950480010-00&ServiceCd=320&Type=search", "url2": "http://www.katsunuma-nursing.com/azalea.html" }, "geometry": { "type": "Point", "coordinates": [ 138.738777, 35.667027 ] } },
{ "type": "Feature", "properties": { "内容": "けあビジョンホーム甲州【認知症対応型共同生活介護】山梨県甲州市勝沼町勝沼3118", "url": "https://www.kaigokensaku.mhlw.go.jp/19/index.php?action_kouhyou_detail_004_kani=true&JigyosyoCd=1992200137-00&ServiceCd=320&Type=search", "url2": null }, "geometry": { "type": "Point", "coordinates": [ 138.7290352, 35.66217 ] } },
{ "type": "Feature", "properties": { "内容": "グループホームだんらん【認知症対応型共同生活介護】山梨県中央市乙黒２４７－１", "url": "https://www.kaigokensaku.mhlw.go.jp/19/index.php?action_kouhyou_detail_004_kani=true&JigyosyoCd=1970800809-00&ServiceCd=320&Type=search", "url2": null }, "geometry": { "type": "Point", "coordinates": [ 138.5527472, 35.5970189 ] } },
{ "type": "Feature", "properties": { "内容": "らくえん倶楽部【認知症対応型共同生活介護】山梨県中央市極楽寺745-1", "url": "https://www.kaigokensaku.mhlw.go.jp/19/index.php?action_kouhyou_detail_004_kani=true&JigyosyoCd=1992300028-00&ServiceCd=320&Type=search", "url2": "http://www.rakuen1294.com" }, "geometry": { "type": "Point", "coordinates": [ 138.557166199999983, 35.6024517 ] } },
{ "type": "Feature", "properties": { "内容": "在宅福祉施設カーム三珠【認知症対応型共同生活介護】山梨県市川三郷町２９６３", "url": "https://www.kaigokensaku.mhlw.go.jp/19/index.php?action_kouhyou_detail_004_kani=true&JigyosyoCd=1970600167-00&ServiceCd=320&Type=search", "url2": null }, "geometry": { "type": "Point", "coordinates": [ 138.50113060000001, 35.5637367 ] } },
{ "type": "Feature", "properties": { "内容": "社会福祉法人　百葉の会　グループホーム百葉南部の郷【認知症対応型共同生活介護】山梨県南巨摩郡南部町南部8058‐1", "url": "https://www.kaigokensaku.mhlw.go.jp/19/index.php?action_kouhyou_detail_004_kani=true&JigyosyoCd=1990700088-00&ServiceCd=320&Type=search", "url2": "https://www.momoha-bloom.or.jp/" }, "geometry": { "type": "Point", "coordinates": [ 138.4526828, 35.2933541 ] } },
{ "type": "Feature", "properties": { "内容": "グループホームどんぐり【認知症対応型共同生活介護】山梨県南巨摩郡富士川町小林１９５４－７", "url": "https://www.kaigokensaku.mhlw.go.jp/19/index.php?action_kouhyou_detail_004_kani=true&JigyosyoCd=1970700645-00&ServiceCd=320&Type=search", "url2": null }, "geometry": { "type": "Point", "coordinates": [ 138.455457700000011, 35.5703836 ] } },
{ "type": "Feature", "properties": { "内容": "ニチイケアセンター昭和西条【認知症対応型共同生活介護】山梨県中巨摩郡昭和町西条2092", "url": "https://www.kaigokensaku.mhlw.go.jp/19/index.php?action_kouhyou_detail_004_kani=true&JigyosyoCd=1990800086-00&ServiceCd=320&Type=search", "url2": "hstby8@nichiigakkan.co.jp" }, "geometry": { "type": "Point", "coordinates": [ 138.539860800000014, 35.6360463 ] } },
{ "type": "Feature", "properties": { "内容": "グループホームあんず【認知症対応型共同生活介護】山梨県南都留郡山中湖村山中１０６９－３", "url": "https://www.kaigokensaku.mhlw.go.jp/19/index.php?action_kouhyou_detail_004_kani=true&JigyosyoCd=1971300353-00&ServiceCd=320&Type=search", "url2": "http://www.fujikosei.or.jp" }, "geometry": { "type": "Point", "coordinates": [ 138.844339499999933, 35.4383706 ] } },
{ "type": "Feature", "properties": { "内容": "グループホームはまなす【認知症対応型共同生活介護】山梨県南都留郡富士河口湖町船津字堀休場２２０７", "url": "https://www.kaigokensaku.mhlw.go.jp/19/index.php?action_kouhyou_detail_004_kani=true&JigyosyoCd=1951380003-00&ServiceCd=320&Type=search", "url2": null }, "geometry": { "type": "Point", "coordinates": [ 138.7542899, 35.4611677 ] } }
]
}
