{
"type": "FeatureCollection",
"name": "geo_19_幼保連携型認定こども園",
"crs": { "type": "name", "properties": { "name": "urn:ogc:def:crs:EPSG::6668" } },
"features": [
{ "type": "Feature", "properties": { "P29_001": "19201", "P29_002": "A219310000017", "P29_003": "16013", "P29_004": "認定こども園甲府みなみ幼稚園", "P29_005": "山梨県甲府市蓬沢町1213", "P29_006": "4", "P29_007": "0", "P29_008": "00", "P29_009": null }, "geometry": { "type": "Point", "coordinates": [ 138.598730004114884, 35.645948002608414 ] } },
{ "type": "Feature", "properties": { "P29_001": "19214", "P29_002": "A219310000026", "P29_003": "16013", "P29_004": "認定こども園わかば幼稚園", "P29_005": "山梨県中央市井之口937-2", "P29_006": "4", "P29_007": "0", "P29_008": "00", "P29_009": null }, "geometry": { "type": "Point", "coordinates": [ 138.541631003836756, 35.613984997209293 ] } },
{ "type": "Feature", "properties": { "P29_001": "19214", "P29_002": "A219310000035", "P29_003": "16013", "P29_004": "幼保連携型認定こども園みかさこども園", "P29_005": "山梨県中央市臼井阿原813-6", "P29_006": "4", "P29_007": "0", "P29_008": "00", "P29_009": null }, "geometry": { "type": "Point", "coordinates": [ 138.517622093568434, 35.595731691921515 ] } },
{ "type": "Feature", "properties": { "P29_001": "19430", "P29_002": "A219310000044", "P29_003": "16013", "P29_004": "認定こども園ドリームツリー", "P29_005": "山梨県南都留郡富士河口湖町小立5699-2", "P29_006": "4", "P29_007": "0", "P29_008": "00", "P29_009": null }, "geometry": { "type": "Point", "coordinates": [ 138.748819836590229, 35.477965519825318 ] } },
{ "type": "Feature", "properties": { "P29_001": "19201", "P29_002": "A219310000053", "P29_003": "16013", "P29_004": "幼保連携型認定こども園進徳幼稚園", "P29_005": "山梨県甲府市湯村2-4-35", "P29_006": "4", "P29_007": "0", "P29_008": "00", "P29_009": null }, "geometry": { "type": "Point", "coordinates": [ 138.548544241474843, 35.676924872313784 ] } },
{ "type": "Feature", "properties": { "P29_001": "19211", "P29_002": "A219310000062", "P29_003": "16013", "P29_004": "認定こども園山梨英和プレストンこども園", "P29_005": "山梨県笛吹市石和町窪中島190-2", "P29_006": "4", "P29_007": "0", "P29_008": "00", "P29_009": null }, "geometry": { "type": "Point", "coordinates": [ 138.633242119100572, 35.648432623789908 ] } },
{ "type": "Feature", "properties": { "P29_001": "19210", "P29_002": "A219310000071", "P29_003": "16013", "P29_004": "認定こども園かおり幼稚園", "P29_005": "山梨県甲斐市篠原1087", "P29_006": "4", "P29_007": "0", "P29_008": "00", "P29_009": null }, "geometry": { "type": "Point", "coordinates": [ 138.530294562094412, 35.641537705894599 ] } },
{ "type": "Feature", "properties": { "P29_001": "19201", "P29_002": "A219310000080", "P29_003": "16013", "P29_004": "認定こども園甲府大里幼稚園", "P29_005": "山梨県甲府市大里町4338", "P29_006": "4", "P29_007": "0", "P29_008": "00", "P29_009": null }, "geometry": { "type": "Point", "coordinates": [ 138.561477768704577, 35.617147577014478 ] } },
{ "type": "Feature", "properties": { "P29_001": "19201", "P29_002": "A219310000099", "P29_003": "16013", "P29_004": "幼保連携型認定こども園かほるこども園", "P29_005": "山梨県甲府市小瀬町274-3", "P29_006": "4", "P29_007": "0", "P29_008": "00", "P29_009": null }, "geometry": { "type": "Point", "coordinates": [ 138.577323819764871, 35.628861478609664 ] } },
{ "type": "Feature", "properties": { "P29_001": "19201", "P29_002": "A219310000106", "P29_003": "16013", "P29_004": "認定こども園光の森こども園", "P29_005": "山梨県甲府市山宮町3318", "P29_006": "4", "P29_007": "0", "P29_008": "00", "P29_009": null }, "geometry": { "type": "Point", "coordinates": [ 138.539215127811616, 35.694358224771911 ] } },
{ "type": "Feature", "properties": { "P29_001": "19201", "P29_002": "A219310000115", "P29_003": "16013", "P29_004": "幼保連携型認定こども園和泉愛児園", "P29_005": "山梨県甲府市湯村3-12-13", "P29_006": "4", "P29_007": "0", "P29_008": "00", "P29_009": null }, "geometry": { "type": "Point", "coordinates": [ 138.546908627377491, 35.682309037173972 ] } },
{ "type": "Feature", "properties": { "P29_001": "19201", "P29_002": "A219310000124", "P29_003": "16013", "P29_004": "認定こども園すみれ保育園", "P29_005": "山梨県甲府市塩部4-4-1", "P29_006": "4", "P29_007": "0", "P29_008": "00", "P29_009": null }, "geometry": { "type": "Point", "coordinates": [ 138.553713644315735, 35.674370397369479 ] } },
{ "type": "Feature", "properties": { "P29_001": "19201", "P29_002": "A219310000133", "P29_003": "16013", "P29_004": "幼保連携型認定こども園なでしここども園", "P29_005": "山梨県甲府市大里町2262-1", "P29_006": "4", "P29_007": "0", "P29_008": "00", "P29_009": null }, "geometry": { "type": "Point", "coordinates": [ 138.564147754931497, 35.626509874129638 ] } },
{ "type": "Feature", "properties": { "P29_001": "19208", "P29_002": "A219310000142", "P29_003": "16013", "P29_004": "幼保連携型認定こども園マコト愛児園", "P29_005": "山梨県南アルプス市下今井841-5", "P29_006": "4", "P29_007": "0", "P29_008": "00", "P29_009": null }, "geometry": { "type": "Point", "coordinates": [ 138.497054002653954, 35.625940995048083 ] } },
{ "type": "Feature", "properties": { "P29_001": "19384", "P29_002": "A219310000151", "P29_003": "16013", "P29_004": "押原こども園", "P29_005": "山梨県中巨摩郡昭和町押越84", "P29_006": "4", "P29_007": "0", "P29_008": "00", "P29_009": null }, "geometry": { "type": "Point", "coordinates": [ 138.537733162125392, 35.62567013663309 ] } },
{ "type": "Feature", "properties": { "P29_001": "19201", "P29_002": "A219310000160", "P29_003": "16013", "P29_004": "幼保連携型認定こども園甲府あら川保育園", "P29_005": "山梨県甲府市池田1-10-30", "P29_006": "4", "P29_007": "0", "P29_008": "00", "P29_009": null }, "geometry": { "type": "Point", "coordinates": [ 138.543653700329827, 35.671430014917149 ] } },
{ "type": "Feature", "properties": { "P29_001": "19201", "P29_002": "A219310000179", "P29_003": "16013", "P29_004": "認定こども園すみよし愛児園", "P29_005": "山梨県甲府市住吉3-24-20", "P29_006": "4", "P29_007": "0", "P29_008": "00", "P29_009": null }, "geometry": { "type": "Point", "coordinates": [ 138.582859005398035, 35.640615998259065 ] } },
{ "type": "Feature", "properties": { "P29_001": "19208", "P29_002": "A219310000188", "P29_003": "16013", "P29_004": "認定こども園みだい幼稚園", "P29_005": "山梨県南アルプス市有野4571", "P29_006": "4", "P29_007": "0", "P29_008": "00", "P29_009": null }, "geometry": { "type": "Point", "coordinates": [ 138.450751996388163, 35.660531004636567 ] } },
{ "type": "Feature", "properties": { "P29_001": "19210", "P29_002": "A219310000197", "P29_003": "16013", "P29_004": "あおばこども園", "P29_005": "山梨県甲斐市篠原88-3", "P29_006": "4", "P29_007": "0", "P29_008": "00", "P29_009": null }, "geometry": { "type": "Point", "coordinates": [ 138.520121005375927, 35.656261998514495 ] } },
{ "type": "Feature", "properties": { "P29_001": "19211", "P29_002": "A219310000204", "P29_003": "16013", "P29_004": "幼保連携型認定こども園石和あら川保育園", "P29_005": "山梨県笛吹市石和町井戸236-1", "P29_006": "4", "P29_007": "0", "P29_008": "00", "P29_009": null }, "geometry": { "type": "Point", "coordinates": [ 138.606424996015335, 35.624396003642211 ] } },
{ "type": "Feature", "properties": { "P29_001": "19211", "P29_002": "A219310000213", "P29_003": "16013", "P29_004": "幼保連携型認定こども園都保育園", "P29_005": "山梨県笛吹市一宮町本都塚82-1", "P29_006": "4", "P29_007": "0", "P29_008": "00", "P29_009": null }, "geometry": { "type": "Point", "coordinates": [ 138.685575456777656, 35.648473047301906 ] } },
{ "type": "Feature", "properties": { "P29_001": "19211", "P29_002": "A219310000222", "P29_003": "16013", "P29_004": "幼保連携型認定こども園八代保育園", "P29_005": "山梨県笛吹市八代町南931", "P29_006": "4", "P29_007": "0", "P29_008": "00", "P29_009": null }, "geometry": { "type": "Point", "coordinates": [ 138.642894996128206, 35.617524996339696 ] } },
{ "type": "Feature", "properties": { "P29_001": "19201", "P29_002": "A219310000231", "P29_003": "16013", "P29_004": "幼保連携型認定こども園甲府あら川保育園レジデンス", "P29_005": "山梨県甲府市池田1-11-9", "P29_006": "4", "P29_007": "0", "P29_008": "00", "P29_009": null }, "geometry": { "type": "Point", "coordinates": [ 138.541877716220625, 35.673509898581017 ] } },
{ "type": "Feature", "properties": { "P29_001": "19201", "P29_002": "A219310000240", "P29_003": "16013", "P29_004": "認定こども園くだま保育園", "P29_005": "山梨県甲府市国玉町468-1", "P29_006": "4", "P29_007": "0", "P29_008": "00", "P29_009": null }, "geometry": { "type": "Point", "coordinates": [ 138.602294827704782, 35.651475975867221 ] } },
{ "type": "Feature", "properties": { "P29_001": "19201", "P29_002": "A219310000259", "P29_003": "16013", "P29_004": "認定こども園くだま木もれびの家", "P29_005": "山梨県甲府市桜井町165-3", "P29_006": "4", "P29_007": "0", "P29_008": "00", "P29_009": null }, "geometry": { "type": "Point", "coordinates": [ 138.618626265856392, 35.660552551181866 ] } },
{ "type": "Feature", "properties": { "P29_001": "19201", "P29_002": "A219310000268", "P29_003": "16013", "P29_004": "山梨英和カートメルこども園", "P29_005": "山梨県甲府市上町1740", "P29_006": "4", "P29_007": "0", "P29_008": "00", "P29_009": null }, "geometry": { "type": "Point", "coordinates": [ 138.582523999400451, 35.632992001941034 ] } },
{ "type": "Feature", "properties": { "P29_001": "19201", "P29_002": "A219310000277", "P29_003": "16013", "P29_004": "認定こども園甲府西幼稚園", "P29_005": "山梨県甲府市下飯田2-8-15", "P29_006": "4", "P29_007": "0", "P29_008": "00", "P29_009": null }, "geometry": { "type": "Point", "coordinates": [ 138.545981001377157, 35.663331001477083 ] } },
{ "type": "Feature", "properties": { "P29_001": "19207", "P29_002": "A219310000286", "P29_003": "16013", "P29_004": "山梨英和ダグラスこども園", "P29_005": "山梨県韮崎市富士見2-2-25", "P29_006": "4", "P29_007": "0", "P29_008": "00", "P29_009": null }, "geometry": { "type": "Point", "coordinates": [ 138.454056995799505, 35.70705763272143 ] } },
{ "type": "Feature", "properties": { "P29_001": "19211", "P29_002": "A219310000295", "P29_003": "16013", "P29_004": "幼保連携型認定こども園わかば保育園", "P29_005": "山梨県笛吹市石和町小石和601", "P29_006": "4", "P29_007": "0", "P29_008": "00", "P29_009": null }, "geometry": { "type": "Point", "coordinates": [ 138.624362335979413, 35.631108773047892 ] } },
{ "type": "Feature", "properties": { "P29_001": "19213", "P29_002": "A219310000302", "P29_003": "16013", "P29_004": "幼保連携型認定こども園たんぽぽこども園", "P29_005": "山梨県甲州市塩山上於曽445-1", "P29_006": "4", "P29_007": "0", "P29_008": "00", "P29_009": null }, "geometry": { "type": "Point", "coordinates": [ 138.725451163501219, 35.705825398301059 ] } },
{ "type": "Feature", "properties": { "P29_001": "19213", "P29_002": "A219310000311", "P29_003": "16013", "P29_004": "幼保連携型認定こども園岩崎保育園", "P29_005": "山梨県甲州市勝沼町下岩崎1731-3", "P29_006": "4", "P29_007": "0", "P29_008": "00", "P29_009": null }, "geometry": { "type": "Point", "coordinates": [ 138.723903214323855, 35.659864759086531 ] } },
{ "type": "Feature", "properties": { "P29_001": "19214", "P29_002": "A219310000320", "P29_003": "16013", "P29_004": "認定こども園まみい・キッズこども園", "P29_005": "山梨県中央市成島1072-1", "P29_006": "4", "P29_007": "0", "P29_008": "00", "P29_009": null }, "geometry": { "type": "Point", "coordinates": [ 138.546969995436143, 35.599156997742107 ] } },
{ "type": "Feature", "properties": { "P29_001": "19384", "P29_002": "A219310000339", "P29_003": "16013", "P29_004": "幼保連携型認定こども園ふるるこども園", "P29_005": "山梨県中巨摩郡昭和町築地新居2289-5", "P29_006": "4", "P29_007": "0", "P29_008": "00", "P29_009": null }, "geometry": { "type": "Point", "coordinates": [ 138.524495603660398, 35.626163468945911 ] } },
{ "type": "Feature", "properties": { "P29_001": "19201", "P29_002": "A219310000348", "P29_003": "16013", "P29_004": "幼保連携型認定こども園相川保育園", "P29_005": "山梨県甲府市小松町316", "P29_006": "4", "P29_007": "0", "P29_008": "00", "P29_009": null }, "geometry": { "type": "Point", "coordinates": [ 138.566271061875455, 35.686739682806738 ] } },
{ "type": "Feature", "properties": { "P29_001": "19201", "P29_002": "A219310000357", "P29_003": "16013", "P29_004": "幼保連携型認定こども園池田くるみの木こども園", "P29_005": "山梨県甲府市金竹町5-17", "P29_006": "4", "P29_007": "0", "P29_008": "00", "P29_009": null }, "geometry": { "type": "Point", "coordinates": [ 138.536631788373597, 35.666717158152139 ] } },
{ "type": "Feature", "properties": { "P29_001": "19201", "P29_002": "A219310000366", "P29_003": "16013", "P29_004": "幼保連携型認定こども園柏こども園", "P29_005": "山梨県甲府市上曽根町258-1", "P29_006": "4", "P29_007": "0", "P29_008": "00", "P29_009": null }, "geometry": { "type": "Point", "coordinates": [ 138.600300343463516, 35.605507640315125 ] } },
{ "type": "Feature", "properties": { "P29_001": "19201", "P29_002": "A219310000375", "P29_003": "16013", "P29_004": "幼保連携型認定こども園菜の花こども園", "P29_005": "山梨県甲府市徳行5-12-12", "P29_006": "4", "P29_007": "0", "P29_008": "00", "P29_009": null }, "geometry": { "type": "Point", "coordinates": [ 138.534353563092367, 35.651575649940725 ] } },
{ "type": "Feature", "properties": { "P29_001": "19204", "P29_002": "A219310000384", "P29_003": "16013", "P29_004": "幼保連携型認定こども園開地保育園", "P29_005": "山梨県都留市小野623", "P29_006": "4", "P29_007": "0", "P29_008": "00", "P29_009": null }, "geometry": { "type": "Point", "coordinates": [ 138.910590577320335, 35.535260950633813 ] } },
{ "type": "Feature", "properties": { "P29_001": "19205", "P29_002": "A219310000393", "P29_003": "16013", "P29_004": "幼保連携型認定こども園風の子保育園", "P29_005": "山梨県山梨市歌田27", "P29_006": "4", "P29_007": "0", "P29_008": "00", "P29_009": null }, "geometry": { "type": "Point", "coordinates": [ 138.685101976817265, 35.662676565193586 ] } },
{ "type": "Feature", "properties": { "P29_001": "19384", "P29_002": "A219310000400", "P29_003": "16013", "P29_004": "幼保連携型認定こども園昭和こども園", "P29_005": "山梨県中巨摩郡昭和町西条4185-2", "P29_006": "4", "P29_007": "0", "P29_008": "00", "P29_009": null }, "geometry": { "type": "Point", "coordinates": [ 138.540125861707367, 35.638589778156742 ] } },
{ "type": "Feature", "properties": { "P29_001": "19384", "P29_002": "A219310000419", "P29_003": "16013", "P29_004": "幼保連携型認定こども園富士桜学院", "P29_005": "山梨県中巨摩郡昭和町押越766", "P29_006": "4", "P29_007": "0", "P29_008": "00", "P29_009": null }, "geometry": { "type": "Point", "coordinates": [ 138.531838998973598, 35.630023003759348 ] } },
{ "type": "Feature", "properties": { "P29_001": "19384", "P29_002": "A219310000428", "P29_003": "16013", "P29_004": "げんき夢こども園", "P29_005": "山梨県中巨摩郡昭和町河東中島748-2", "P29_006": "4", "P29_007": "0", "P29_008": "00", "P29_009": null }, "geometry": { "type": "Point", "coordinates": [ 138.530726002817886, 35.622941997419211 ] } },
{ "type": "Feature", "properties": { "P29_001": "19208", "P29_002": "A219310000437", "P29_003": "16013", "P29_004": "幼保連携型認定こども園ポッポの家", "P29_005": "山梨県南アルプス市荊沢175", "P29_006": "4", "P29_007": "0", "P29_008": "00", "P29_009": null }, "geometry": { "type": "Point", "coordinates": [ 138.462192994560098, 35.589613996888438 ] } },
{ "type": "Feature", "properties": { "P29_001": "19213", "P29_002": "A219310000446", "P29_003": "16013", "P29_004": "幼保連携型認定こども園赤尾保育園", "P29_005": "山梨県甲州市塩山赤尾713-1", "P29_006": "4", "P29_007": "0", "P29_008": "00", "P29_009": null }, "geometry": { "type": "Point", "coordinates": [ 138.736566261863402, 35.701065253076521 ] } },
{ "type": "Feature", "properties": { "P29_001": "19213", "P29_002": "A219310000455", "P29_003": "16013", "P29_004": "幼保連携型認定こども園泉保育園", "P29_005": "山梨県甲州市塩山上塩後10", "P29_006": "4", "P29_007": "0", "P29_008": "00", "P29_009": null }, "geometry": { "type": "Point", "coordinates": [ 138.721339734511133, 35.708673357518173 ] } },
{ "type": "Feature", "properties": { "P29_001": "19204", "P29_002": "A219310000464", "P29_003": "16013", "P29_004": "幼保連携型認定こども園長生保育園", "P29_005": "山梨県都留市下谷2954-3", "P29_006": "4", "P29_007": "0", "P29_008": "00", "P29_009": null }, "geometry": { "type": "Point", "coordinates": [ 138.902571833624052, 35.566857539854396 ] } },
{ "type": "Feature", "properties": { "P29_001": "19204", "P29_002": "A219310000473", "P29_003": "16013", "P29_004": "幼保連携型認定こども園東陽保育園", "P29_005": "山梨県都留市古川渡655", "P29_006": "4", "P29_007": "0", "P29_008": "00", "P29_009": null }, "geometry": { "type": "Point", "coordinates": [ 138.925838327820117, 35.571560663849375 ] } },
{ "type": "Feature", "properties": { "P29_001": "19210", "P29_002": "A219310000482", "P29_003": "16013", "P29_004": "竜王あら川こども園", "P29_005": "山梨県甲斐市西八幡1473-1", "P29_006": "4", "P29_007": "0", "P29_008": "00", "P29_009": null }, "geometry": { "type": "Point", "coordinates": [ 138.526680231425729, 35.6373623029491 ] } },
{ "type": "Feature", "properties": { "P29_001": "19211", "P29_002": "A219310000491", "P29_003": "16013", "P29_004": "幼保連携型認定こども園石和東こども園", "P29_005": "山梨県笛吹市石和町中川330", "P29_006": "4", "P29_007": "0", "P29_008": "00", "P29_009": null }, "geometry": { "type": "Point", "coordinates": [ 138.655196002456165, 35.644176002586235 ] } },
{ "type": "Feature", "properties": { "P29_001": "19201", "P29_002": "A219310000507", "P29_003": "16013", "P29_004": "こでまりこども園", "P29_005": "山梨県甲府市相生1-8-10", "P29_006": "4", "P29_007": "0", "P29_008": "00", "P29_009": null }, "geometry": { "type": "Point", "coordinates": [ 138.565238569675728, 35.657003448165753 ] } },
{ "type": "Feature", "properties": { "P29_001": "19201", "P29_002": "A219310000516", "P29_003": "16013", "P29_004": "誓和保育園", "P29_005": "山梨県甲府市東光寺1-3-27", "P29_006": "4", "P29_007": "0", "P29_008": "00", "P29_009": null }, "geometry": { "type": "Point", "coordinates": [ 138.581842370604846, 35.66279299795508 ] } },
{ "type": "Feature", "properties": { "P29_001": "19201", "P29_002": "A219310000525", "P29_003": "16013", "P29_004": "和成こども園", "P29_005": "山梨県甲府市徳行1-1-1", "P29_006": "4", "P29_007": "0", "P29_008": "00", "P29_009": null }, "geometry": { "type": "Point", "coordinates": [ 138.547068676205328, 35.655402242529647 ] } },
{ "type": "Feature", "properties": { "P29_001": "19201", "P29_002": "A219310000534", "P29_003": "16013", "P29_004": "第２なでしここども園", "P29_005": "山梨県甲府市羽黒町618", "P29_006": "4", "P29_007": "0", "P29_008": "00", "P29_009": null }, "geometry": { "type": "Point", "coordinates": [ 138.543701904747053, 35.688957783109323 ] } },
{ "type": "Feature", "properties": { "P29_001": "19202", "P29_002": "A219310000543", "P29_003": "16013", "P29_004": "富士保育園", "P29_005": "山梨県富士吉田市上吉田7-7-1", "P29_006": "4", "P29_007": "0", "P29_008": "00", "P29_009": null }, "geometry": { "type": "Point", "coordinates": [ 138.794451622484587, 35.474270011813275 ] } },
{ "type": "Feature", "properties": { "P29_001": "19201", "P29_002": "A219310000552", "P29_003": "16013", "P29_004": "伸芽こども園", "P29_005": "山梨県甲府市高畑1-5-5", "P29_006": "4", "P29_007": "0", "P29_008": "00", "P29_009": null }, "geometry": { "type": "Point", "coordinates": [ 138.563570478331599, 35.654371020377226 ] } },
{ "type": "Feature", "properties": { "P29_001": "19202", "P29_002": "A219310000570", "P29_003": "16013", "P29_004": "幼保連携型認定こども園ナーサリーココ", "P29_005": "山梨県富士吉田市下吉田8-23-25", "P29_006": "4", "P29_007": "0", "P29_008": "00", "P29_009": null }, "geometry": { "type": "Point", "coordinates": [ 138.81321686138449, 35.492261837517411 ] } },
{ "type": "Feature", "properties": { "P29_001": "19423", "P29_002": "A219310000589", "P29_003": "16013", "P29_004": "境保育園", "P29_005": "山梨県都留市境129-2", "P29_006": "4", "P29_007": "0", "P29_008": "00", "P29_009": null }, "geometry": { "type": "Point", "coordinates": [ 138.860685540684358, 35.5293544418696 ] } },
{ "type": "Feature", "properties": { "P29_001": "19206", "P29_002": "A219310000598", "P29_003": "16013", "P29_004": "令和にこにこ園", "P29_005": "山梨県大月市猿橋町殿上308", "P29_006": "4", "P29_007": "0", "P29_008": "00", "P29_009": null }, "geometry": { "type": "Point", "coordinates": [ 138.96699704808367, 35.612712996922319 ] } },
{ "type": "Feature", "properties": { "P29_001": "19208", "P29_002": "A219310000605", "P29_003": "16013", "P29_004": "十日市場保育園", "P29_005": "山梨県南アルプス市十日市場1911-5", "P29_006": "4", "P29_007": "0", "P29_008": "00", "P29_009": null }, "geometry": { "type": "Point", "coordinates": [ 138.477656560291024, 35.6089317655115 ] } },
{ "type": "Feature", "properties": { "P29_001": "19207", "P29_002": "A219310000614", "P29_003": "16013", "P29_004": "すみれ韮崎保育園", "P29_005": "山梨県韮崎市本町1-17-10", "P29_006": "4", "P29_007": "0", "P29_008": "00", "P29_009": null }, "geometry": { "type": "Point", "coordinates": [ 138.447901138393689, 35.707016002836838 ] } },
{ "type": "Feature", "properties": { "P29_001": "19212", "P29_002": "A219310000623", "P29_003": "16013", "P29_004": "こども園　仁", "P29_005": "山梨県上野原市鶴島2292", "P29_006": "4", "P29_007": "0", "P29_008": "00", "P29_009": null }, "geometry": { "type": "Point", "coordinates": [ 139.116483415463733, 35.615060902028048 ] } },
{ "type": "Feature", "properties": { "P29_001": "19206", "P29_002": "A219310000632", "P29_003": "16013", "P29_004": "鳥沢幼稚園", "P29_005": "山梨県大月市富浜町1973-1", "P29_006": "4", "P29_007": "0", "P29_008": "00", "P29_009": null }, "geometry": { "type": "Point", "coordinates": [ 139.005459184681456, 35.609005748355763 ] } }
]
}
