{
"type": "FeatureCollection",
"name": "geo_19_各種学校",
"crs": { "type": "name", "properties": { "name": "urn:ogc:def:crs:EPSG::6668" } },
"features": [
{ "type": "Feature", "properties": { "P29_001": "19201", "P29_002": "H219310000012", "P29_003": "16015", "P29_004": "日本女子技術学院", "P29_005": "山梨県甲府市朝日1-5-11", "P29_006": "4", "P29_007": "0", "P29_008": "00", "P29_009": null }, "geometry": { "type": "Point", "coordinates": [ 138.566162186889898, 35.66937928461531 ] } },
{ "type": "Feature", "properties": { "P29_001": "19201", "P29_002": "H219310000030", "P29_003": "16015", "P29_004": "甲府ドレスメーカー女学院", "P29_005": "山梨県甲府市丸の内2-18-15", "P29_006": "4", "P29_007": "0", "P29_008": "00", "P29_009": null }, "geometry": { "type": "Point", "coordinates": [ 138.566187990598905, 35.664980794016934 ] } },
{ "type": "Feature", "properties": { "P29_001": "19201", "P29_002": "H219310000049", "P29_003": "16015", "P29_004": "山梨ＹＭＣＡ英語学校", "P29_005": "山梨県甲府市中央3-10-7", "P29_006": "4", "P29_007": "0", "P29_008": "00", "P29_009": null }, "geometry": { "type": "Point", "coordinates": [ 138.576076588597857, 35.661950408151682 ] } },
{ "type": "Feature", "properties": { "P29_001": "19201", "P29_002": "H219310000058", "P29_003": "16015", "P29_004": "野口料理学園", "P29_005": "山梨県甲府市中央5-6-15", "P29_006": "4", "P29_007": "0", "P29_008": "00", "P29_009": null }, "geometry": { "type": "Point", "coordinates": [ 138.575311762711664, 35.656835235503749 ] } },
{ "type": "Feature", "properties": { "P29_001": "19201", "P29_002": "H219310000067", "P29_003": "16015", "P29_004": "篠原音楽学園", "P29_005": "山梨県甲府市丸の内2-30-12", "P29_006": "4", "P29_007": "0", "P29_008": "00", "P29_009": null }, "geometry": { "type": "Point", "coordinates": [ 138.56652226561647, 35.662904345220618 ] } },
{ "type": "Feature", "properties": { "P29_001": "19206", "P29_002": "H219310000076", "P29_003": "16015", "P29_004": "和田女学院", "P29_005": "山梨県大月市大月1-15-23", "P29_006": "4", "P29_007": "0", "P29_008": "00", "P29_009": null }, "geometry": { "type": "Point", "coordinates": [ 138.940798089093107, 35.610806723247748 ] } },
{ "type": "Feature", "properties": { "P29_001": "19208", "P29_002": "H219310000085", "P29_003": "16015", "P29_004": "ヱスケイ技芸学院", "P29_005": "山梨県南アルプス市小笠原1402", "P29_006": "4", "P29_007": "0", "P29_008": "00", "P29_009": null }, "geometry": { "type": "Point", "coordinates": [ 138.467219207846625, 35.6150921316123 ] } },
{ "type": "Feature", "properties": { "P29_001": "19210", "P29_002": "H219310000094", "P29_003": "16015", "P29_004": "今福珠算学校", "P29_005": "山梨県甲府市貢川本町5-21", "P29_006": "4", "P29_007": "0", "P29_008": "00", "P29_009": null }, "geometry": { "type": "Point", "coordinates": [ 138.529137334104433, 35.670820560353668 ] } },
{ "type": "Feature", "properties": { "P29_001": "19201", "P29_002": "H219310000101", "P29_003": "16015", "P29_004": "各種学校クレアーレナカヤマ", "P29_005": "山梨県甲府市中央5-8-26", "P29_006": "4", "P29_007": "0", "P29_008": "00", "P29_009": null }, "geometry": { "type": "Point", "coordinates": [ 138.574424615529693, 35.656689288713558 ] } },
{ "type": "Feature", "properties": { "P29_001": "19201", "P29_002": "H219310000110", "P29_003": "16015", "P29_004": "山梨コンピューター学院", "P29_005": "山梨県甲府市武田2-8-17", "P29_006": "4", "P29_007": "0", "P29_008": "00", "P29_009": null }, "geometry": { "type": "Point", "coordinates": [ 138.570599997406219, 35.671100003998433 ] } },
{ "type": "Feature", "properties": { "P29_001": "19201", "P29_002": "H219310000129", "P29_003": "16015", "P29_004": "ユニタス日本語学校", "P29_005": "山梨県甲府市宝1-20-22", "P29_006": "4", "P29_007": "0", "P29_008": "00", "P29_009": null }, "geometry": { "type": "Point", "coordinates": [ 138.562340519294025, 35.666684644837929 ] } },
{ "type": "Feature", "properties": { "P29_001": "19384", "P29_002": "H219310000138", "P29_003": "16015", "P29_004": "遊亀珠算学校", "P29_005": "山梨県中巨摩郡昭和町上河東390", "P29_006": "4", "P29_007": "0", "P29_008": "00", "P29_009": null }, "geometry": { "type": "Point", "coordinates": [ 138.528986987529322, 35.616643937058015 ] } }
]
}
