{
"type": "FeatureCollection",
"name": "geo_19_4",
"crs": { "type": "name", "properties": { "name": "urn:ogc:def:crs:OGC:1.3:CRS84" } },
"features": [
{ "type": "Feature", "properties": { "ID": 1946191000002, "正式名称": "ホームバース　つむぎ", "機関区分": 4, "都道府県コード": 19, "市区町村コード": 201, "所在地": "山梨県甲府市大手２－３－９", "緯度": 35.680956, "経度": 138.577056, "url": "https://www.iryou.teikyouseido.mhlw.go.jp/znk-web/juminkanja/S2430/initialize?prefCd=19&kikanCd=6191000002&kikanKbn=4", "url2": null, "内容": "ホームバース　つむぎ【4:助産院】山梨県甲府市大手２－３－９" }, "geometry": { "type": "Point", "coordinates": [ 138.577056, 35.680956 ] } },
{ "type": "Feature", "properties": { "ID": 1946191000004, "正式名称": "榊原助産所", "機関区分": 4, "都道府県コード": 19, "市区町村コード": 210, "所在地": "山梨県甲斐市玉川３６７－６", "緯度": 35.634488, "経度": 138.52634, "url": "https://www.iryou.teikyouseido.mhlw.go.jp/znk-web/juminkanja/S2430/initialize?prefCd=19&kikanCd=6191000004&kikanKbn=4", "url2": null, "内容": "榊原助産所【4:助産院】山梨県甲斐市玉川３６７－６" }, "geometry": { "type": "Point", "coordinates": [ 138.52634, 35.634488 ] } },
{ "type": "Feature", "properties": { "ID": 1946191000007, "正式名称": "ＡＩＫＡ　Ｃｕｒｅ　Ｈｏｍｅ　（アイカ　キュア　ホーム）", "機関区分": 4, "都道府県コード": 19, "市区町村コード": 208, "所在地": "山梨県南アルプス市塚原５７－３", "緯度": 35.594796, "経度": 138.455264, "url": "https://www.iryou.teikyouseido.mhlw.go.jp/znk-web/juminkanja/S2430/initialize?prefCd=19&kikanCd=6191000007&kikanKbn=4", "url2": "https://r.goope.jp/aikacurehome", "内容": "ＡＩＫＡ　Ｃｕｒｅ　Ｈｏｍｅ　（アイカ　キュア　ホーム）【4:助産院】山梨県南アルプス市塚原５７－３" }, "geometry": { "type": "Point", "coordinates": [ 138.455264, 35.594796 ] } },
{ "type": "Feature", "properties": { "ID": 1946191000017, "正式名称": "米倉助産院", "機関区分": 4, "都道府県コード": 19, "市区町村コード": 214, "所在地": "山梨県中央市若宮３９－１", "緯度": 35.61288, "経度": 138.538979, "url": "https://www.iryou.teikyouseido.mhlw.go.jp/znk-web/juminkanja/S2430/initialize?prefCd=19&kikanCd=6191000017&kikanKbn=4", "url2": null, "内容": "米倉助産院【4:助産院】山梨県中央市若宮３９－１" }, "geometry": { "type": "Point", "coordinates": [ 138.538979, 35.61288 ] } },
{ "type": "Feature", "properties": { "ID": 1946191000021, "正式名称": "ＳＯＲＡ母乳育児相談室", "機関区分": 4, "都道府県コード": 19, "市区町村コード": 384, "所在地": "山梨県中巨摩郡昭和町上河東９２５－１", "緯度": 35.613796, "経度": 138.53284, "url": "https://www.iryou.teikyouseido.mhlw.go.jp/znk-web/juminkanja/S2430/initialize?prefCd=19&kikanCd=6191000021&kikanKbn=4", "url2": null, "内容": "ＳＯＲＡ母乳育児相談室【4:助産院】山梨県中巨摩郡昭和町上河東９２５－１" }, "geometry": { "type": "Point", "coordinates": [ 138.53284, 35.613796 ] } },
{ "type": "Feature", "properties": { "ID": 1946191000025, "正式名称": "マミィサロンこぐま", "機関区分": 4, "都道府県コード": 19, "市区町村コード": 201, "所在地": "山梨県甲府市上今井町１４０－７", "緯度": 35.627045, "経度": 138.57242, "url": "https://www.iryou.teikyouseido.mhlw.go.jp/znk-web/juminkanja/S2430/initialize?prefCd=19&kikanCd=6191000025&kikanKbn=4", "url2": "https://koguma-with.com/", "内容": "マミィサロンこぐま【4:助産院】山梨県甲府市上今井町１４０－７" }, "geometry": { "type": "Point", "coordinates": [ 138.57242, 35.627045 ] } },
{ "type": "Feature", "properties": { "ID": 1946191000027, "正式名称": "助産院　ｐｅｅｋａｂｏｏ", "機関区分": 4, "都道府県コード": 19, "市区町村コード": 201, "所在地": "山梨県甲府市上阿原町９７１－１－１０１", "緯度": 35.651597, "経度": 138.60861, "url": "https://www.iryou.teikyouseido.mhlw.go.jp/znk-web/juminkanja/S2430/initialize?prefCd=19&kikanCd=6191000027&kikanKbn=4", "url2": "http://peekaboo-koz.com/", "内容": "助産院　ｐｅｅｋａｂｏｏ【4:助産院】山梨県甲府市上阿原町９７１－１－１０１" }, "geometry": { "type": "Point", "coordinates": [ 138.60861, 35.651597 ] } },
{ "type": "Feature", "properties": { "ID": 1946191000028, "正式名称": "いのうえ助産院", "機関区分": 4, "都道府県コード": 19, "市区町村コード": 368, "所在地": "山梨県南巨摩郡富士川町最勝寺１１８８－７", "緯度": 35.557634, "経度": 138.452516, "url": "https://www.iryou.teikyouseido.mhlw.go.jp/znk-web/juminkanja/S2430/initialize?prefCd=19&kikanCd=6191000028&kikanKbn=4", "url2": "http://www7.plala.or.jp/runrun55jp/index2.html", "内容": "いのうえ助産院【4:助産院】山梨県南巨摩郡富士川町最勝寺１１８８－７" }, "geometry": { "type": "Point", "coordinates": [ 138.452516, 35.557634 ] } },
{ "type": "Feature", "properties": { "ID": 1946191000029, "正式名称": "助産院　Ｍａｍａｎ　ｔｏ　Ｂｅ’ｂｅ’", "機関区分": 4, "都道府県コード": 19, "市区町村コード": 205, "所在地": "山梨県山梨市上神内川３８９－１　フェリオ加納岩２０３", "緯度": 35.682764, "経度": 138.68863, "url": "https://www.iryou.teikyouseido.mhlw.go.jp/znk-web/juminkanja/S2430/initialize?prefCd=19&kikanCd=6191000029&kikanKbn=4", "url2": "http://mamantobebe.com", "内容": "助産院　Ｍａｍａｎ　ｔｏ　Ｂｅ’ｂｅ’【4:助産院】山梨県山梨市上神内川３８９－１　フェリオ加納岩２０３" }, "geometry": { "type": "Point", "coordinates": [ 138.68863, 35.682764 ] } },
{ "type": "Feature", "properties": { "ID": 1946191000031, "正式名称": "助産院フジサンバ", "機関区分": 4, "都道府県コード": 19, "市区町村コード": 202, "所在地": "山梨県富士吉田市上吉田東１ー１５－３４", "緯度": 35.472043, "経度": 138.806249, "url": "https://www.iryou.teikyouseido.mhlw.go.jp/znk-web/juminkanja/S2430/initialize?prefCd=19&kikanCd=6191000031&kikanKbn=4", "url2": "http://midwife.jp/fujisanba", "内容": "助産院フジサンバ【4:助産院】山梨県富士吉田市上吉田東１ー１５－３４" }, "geometry": { "type": "Point", "coordinates": [ 138.806249, 35.472043 ] } },
{ "type": "Feature", "properties": { "ID": 1946191000032, "正式名称": "出張さんばステーション日野春　松浦助産院", "機関区分": 4, "都道府県コード": 19, "市区町村コード": 209, "所在地": "山梨県北杜市長坂町日野９８", "緯度": 35.806106, "経度": 138.367901, "url": "https://www.iryou.teikyouseido.mhlw.go.jp/znk-web/juminkanja/S2430/initialize?prefCd=19&kikanCd=6191000032&kikanKbn=4", "url2": "http://midwife.jp/", "内容": "出張さんばステーション日野春　松浦助産院【4:助産院】山梨県北杜市長坂町日野９８" }, "geometry": { "type": "Point", "coordinates": [ 138.367901, 35.806106 ] } },
{ "type": "Feature", "properties": { "ID": 1946191000036, "正式名称": "水無月助産院", "機関区分": 4, "都道府県コード": 19, "市区町村コード": 201, "所在地": "山梨県甲府市城東１－１０－７", "緯度": 35.658403, "経度": 138.582723, "url": "https://www.iryou.teikyouseido.mhlw.go.jp/znk-web/juminkanja/S2430/initialize?prefCd=19&kikanCd=6191000036&kikanKbn=4", "url2": null, "内容": "水無月助産院【4:助産院】山梨県甲府市城東１－１０－７" }, "geometry": { "type": "Point", "coordinates": [ 138.582723, 35.658403 ] } },
{ "type": "Feature", "properties": { "ID": 1946191000038, "正式名称": "マノ助産院", "機関区分": 4, "都道府県コード": 19, "市区町村コード": 422, "所在地": "山梨県南都留郡道志村３９６４　お山のリトリート　うずまの", "緯度": 35.53523, "経度": 139.060106, "url": "https://www.iryou.teikyouseido.mhlw.go.jp/znk-web/juminkanja/S2430/initialize?prefCd=19&kikanCd=6191000038&kikanKbn=4", "url2": "http://www.midwifemap.com/anzan/mysite/staff/", "内容": "マノ助産院【4:助産院】山梨県南都留郡道志村３９６４　お山のリトリート　うずまの" }, "geometry": { "type": "Point", "coordinates": [ 139.060106, 35.53523 ] } },
{ "type": "Feature", "properties": { "ID": 1946191000039, "正式名称": "吉岡助産院", "機関区分": 4, "都道府県コード": 19, "市区町村コード": 208, "所在地": "山梨県南アルプス市野牛島２１１９", "緯度": 35.66565, "経度": 138.480259, "url": "https://www.iryou.teikyouseido.mhlw.go.jp/znk-web/juminkanja/S2430/initialize?prefCd=19&kikanCd=6191000039&kikanKbn=4", "url2": "http://midwife.jp/yoshioka", "内容": "吉岡助産院【4:助産院】山梨県南アルプス市野牛島２１１９" }, "geometry": { "type": "Point", "coordinates": [ 138.480259, 35.66565 ] } },
{ "type": "Feature", "properties": { "ID": 1946191000041, "正式名称": "出張専門かもともか助産院", "機関区分": 4, "都道府県コード": 19, "市区町村コード": 207, "所在地": "山梨県韮崎市藤井町北下條１３６１", "緯度": 35.726893, "経度": 138.446009, "url": "https://www.iryou.teikyouseido.mhlw.go.jp/znk-web/juminkanja/S2430/initialize?prefCd=19&kikanCd=6191000041&kikanKbn=4", "url2": "https://kamojyosanin.amebaownd.com/", "内容": "出張専門かもともか助産院【4:助産院】山梨県韮崎市藤井町北下條１３６１" }, "geometry": { "type": "Point", "coordinates": [ 138.446009, 35.726893 ] } },
{ "type": "Feature", "properties": { "ID": 1946191000042, "正式名称": "八ヶ岳　Ｂｅ　ｂｏｒｎ　助産院", "機関区分": 4, "都道府県コード": 19, "市区町村コード": 209, "所在地": "山梨県北杜市大泉町谷戸４３８７－１", "緯度": 35.861183, "経度": 138.382203, "url": "https://www.iryou.teikyouseido.mhlw.go.jp/znk-web/juminkanja/S2430/initialize?prefCd=19&kikanCd=6191000042&kikanKbn=4", "url2": "https://yuriko-tatsuno.com/", "内容": "八ヶ岳　Ｂｅ　ｂｏｒｎ　助産院【4:助産院】山梨県北杜市大泉町谷戸４３８７－１" }, "geometry": { "type": "Point", "coordinates": [ 138.382203, 35.861183 ] } },
{ "type": "Feature", "properties": { "ID": 1946191000043, "正式名称": "訪問専門　ゆんたく助産院", "機関区分": 4, "都道府県コード": 19, "市区町村コード": 212, "所在地": "山梨県上野原市新田１１７２", "緯度": 35.619333, "経度": 139.119736, "url": "https://www.iryou.teikyouseido.mhlw.go.jp/znk-web/juminkanja/S2430/initialize?prefCd=19&kikanCd=6191000043&kikanKbn=4", "url2": null, "内容": "訪問専門　ゆんたく助産院【4:助産院】山梨県上野原市新田１１７２" }, "geometry": { "type": "Point", "coordinates": [ 139.119736, 35.619333 ] } },
{ "type": "Feature", "properties": { "ID": 1946191000045, "正式名称": "小島助産院", "機関区分": 4, "都道府県コード": 19, "市区町村コード": 214, "所在地": "山梨県中央市若宮１３ー１２", "緯度": 35.597908, "経度": 138.541729, "url": "https://www.iryou.teikyouseido.mhlw.go.jp/znk-web/juminkanja/S2430/initialize?prefCd=19&kikanCd=6191000045&kikanKbn=4", "url2": null, "内容": "小島助産院【4:助産院】山梨県中央市若宮１３ー１２" }, "geometry": { "type": "Point", "coordinates": [ 138.541729, 35.597908 ] } },
{ "type": "Feature", "properties": { "ID": 1946191000051, "正式名称": "くじらの里　そらのて", "機関区分": 4, "都道府県コード": 19, "市区町村コード": 425, "所在地": "山梨県南都留郡山中湖村平野５１９－１", "緯度": 35.416219, "経度": 138.9094, "url": "https://www.iryou.teikyouseido.mhlw.go.jp/znk-web/juminkanja/S2430/initialize?prefCd=19&kikanCd=6191000051&kikanKbn=4", "url2": null, "内容": "くじらの里　そらのて【4:助産院】山梨県南都留郡山中湖村平野５１９－１" }, "geometry": { "type": "Point", "coordinates": [ 138.9094, 35.416219 ] } },
{ "type": "Feature", "properties": { "ID": 1946191000066, "正式名称": "助産院ＨＡＰＩ．", "機関区分": 4, "都道府県コード": 19, "市区町村コード": 384, "所在地": "山梨県中巨摩郡昭和町押越１０３２－１２", "緯度": 35.630772, "経度": 138.53225, "url": "https://www.iryou.teikyouseido.mhlw.go.jp/znk-web/juminkanja/S2430/initialize?prefCd=19&kikanCd=6191000066&kikanKbn=4", "url2": null, "内容": "助産院ＨＡＰＩ．【4:助産院】山梨県中巨摩郡昭和町押越１０３２－１２" }, "geometry": { "type": "Point", "coordinates": [ 138.53225, 35.630772 ] } },
{ "type": "Feature", "properties": { "ID": 1946191000069, "正式名称": "めでたや助産院", "機関区分": 4, "都道府県コード": 19, "市区町村コード": 209, "所在地": "山梨県北杜市高根町長澤２２３３", "緯度": 35.87003, "経度": 138.423211, "url": "https://www.iryou.teikyouseido.mhlw.go.jp/znk-web/juminkanja/S2430/initialize?prefCd=19&kikanCd=6191000069&kikanKbn=4", "url2": "https://medetaya-josanin.com/", "内容": "めでたや助産院【4:助産院】山梨県北杜市高根町長澤２２３３" }, "geometry": { "type": "Point", "coordinates": [ 138.423211, 35.87003 ] } },
{ "type": "Feature", "properties": { "ID": 1946197000002, "正式名称": "ぬくぬく助産院", "機関区分": 4, "都道府県コード": 19, "市区町村コード": 346, "所在地": "山梨県西八代郡市川三郷町上野３０７３－３", "緯度": 35.569364, "経度": 138.520731, "url": "https://www.iryou.teikyouseido.mhlw.go.jp/znk-web/juminkanja/S2430/initialize?prefCd=19&kikanCd=6197000002&kikanKbn=4", "url2": null, "内容": "ぬくぬく助産院【4:助産院】山梨県西八代郡市川三郷町上野３０７３－３" }, "geometry": { "type": "Point", "coordinates": [ 138.520731, 35.569364 ] } }
]
}
