{
"type": "FeatureCollection",
"name": "geo_19_高校",
"crs": { "type": "name", "properties": { "name": "urn:ogc:def:crs:EPSG::6668" } },
"features": [
{ "type": "Feature", "properties": { "P29_001": "19207", "P29_002": "D119210000014", "P29_003": "16004", "P29_004": "山梨県立韮崎高等学校", "P29_005": "山梨県韮崎市若宮3-2-1", "P29_006": "2", "P29_007": "0", "P29_008": "00", "P29_009": null }, "geometry": { "type": "Point", "coordinates": [ 138.450570904645275, 35.715131030142366 ] } },
{ "type": "Feature", "properties": { "P29_001": "19207", "P29_002": "D119210000023", "P29_003": "16004", "P29_004": "山梨県立韮崎工業高等学校", "P29_005": "山梨県韮崎市竜岡町若尾新田50-1", "P29_006": "2", "P29_007": "0", "P29_008": "00", "P29_009": null }, "geometry": { "type": "Point", "coordinates": [ 138.450346416987941, 35.700252099496758 ] } },
{ "type": "Feature", "properties": { "P29_001": "19201", "P29_002": "D119210000032", "P29_003": "16004", "P29_004": "山梨県立甲府第一高等学校", "P29_005": "山梨県甲府市美咲2-13-44", "P29_006": "2", "P29_007": "0", "P29_008": "00", "P29_009": null }, "geometry": { "type": "Point", "coordinates": [ 138.563846229306591, 35.676674900628647 ] } },
{ "type": "Feature", "properties": { "P29_001": "19201", "P29_002": "D119210000041", "P29_003": "16004", "P29_004": "山梨県立甲府西高等学校", "P29_005": "山梨県甲府市下飯田4-1-1", "P29_006": "2", "P29_007": "0", "P29_008": "00", "P29_009": null }, "geometry": { "type": "Point", "coordinates": [ 138.549481312970414, 35.661445641870991 ] } },
{ "type": "Feature", "properties": { "P29_001": "19201", "P29_002": "D119210000050", "P29_003": "16004", "P29_004": "山梨県立甲府南高等学校", "P29_005": "山梨県甲府市中小河原町222", "P29_006": "2", "P29_007": "0", "P29_008": "00", "P29_009": null }, "geometry": { "type": "Point", "coordinates": [ 138.574026809611496, 35.631024210107363 ] } },
{ "type": "Feature", "properties": { "P29_001": "19201", "P29_002": "D119210000069", "P29_003": "16004", "P29_004": "山梨県立甲府工業高等学校", "P29_005": "山梨県甲府市塩部2-7-1", "P29_006": "2", "P29_007": "0", "P29_008": "00", "P29_009": null }, "geometry": { "type": "Point", "coordinates": [ 138.557587529355004, 35.671397183508596 ] } },
{ "type": "Feature", "properties": { "P29_001": "19210", "P29_002": "D119210000078", "P29_003": "16004", "P29_004": "山梨県立農林高等学校", "P29_005": "山梨県甲斐市西八幡4533", "P29_006": "2", "P29_007": "0", "P29_008": "00", "P29_009": null }, "geometry": { "type": "Point", "coordinates": [ 138.510248753212551, 35.634959755070277 ] } },
{ "type": "Feature", "properties": { "P29_001": "19208", "P29_002": "D119210000087", "P29_003": "16004", "P29_004": "山梨県立巨摩高等学校", "P29_005": "山梨県南アルプス市小笠原1500-2", "P29_006": "2", "P29_007": "0", "P29_008": "00", "P29_009": null }, "geometry": { "type": "Point", "coordinates": [ 138.468799163586823, 35.616013970396175 ] } },
{ "type": "Feature", "properties": { "P29_001": "19365", "P29_002": "D119210000121", "P29_003": "16004", "P29_004": "山梨県立身延高等学校", "P29_005": "山梨県南巨摩郡身延町梅平1201-2", "P29_006": "2", "P29_007": "0", "P29_008": "00", "P29_009": null }, "geometry": { "type": "Point", "coordinates": [ 138.437233004614939, 35.371665003694147 ] } },
{ "type": "Feature", "properties": { "P29_001": "19205", "P29_002": "D119210000130", "P29_003": "16004", "P29_004": "山梨県立日川高等学校", "P29_005": "山梨県山梨市一町田中1062", "P29_006": "2", "P29_007": "0", "P29_008": "00", "P29_009": null }, "geometry": { "type": "Point", "coordinates": [ 138.683646126844735, 35.663402900475361 ] } },
{ "type": "Feature", "properties": { "P29_001": "19205", "P29_002": "D119210000149", "P29_003": "16004", "P29_004": "山梨県立山梨高等学校", "P29_005": "山梨県山梨市上神内川194", "P29_006": "2", "P29_007": "0", "P29_008": "00", "P29_009": null }, "geometry": { "type": "Point", "coordinates": [ 138.687519542331472, 35.683131542671539 ] } },
{ "type": "Feature", "properties": { "P29_001": "19213", "P29_002": "D119210000158", "P29_003": "16004", "P29_004": "山梨県立塩山高等学校", "P29_005": "山梨県甲州市塩山三日市場440-1", "P29_006": "2", "P29_007": "0", "P29_008": "00", "P29_009": null }, "geometry": { "type": "Point", "coordinates": [ 138.727566382934015, 35.719455189479277 ] } },
{ "type": "Feature", "properties": { "P29_001": "19206", "P29_002": "D119210000167", "P29_003": "16004", "P29_004": "山梨県立都留高等学校", "P29_005": "山梨県大月市大月2-11-20", "P29_006": "2", "P29_007": "0", "P29_008": "00", "P29_009": null }, "geometry": { "type": "Point", "coordinates": [ 138.939434424621425, 35.60952943072644 ] } },
{ "type": "Feature", "properties": { "P29_001": "19202", "P29_002": "D119210000176", "P29_003": "16004", "P29_004": "山梨県立吉田高等学校", "P29_005": "山梨県富士吉田市下吉田6-17-1", "P29_006": "2", "P29_007": "0", "P29_008": "00", "P29_009": null }, "geometry": { "type": "Point", "coordinates": [ 138.806937661976804, 35.485152446748735 ] } },
{ "type": "Feature", "properties": { "P29_001": "19201", "P29_002": "D119210000185", "P29_003": "16004", "P29_004": "甲府市立甲府商業高等学校", "P29_005": "山梨県甲府市上今井町300", "P29_006": "3", "P29_007": "0", "P29_008": "00", "P29_009": null }, "geometry": { "type": "Point", "coordinates": [ 138.575002862064395, 35.626898518132542 ] } },
{ "type": "Feature", "properties": { "P29_001": "19209", "P29_002": "D119210000194", "P29_003": "16004", "P29_004": "北杜市立甲陵高等学校", "P29_005": "山梨県北杜市長坂町長坂上条2003", "P29_006": "3", "P29_007": "0", "P29_008": "00", "P29_009": null }, "geometry": { "type": "Point", "coordinates": [ 138.378008494330743, 35.82520261783386 ] } },
{ "type": "Feature", "properties": { "P29_001": "19201", "P29_002": "D119210000201", "P29_003": "16004", "P29_004": "山梨県立中央高等学校", "P29_005": "山梨県甲府市飯田5-6-23", "P29_006": "2", "P29_007": "0", "P29_008": "00", "P29_009": null }, "geometry": { "type": "Point", "coordinates": [ 138.555942770348622, 35.661745948643102 ] } },
{ "type": "Feature", "properties": { "P29_001": "19201", "P29_002": "D119210000210", "P29_003": "16004", "P29_004": "山梨県立甲府東高等学校", "P29_005": "山梨県甲府市酒折1-17-1", "P29_006": "2", "P29_007": "0", "P29_008": "00", "P29_009": null }, "geometry": { "type": "Point", "coordinates": [ 138.595387012945281, 35.655999255138042 ] } },
{ "type": "Feature", "properties": { "P29_001": "19430", "P29_002": "D119210000229", "P29_003": "16004", "P29_004": "山梨県立富士河口湖高等学校", "P29_005": "山梨県南都留郡富士河口湖町船津6663-1", "P29_006": "2", "P29_007": "0", "P29_008": "00", "P29_009": null }, "geometry": { "type": "Point", "coordinates": [ 138.771109873758547, 35.48826954536991 ] } },
{ "type": "Feature", "properties": { "P29_001": "19212", "P29_002": "D119210000238", "P29_003": "16004", "P29_004": "山梨県立上野原高等学校", "P29_005": "山梨県上野原市八ツ沢555", "P29_006": "2", "P29_007": "0", "P29_008": "00", "P29_009": null }, "geometry": { "type": "Point", "coordinates": [ 139.100728727333944, 35.6235285656808 ] } },
{ "type": "Feature", "properties": { "P29_001": "19384", "P29_002": "D119210000247", "P29_003": "16004", "P29_004": "山梨県立甲府昭和高等学校", "P29_005": "山梨県中巨摩郡昭和町西条3000", "P29_006": "2", "P29_007": "0", "P29_008": "00", "P29_009": null }, "geometry": { "type": "Point", "coordinates": [ 138.540282369073623, 35.642896410626065 ] } },
{ "type": "Feature", "properties": { "P29_001": "19208", "P29_002": "D119210000256", "P29_003": "16004", "P29_004": "山梨県立白根高等学校", "P29_005": "山梨県南アルプス市上今諏訪1180", "P29_006": "2", "P29_007": "0", "P29_008": "00", "P29_009": null }, "geometry": { "type": "Point", "coordinates": [ 138.494266237249064, 35.643143103816492 ] } },
{ "type": "Feature", "properties": { "P29_001": "19201", "P29_002": "D119210000265", "P29_003": "16004", "P29_004": "山梨県立甲府城西高等学校", "P29_005": "山梨県甲府市下飯田1-9-1", "P29_006": "2", "P29_007": "0", "P29_008": "00", "P29_009": null }, "geometry": { "type": "Point", "coordinates": [ 138.546170257784837, 35.66731170808518 ] } },
{ "type": "Feature", "properties": { "P29_001": "19209", "P29_002": "D119210000274", "P29_003": "16004", "P29_004": "山梨県立北杜高等学校", "P29_005": "山梨県北杜市長坂町渋沢1007-19", "P29_006": "2", "P29_007": "0", "P29_008": "00", "P29_009": null }, "geometry": { "type": "Point", "coordinates": [ 138.386260428824187, 35.800170191810452 ] } },
{ "type": "Feature", "properties": { "P29_001": "19202", "P29_002": "D119210000283", "P29_003": "16004", "P29_004": "山梨県立富士北稜高等学校", "P29_005": "山梨県富士吉田市新西原1-23-1", "P29_006": "2", "P29_007": "0", "P29_008": "00", "P29_009": null }, "geometry": { "type": "Point", "coordinates": [ 138.789805282207567, 35.482038806226662 ] } },
{ "type": "Feature", "properties": { "P29_001": "19202", "P29_002": "D119210000292", "P29_003": "16004", "P29_004": "山梨県立ひばりが丘高等学校", "P29_005": "山梨県富士吉田市上吉田東4-3-1", "P29_006": "2", "P29_007": "0", "P29_008": "00", "P29_009": null }, "geometry": { "type": "Point", "coordinates": [ 138.805440523057058, 35.477142140928393 ] } },
{ "type": "Feature", "properties": { "P29_001": "19211", "P29_002": "D119210000309", "P29_003": "16004", "P29_004": "山梨県立笛吹高等学校", "P29_005": "山梨県笛吹市石和町市部3", "P29_006": "2", "P29_007": "0", "P29_008": "00", "P29_009": null }, "geometry": { "type": "Point", "coordinates": [ 138.646003641030973, 35.645149340850431 ] } },
{ "type": "Feature", "properties": { "P29_001": "19204", "P29_002": "D119210000318", "P29_003": "16004", "P29_004": "山梨県立都留興譲館高等学校", "P29_005": "山梨県都留市上谷5-7-1", "P29_006": "2", "P29_007": "0", "P29_008": "00", "P29_009": null }, "geometry": { "type": "Point", "coordinates": [ 138.902021660961225, 35.54413861332025 ] } },
{ "type": "Feature", "properties": { "P29_001": "19346", "P29_002": "D119210000327", "P29_003": "16004", "P29_004": "山梨県立青洲高等学校", "P29_005": "山梨県西八代郡市川三郷町市川大門1733-2", "P29_006": "2", "P29_007": "0", "P29_008": "00", "P29_009": null }, "geometry": { "type": "Point", "coordinates": [ 138.500137430598045, 35.566040911589738 ] } },
{ "type": "Feature", "properties": { "P29_001": "19201", "P29_002": "D119310000012", "P29_003": "16004", "P29_004": "山梨英和高等学校", "P29_005": "山梨県甲府市愛宕町112", "P29_006": "4", "P29_007": "0", "P29_008": "00", "P29_009": null }, "geometry": { "type": "Point", "coordinates": [ 138.576282284969949, 35.666947728707484 ] } },
{ "type": "Feature", "properties": { "P29_001": "19201", "P29_002": "D119310000021", "P29_003": "16004", "P29_004": "甲斐清和高等学校", "P29_005": "山梨県甲府市青沼3-10-1", "P29_006": "4", "P29_007": "0", "P29_008": "00", "P29_009": null }, "geometry": { "type": "Point", "coordinates": [ 138.573733534953107, 35.651248141030777 ] } },
{ "type": "Feature", "properties": { "P29_001": "19201", "P29_002": "D119310000030", "P29_003": "16004", "P29_004": "駿台甲府高等学校", "P29_005": "山梨県甲府市塩部2-8-1", "P29_006": "4", "P29_007": "0", "P29_008": "01", "P29_009": null }, "geometry": { "type": "Point", "coordinates": [ 138.557199613175868, 35.670855212076738 ] } },
{ "type": "Feature", "properties": { "P29_001": "19201", "P29_002": "D119310000049", "P29_003": "16004", "P29_004": "山梨学院高等学校", "P29_005": "山梨県甲府市酒折3-3-1", "P29_006": "4", "P29_007": "0", "P29_008": "00", "P29_009": null }, "geometry": { "type": "Point", "coordinates": [ 138.597757991248585, 35.661190522706548 ] } },
{ "type": "Feature", "properties": { "P29_001": "19201", "P29_002": "D119310000058", "P29_003": "16004", "P29_004": "東海大学付属甲府高等学校", "P29_005": "山梨県甲府市金竹町1-1", "P29_006": "4", "P29_007": "0", "P29_008": "00", "P29_009": null }, "geometry": { "type": "Point", "coordinates": [ 138.538485996621404, 35.667859342242224 ] } },
{ "type": "Feature", "properties": { "P29_001": "19210", "P29_002": "D119310000067", "P29_003": "16004", "P29_004": "日本航空高等学校", "P29_005": "山梨県甲斐市宇津谷445", "P29_006": "4", "P29_007": "0", "P29_008": "00", "P29_009": null }, "geometry": { "type": "Point", "coordinates": [ 138.480664605252116, 35.682321629932638 ] } },
{ "type": "Feature", "properties": { "P29_001": "19365", "P29_002": "D119310000085", "P29_003": "16004", "P29_004": "身延山高等学校", "P29_005": "山梨県南巨摩郡身延町身延3567", "P29_006": "4", "P29_007": "0", "P29_008": "00", "P29_009": null }, "geometry": { "type": "Point", "coordinates": [ 138.428214049504305, 35.381216384024377 ] } },
{ "type": "Feature", "properties": { "P29_001": "19212", "P29_002": "D119310000094", "P29_003": "16004", "P29_004": "日本大学明誠高等学校", "P29_005": "山梨県上野原市上野原3200", "P29_006": "4", "P29_007": "0", "P29_008": "00", "P29_009": null }, "geometry": { "type": "Point", "coordinates": [ 139.115806537739218, 35.631519523273788 ] } },
{ "type": "Feature", "properties": { "P29_001": "19202", "P29_002": "D119310000101", "P29_003": "16004", "P29_004": "富士学苑高等学校", "P29_005": "山梨県富士吉田市緑ヶ丘1-1-1", "P29_006": "4", "P29_007": "0", "P29_008": "00", "P29_009": null }, "geometry": { "type": "Point", "coordinates": [ 138.799668002645262, 35.49340599684966 ] } },
{ "type": "Feature", "properties": { "P29_001": "19209", "P29_002": "D119310000110", "P29_003": "16004", "P29_004": "自然学園高等学校", "P29_005": "山梨県北杜市須玉町小尾6900", "P29_006": "4", "P29_007": "0", "P29_008": "00", "P29_009": null }, "geometry": { "type": "Point", "coordinates": [ 138.523637679478014, 35.887147793206218 ] } },
{ "type": "Feature", "properties": { "P29_001": "19209", "P29_002": "D119310000129", "P29_003": "16004", "P29_004": "帝京第三高等学校", "P29_005": "山梨県北杜市小淵沢町2148", "P29_006": "4", "P29_007": "0", "P29_008": "00", "P29_009": null }, "geometry": { "type": "Point", "coordinates": [ 138.309484446193039, 35.863402656038637 ] } },
{ "type": "Feature", "properties": { "P29_001": "19201", "P29_002": "D119310000030", "P29_003": "16004", "P29_004": "駿台甲府高等学校", "P29_005": "山梨県甲府市上今井町1279-2", "P29_006": "4", "P29_007": "0", "P29_008": "02", "P29_009": "今井校舎" }, "geometry": { "type": "Point", "coordinates": [ 138.575197487548678, 35.622040011572075 ] } }
]
}
