{
"type": "FeatureCollection",
"name": "geo_19_通所介護",
"crs": { "type": "name", "properties": { "name": "urn:ogc:def:crs:OGC:1.3:CRS84" } },
"features": [
{ "type": "Feature", "properties": { "内容": "デイサービスセンター　里の家族【通所介護】山梨県甲府市古府中町３２８６－１", "url": "https://www.kaigokensaku.mhlw.go.jp/19/index.php?action_kouhyou_detail_004_kani=true&JigyosyoCd=1970101141-00&ServiceCd=150&Type=search", "url2": null }, "geometry": { "type": "Point", "coordinates": [ 138.5811109, 35.6882072 ] } },
{ "type": "Feature", "properties": { "内容": "アルファケア　北甲府介護施設【通所介護】山梨県　甲府市　山宮町703-1", "url": "https://www.kaigokensaku.mhlw.go.jp/19/index.php?action_kouhyou_detail_004_kani=true&JigyosyoCd=1970101356-00&ServiceCd=150&Type=search", "url2": "http://alphacare.joto-group.com" }, "geometry": { "type": "Point", "coordinates": [ 138.532521, 35.6882006 ] } },
{ "type": "Feature", "properties": { "内容": "在宅福祉エ・ビーナ【通所介護】山梨県甲府市青沼一丁目１２－２７", "url": "https://www.kaigokensaku.mhlw.go.jp/19/index.php?action_kouhyou_detail_004_kani=true&JigyosyoCd=1970102578-00&ServiceCd=150&Type=search", "url2": null }, "geometry": { "type": "Point", "coordinates": [ 138.573887499999955, 35.6547977 ] } },
{ "type": "Feature", "properties": { "内容": "パナ介護デイサービス【通所介護】山梨県甲府市国玉町1153", "url": "https://www.kaigokensaku.mhlw.go.jp/19/index.php?action_kouhyou_detail_004_kani=true&JigyosyoCd=1970102107-00&ServiceCd=150&Type=search", "url2": "http://www.toyo.eei.jp" }, "geometry": { "type": "Point", "coordinates": [ 138.598627299999976, 35.6510736 ] } },
{ "type": "Feature", "properties": { "内容": "デイサービス　あいおい【通所介護】山梨県甲府市相生１丁目７－１５", "url": "https://www.kaigokensaku.mhlw.go.jp/19/index.php?action_kouhyou_detail_004_kani=true&JigyosyoCd=1970102040-00&ServiceCd=150&Type=search", "url2": null }, "geometry": { "type": "Point", "coordinates": [ 138.564888200000041, 35.6576165 ] } },
{ "type": "Feature", "properties": { "内容": "デイサービスセンター　銀杏荘【通所介護】山梨県甲府市国母1丁目13-15", "url": "https://www.kaigokensaku.mhlw.go.jp/19/index.php?action_kouhyou_detail_004_kani=true&JigyosyoCd=1970100531-00&ServiceCd=150&Type=search", "url2": "http.//www.nansei.or.jp" }, "geometry": { "type": "Point", "coordinates": [ 138.557781100000057, 35.6470537 ] } },
{ "type": "Feature", "properties": { "内容": "あけぼのデイサービスセンター【通所介護】山梨県甲府市堀之内町8-1", "url": "https://www.kaigokensaku.mhlw.go.jp/19/index.php?action_kouhyou_detail_004_kani=true&JigyosyoCd=1970101588-00&ServiceCd=150&Type=search", "url2": null }, "geometry": { "type": "Point", "coordinates": [ 138.5615765, 35.6153527 ] } },
{ "type": "Feature", "properties": { "内容": "特定非営利活動法人デイサービス真心【通所介護】山梨県甲府市国玉町７５４－５", "url": "https://www.kaigokensaku.mhlw.go.jp/19/index.php?action_kouhyou_detail_004_kani=true&JigyosyoCd=1970101299-00&ServiceCd=150&Type=search", "url2": null }, "geometry": { "type": "Point", "coordinates": [ 138.602324400000043, 35.6479906 ] } },
{ "type": "Feature", "properties": { "内容": "デイサービス愛あふれる家【通所介護】山梨県甲府市富士見２－６－５", "url": "https://www.kaigokensaku.mhlw.go.jp/19/index.php?action_kouhyou_detail_004_kani=true&JigyosyoCd=1970101737-00&ServiceCd=150&Type=search", "url2": null }, "geometry": { "type": "Point", "coordinates": [ 138.545794800000067, 35.6766385 ] } },
{ "type": "Feature", "properties": { "内容": "デイサービスほのか【通所介護】山梨県甲府市小瀬町５７３－２", "url": "https://www.kaigokensaku.mhlw.go.jp/19/index.php?action_kouhyou_detail_004_kani=true&JigyosyoCd=1970102032-00&ServiceCd=150&Type=search", "url2": null }, "geometry": { "type": "Point", "coordinates": [ 138.583024199999954, 35.6274099 ] } },
{ "type": "Feature", "properties": { "内容": "ＮＰＯ法人デイサービスかんむら【通所介護】山梨県甲府市上町871-1", "url": "https://www.kaigokensaku.mhlw.go.jp/19/index.php?action_kouhyou_detail_004_kani=true&JigyosyoCd=1970102891-00&ServiceCd=150&Type=search", "url2": null }, "geometry": { "type": "Point", "coordinates": [ 138.594067600000017, 35.6278683 ] } },
{ "type": "Feature", "properties": { "内容": "デイサービス　ソレアード【通所介護】山梨県甲府市貢川２丁目８－１１", "url": "https://www.kaigokensaku.mhlw.go.jp/19/index.php?action_kouhyou_detail_004_kani=true&JigyosyoCd=1970103014-00&ServiceCd=150&Type=search", "url2": null }, "geometry": { "type": "Point", "coordinates": [ 138.535377199999971, 35.6614181 ] } },
{ "type": "Feature", "properties": { "内容": "虹の郷甲府【通所介護】山梨県甲府市住吉5-3-17", "url": "https://www.kaigokensaku.mhlw.go.jp/19/index.php?action_kouhyou_detail_004_kani=true&JigyosyoCd=1970102982-00&ServiceCd=150&Type=search", "url2": null }, "geometry": { "type": "Point", "coordinates": [ 138.579290899999933, 35.6358335 ] } },
{ "type": "Feature", "properties": { "内容": "デイサービス倖せ【通所介護】甲府市城東４丁目２－２３", "url": "https://www.kaigokensaku.mhlw.go.jp/19/index.php?action_kouhyou_detail_004_kani=true&JigyosyoCd=1970102289-00&ServiceCd=150&Type=search", "url2": null }, "geometry": { "type": "Point", "coordinates": [ 138.5844753, 35.6578532 ] } },
{ "type": "Feature", "properties": { "内容": "ハートデイサービス後屋【通所介護】山梨県甲府市後屋町416-1", "url": "https://www.kaigokensaku.mhlw.go.jp/19/index.php?action_kouhyou_detail_004_kani=true&JigyosyoCd=1970102719-00&ServiceCd=150&Type=search", "url2": null }, "geometry": { "type": "Point", "coordinates": [ 138.56221759999994, 35.6310754 ] } },
{ "type": "Feature", "properties": { "内容": "ハートデイサービス大国【通所介護】山梨県甲府市後屋町40-1", "url": "https://www.kaigokensaku.mhlw.go.jp/19/index.php?action_kouhyou_detail_004_kani=true&JigyosyoCd=1970103501-00&ServiceCd=150&Type=search", "url2": null }, "geometry": { "type": "Point", "coordinates": [ 138.563626, 35.6269899 ] } },
{ "type": "Feature", "properties": { "内容": "社会福祉法人　正寿福祉会　憩いホーム緑町【通所介護】甲府市若松町４－１５憩いホーム緑町", "url": "https://www.kaigokensaku.mhlw.go.jp/19/index.php?action_kouhyou_detail_004_kani=true&JigyosyoCd=1970103352-00&ServiceCd=150&Type=search", "url2": null }, "geometry": { "type": "Point", "coordinates": [ 138.5707294, 35.6565641 ] } },
{ "type": "Feature", "properties": { "内容": "快晴苑デイサービスセンター【通所介護】山梨県甲府市大津町３３３", "url": "https://www.kaigokensaku.mhlw.go.jp/19/index.php?action_kouhyou_detail_004_kani=true&JigyosyoCd=1970100184-00&ServiceCd=150&Type=search", "url2": "http://www.h5.dion.ne.jp/~kaiseien/" }, "geometry": { "type": "Point", "coordinates": [ 138.563904200000025, 35.6090926 ] } },
{ "type": "Feature", "properties": { "内容": "医療法人　幸仁会　須貝整形外科医院　通所介護センター【通所介護】山梨県甲府市国母1丁目５－１７", "url": "https://www.kaigokensaku.mhlw.go.jp/19/index.php?action_kouhyou_detail_004_kani=true&JigyosyoCd=1970101125-00&ServiceCd=150&Type=search", "url2": null }, "geometry": { "type": "Point", "coordinates": [ 138.5581396, 35.6434319 ] } },
{ "type": "Feature", "properties": { "内容": "デイサビスセンターなかよし苑【通所介護】甲府市宝１－４－３３", "url": "https://www.kaigokensaku.mhlw.go.jp/19/index.php?action_kouhyou_detail_004_kani=true&JigyosyoCd=1970101240-00&ServiceCd=150&Type=search", "url2": null }, "geometry": { "type": "Point", "coordinates": [ 138.561623899999972, 35.6685596 ] } },
{ "type": "Feature", "properties": { "内容": "デイサービスセンターこみやま【通所介護】山梨県甲府市荒川1-8-21", "url": "https://www.kaigokensaku.mhlw.go.jp/19/index.php?action_kouhyou_detail_004_kani=true&JigyosyoCd=1970101653-00&ServiceCd=150&Type=search", "url2": "http://www" }, "geometry": { "type": "Point", "coordinates": [ 138.53922620000003, 35.6759662 ] } },
{ "type": "Feature", "properties": { "内容": "指定通所介護事業所　ふぁみりー【通所介護】山梨県甲府市湯村３丁目１８－１２", "url": "https://www.kaigokensaku.mhlw.go.jp/19/index.php?action_kouhyou_detail_004_kani=true&JigyosyoCd=1970102412-00&ServiceCd=150&Type=search", "url2": null }, "geometry": { "type": "Point", "coordinates": [ 138.546944400000029, 35.6844652 ] } },
{ "type": "Feature", "properties": { "内容": "デイサービスあっとほーむ【通所介護】甲府市住吉4丁目20-15", "url": "https://www.kaigokensaku.mhlw.go.jp/19/index.php?action_kouhyou_detail_004_kani=true&JigyosyoCd=1970103162-00&ServiceCd=150&Type=search", "url2": "kaigo-athome@kub.biglobe.ne.jp" }, "geometry": { "type": "Point", "coordinates": [ 138.579910199999972, 35.6381554 ] } },
{ "type": "Feature", "properties": { "内容": "デイサービスセンターフォーリーブス甲府【通所介護】山梨県甲府市東下条町１０７番地", "url": "https://www.kaigokensaku.mhlw.go.jp/19/index.php?action_kouhyou_detail_004_kani=true&JigyosyoCd=1970104129-00&ServiceCd=150&Type=search", "url2": "甲府市東下条町１０７番地" }, "geometry": { "type": "Point", "coordinates": [ 138.572309, 35.6120785 ] } },
{ "type": "Feature", "properties": { "内容": "サテライト尚古園デイサービスセンター【通所介護】山梨県甲府市中央１－１６－２", "url": "https://www.kaigokensaku.mhlw.go.jp/19/index.php?action_kouhyou_detail_004_kani=true&JigyosyoCd=1970104061-00&ServiceCd=150&Type=search", "url2": "http://www.zenrinkai.or.jp" }, "geometry": { "type": "Point", "coordinates": [ 138.570021, 35.6591165 ] } },
{ "type": "Feature", "properties": { "内容": "ケアセンター　ハッピーライフ【通所介護】山梨県甲府市下石田２丁目１－２４", "url": "https://www.kaigokensaku.mhlw.go.jp/19/index.php?action_kouhyou_detail_004_kani=true&JigyosyoCd=1970101760-00&ServiceCd=150&Type=search", "url2": null }, "geometry": { "type": "Point", "coordinates": [ 138.55030940000006, 35.6500643 ] } },
{ "type": "Feature", "properties": { "内容": "あい山城【通所介護】上今井町571-4あい山城", "url": "https://www.kaigokensaku.mhlw.go.jp/19/index.php?action_kouhyou_detail_004_kani=true&JigyosyoCd=1970103089-00&ServiceCd=150&Type=search", "url2": "http://www.shinnihontsuusan.co.jp/index.html" }, "geometry": { "type": "Point", "coordinates": [ 138.577822, 35.6244574 ] } },
{ "type": "Feature", "properties": { "内容": "ショート＆デイサービスセンター「桜森荘」【通所介護】山梨県甲府市上石田1－3ー14", "url": "https://www.kaigokensaku.mhlw.go.jp/19/index.php?action_kouhyou_detail_004_kani=true&JigyosyoCd=1970103345-00&ServiceCd=150&Type=search", "url2": null }, "geometry": { "type": "Point", "coordinates": [ 138.5522171, 35.6591632 ] } },
{ "type": "Feature", "properties": { "内容": "介護予防センター　早稲田イーライフ南甲府【通所介護】山梨県甲府市南口町1-40文化センターペアーレ山梨2階", "url": "https://www.kaigokensaku.mhlw.go.jp/19/index.php?action_kouhyou_detail_004_kani=true&JigyosyoCd=1970103675-00&ServiceCd=150&Type=search", "url2": "http://e-lifeminamikoufu.com/" }, "geometry": { "type": "Point", "coordinates": [ 138.576856200000094, 35.6431886 ] } },
{ "type": "Feature", "properties": { "内容": "あい上町【通所介護】山梨県甲府市小瀬町772番地2", "url": "https://www.kaigokensaku.mhlw.go.jp/19/index.php?action_kouhyou_detail_004_kani=true&JigyosyoCd=1970104699-00&ServiceCd=150&Type=search", "url2": null }, "geometry": { "type": "Point", "coordinates": [ 138.583277, 35.6251463 ] } },
{ "type": "Feature", "properties": { "内容": "みつばやあんき【通所介護】山梨県甲府市宝2-17-8", "url": "https://www.kaigokensaku.mhlw.go.jp/19/index.php?action_kouhyou_detail_004_kani=true&JigyosyoCd=1970104673-00&ServiceCd=150&Type=search", "url2": "http://mitsubaya.wix.com/mitsubaya" }, "geometry": { "type": "Point", "coordinates": [ 138.56159660000003, 35.6604494 ] } },
{ "type": "Feature", "properties": { "内容": "甲府市上九一色デイサービスセンター【通所介護】山梨県甲府市古関町1174番地", "url": "https://www.kaigokensaku.mhlw.go.jp/19/index.php?action_kouhyou_detail_004_kani=true&JigyosyoCd=1970102099-00&ServiceCd=150&Type=search", "url2": "http://www.kofu-syakyo.or.jp/" }, "geometry": { "type": "Point", "coordinates": [ 138.6100788, 35.5310119 ] } },
{ "type": "Feature", "properties": { "内容": "デイサービスセンター「笑くぼ」【通所介護】山梨県甲府市住吉3-21-16", "url": "https://www.kaigokensaku.mhlw.go.jp/19/index.php?action_kouhyou_detail_004_kani=true&JigyosyoCd=1970101612-00&ServiceCd=150&Type=search", "url2": "http://www.goodcare-kaigo.com/" }, "geometry": { "type": "Point", "coordinates": [ 138.581040499999972, 35.6402024 ] } },
{ "type": "Feature", "properties": { "内容": "デイサービスセンター「よつ葉」【通所介護】山梨県甲府市東光寺2-19-29", "url": "https://www.kaigokensaku.mhlw.go.jp/19/index.php?action_kouhyou_detail_004_kani=true&JigyosyoCd=1970102065-00&ServiceCd=150&Type=search", "url2": "http://www.goodcare-kaigo.com/" }, "geometry": { "type": "Point", "coordinates": [ 138.5877858, 35.6623167 ] } },
{ "type": "Feature", "properties": { "内容": "デイサービスセンター「すみよし」【通所介護】山梨県甲府市住吉5-21-1", "url": "https://www.kaigokensaku.mhlw.go.jp/19/index.php?action_kouhyou_detail_004_kani=true&JigyosyoCd=1970104350-00&ServiceCd=150&Type=search", "url2": "http://www.goodcare-kaigo.com/" }, "geometry": { "type": "Point", "coordinates": [ 138.576541200000065, 35.6343114 ] } },
{ "type": "Feature", "properties": { "内容": "奥湯村指定通所介護事業所【通所介護】山梨県甲府市羽黒町1657-5", "url": "https://www.kaigokensaku.mhlw.go.jp/19/index.php?action_kouhyou_detail_004_kani=true&JigyosyoCd=1970100150-00&ServiceCd=150&Type=search", "url2": "okuyumura.or.jp" }, "geometry": { "type": "Point", "coordinates": [ 138.550249300000019, 35.692728 ] } },
{ "type": "Feature", "properties": { "内容": "ニチイケアセンター甲府西【通所介護】山梨県甲府市下飯田2-4-30", "url": "https://www.kaigokensaku.mhlw.go.jp/19/index.php?action_kouhyou_detail_004_kani=true&JigyosyoCd=1970101695-00&ServiceCd=150&Type=search", "url2": "http://www.nichiigakkan.co.jp" }, "geometry": { "type": "Point", "coordinates": [ 138.549078300000019, 35.6632793 ] } },
{ "type": "Feature", "properties": { "内容": "わかばデイサービスセンター【通所介護】山梨県甲府市古上条町１６３－１", "url": "https://www.kaigokensaku.mhlw.go.jp/19/index.php?action_kouhyou_detail_004_kani=true&JigyosyoCd=1970101851-00&ServiceCd=150&Type=search", "url2": null }, "geometry": { "type": "Point", "coordinates": [ 138.558651200000014, 35.6283593 ] } },
{ "type": "Feature", "properties": { "内容": "デイサービスセンターあい【通所介護】山梨県甲府市天神町4-7", "url": "https://www.kaigokensaku.mhlw.go.jp/19/index.php?action_kouhyou_detail_004_kani=true&JigyosyoCd=1970101976-00&ServiceCd=150&Type=search", "url2": "http://www.s-mochizuki.co.jp/ai/top/top.html" }, "geometry": { "type": "Point", "coordinates": [ 138.568889899999931, 35.6753885 ] } },
{ "type": "Feature", "properties": { "内容": "デイサービスセンター常和【通所介護】山梨県甲府市中村町4-12", "url": "https://www.kaigokensaku.mhlw.go.jp/19/index.php?action_kouhyou_detail_004_kani=true&JigyosyoCd=1971700842-00&ServiceCd=150&Type=search", "url2": "http://www.wakouwelfare.or.jp" }, "geometry": { "type": "Point", "coordinates": [ 138.5331352, 35.667674 ] } },
{ "type": "Feature", "properties": { "内容": "デイサービス　ゴールドエイジ山宮【通所介護】山梨県甲府市山宮町5001番地10", "url": "https://www.kaigokensaku.mhlw.go.jp/19/index.php?action_kouhyou_detail_004_kani=true&JigyosyoCd=1970900468-00&ServiceCd=150&Type=search", "url2": "http://goldage.co.jp" }, "geometry": { "type": "Point", "coordinates": [ 138.524999500000035, 35.6967883 ] } },
{ "type": "Feature", "properties": { "内容": "デイサービスセンターにじの家【通所介護】山梨県甲府市湯村3-19-50", "url": "https://www.kaigokensaku.mhlw.go.jp/19/index.php?action_kouhyou_detail_004_kani=true&JigyosyoCd=1970102495-00&ServiceCd=150&Type=search", "url2": null }, "geometry": { "type": "Point", "coordinates": [ 138.544759392729219, 35.685140228670825 ] } },
{ "type": "Feature", "properties": { "内容": "通所介護　「歳深み」【通所介護】山梨県甲府市中小河原町1608-1", "url": "https://www.kaigokensaku.mhlw.go.jp/19/index.php?action_kouhyou_detail_004_kani=true&JigyosyoCd=1970102602-00&ServiceCd=150&Type=search", "url2": "https://koharubi-kaigo.com" }, "geometry": { "type": "Point", "coordinates": [ 138.5690142, 35.6306327 ] } },
{ "type": "Feature", "properties": { "内容": "デイサロン　モア　山の手【通所介護】山梨県甲府市千塚三丁目１－３２", "url": "https://www.kaigokensaku.mhlw.go.jp/19/index.php?action_kouhyou_detail_004_kani=true&JigyosyoCd=1970104871-00&ServiceCd=150&Type=search", "url2": "http://www.lieben.me/yamanote" }, "geometry": { "type": "Point", "coordinates": [ 138.540622898147632, 35.68212876550767 ] } },
{ "type": "Feature", "properties": { "内容": "ハートデイサービス緑ヶ丘【通所介護】山梨県甲府市塩部3-15-13", "url": "https://www.kaigokensaku.mhlw.go.jp/19/index.php?action_kouhyou_detail_004_kani=true&JigyosyoCd=1970102909-00&ServiceCd=150&Type=search", "url2": "http://heart-service.co.jp/" }, "geometry": { "type": "Point", "coordinates": [ 138.557624, 35.676836 ] } },
{ "type": "Feature", "properties": { "内容": "デイサービスあかし【通所介護】山梨県甲府市上町2473番地", "url": "https://www.kaigokensaku.mhlw.go.jp/19/index.php?action_kouhyou_detail_004_kani=true&JigyosyoCd=1970101216-00&ServiceCd=150&Type=search", "url2": "http://www.akashi.or.jp" }, "geometry": { "type": "Point", "coordinates": [ 138.5869844, 35.6366689 ] } },
{ "type": "Feature", "properties": { "内容": "デイサービスわかやなぎ池田【通所介護】山梨県甲府市池田3丁目8-8", "url": "https://www.kaigokensaku.mhlw.go.jp/19/index.php?action_kouhyou_detail_004_kani=true&JigyosyoCd=1970104574-00&ServiceCd=150&Type=search", "url2": "http://wakayanagi.jp" }, "geometry": { "type": "Point", "coordinates": [ 138.5371649, 35.6713323 ] } },
{ "type": "Feature", "properties": { "内容": "青葉町デイサービスセンター【通所介護】山梨県甲府市青葉町14-15", "url": "https://www.kaigokensaku.mhlw.go.jp/19/index.php?action_kouhyou_detail_004_kani=true&JigyosyoCd=1970102156-00&ServiceCd=150&Type=search", "url2": "http://www.kei-you.jp" }, "geometry": { "type": "Point", "coordinates": [ 138.5823548, 35.643976 ] } },
{ "type": "Feature", "properties": { "内容": "デイサービスセンターつくし【通所介護】山梨県甲府市西高橋町２７７番", "url": "https://www.kaigokensaku.mhlw.go.jp/19/index.php?action_kouhyou_detail_004_kani=true&JigyosyoCd=1970104368-00&ServiceCd=150&Type=search", "url2": "http:/www.fujikoseikai.or.jp/index.html" }, "geometry": { "type": "Point", "coordinates": [ 138.5969642, 35.6398333 ] } },
{ "type": "Feature", "properties": { "内容": "通所介護事業所コスモ・アンシア【通所介護】山梨県甲府市相生3-3-14", "url": "https://www.kaigokensaku.mhlw.go.jp/19/index.php?action_kouhyou_detail_004_kani=true&JigyosyoCd=1970103279-00&ServiceCd=150&Type=search", "url2": "https://ikiikiclub.com/" }, "geometry": { "type": "Point", "coordinates": [ 138.5697377, 35.6536957 ] } },
{ "type": "Feature", "properties": { "内容": "デイサービスセンター和永荘【通所介護】山梨県甲府市中村町11-18", "url": "https://www.kaigokensaku.mhlw.go.jp/19/index.php?action_kouhyou_detail_004_kani=true&JigyosyoCd=1970100119-00&ServiceCd=150&Type=search", "url2": null }, "geometry": { "type": "Point", "coordinates": [ 138.534960500000011, 35.665838 ] } },
{ "type": "Feature", "properties": { "内容": "短時間型と夜型のデイサービス　ワンライフ【通所介護】山梨県甲府市飯田3丁目5-3　2F", "url": "https://www.kaigokensaku.mhlw.go.jp/19/index.php?action_kouhyou_detail_004_kani=true&JigyosyoCd=1970104798-00&ServiceCd=150&Type=search", "url2": "https://onelife-k.com" }, "geometry": { "type": "Point", "coordinates": [ 138.559498105030229, 35.666141518788166 ] } },
{ "type": "Feature", "properties": { "内容": "トリアスデイサービスセンター【通所介護】山梨県甲府市国玉町951-1", "url": "https://www.kaigokensaku.mhlw.go.jp/19/index.php?action_kouhyou_detail_004_kani=true&JigyosyoCd=1970100200-00&ServiceCd=150&Type=search", "url2": "http:/www.trias.or.jp/" }, "geometry": { "type": "Point", "coordinates": [ 138.5986866, 35.6465584 ] } },
{ "type": "Feature", "properties": { "内容": "やさしい手甲府西事業所【通所介護】山梨県甲府市上石田１－７－１４", "url": "https://www.kaigokensaku.mhlw.go.jp/19/index.php?action_kouhyou_detail_004_kani=true&JigyosyoCd=1970100754-00&ServiceCd=150&Type=search", "url2": "http://www.yasashiite-kofu.co.jp/" }, "geometry": { "type": "Point", "coordinates": [ 138.553267, 35.6579134 ] } },
{ "type": "Feature", "properties": { "内容": "やさしい手　甲府東事業所【通所介護】山梨県甲府市酒折1-20-23", "url": "https://www.kaigokensaku.mhlw.go.jp/19/index.php?action_kouhyou_detail_004_kani=true&JigyosyoCd=1970103212-00&ServiceCd=150&Type=search", "url2": null }, "geometry": { "type": "Point", "coordinates": [ 138.595791, 35.6552854 ] } },
{ "type": "Feature", "properties": { "内容": "ツクイ甲府下飯田【通所介護】山梨県甲府市下飯田2-12-17", "url": "https://www.kaigokensaku.mhlw.go.jp/19/index.php?action_kouhyou_detail_004_kani=true&JigyosyoCd=1970105431-00&ServiceCd=150&Type=search", "url2": "https://www.tsukui.net/" }, "geometry": { "type": "Point", "coordinates": [ 138.5432473, 35.6656472 ] } },
{ "type": "Feature", "properties": { "内容": "ツクイ甲府国母【通所介護】国母8-21-25", "url": "https://www.kaigokensaku.mhlw.go.jp/19/index.php?action_kouhyou_detail_004_kani=true&JigyosyoCd=1970105464-00&ServiceCd=150&Type=search", "url2": null }, "geometry": { "type": "Point", "coordinates": [ 138.5517872, 35.6319734 ] } },
{ "type": "Feature", "properties": { "内容": "ツクイ甲府中央【通所介護】山梨県甲府市中央4-12-4", "url": "https://www.kaigokensaku.mhlw.go.jp/19/index.php?action_kouhyou_detail_004_kani=true&JigyosyoCd=1970105449-00&ServiceCd=150&Type=search", "url2": null }, "geometry": { "type": "Point", "coordinates": [ 138.5732382, 35.6564537 ] } },
{ "type": "Feature", "properties": { "内容": "ツクイ甲府大手【通所介護】山梨県甲府市大手2-4-4", "url": "https://www.kaigokensaku.mhlw.go.jp/19/index.php?action_kouhyou_detail_004_kani=true&JigyosyoCd=1970105456-00&ServiceCd=150&Type=search", "url2": "https://www.tsukui.net" }, "geometry": { "type": "Point", "coordinates": [ 138.5774147, 35.6808296 ] } },
{ "type": "Feature", "properties": { "内容": "ファインデイサービスセンター【通所介護】山梨県甲府市国母３－４－２２", "url": "https://www.kaigokensaku.mhlw.go.jp/19/index.php?action_kouhyou_detail_004_kani=true&JigyosyoCd=1970100366-00&ServiceCd=150&Type=search", "url2": "http://ch-fine.com/" }, "geometry": { "type": "Point", "coordinates": [ 138.556003800000013, 35.6417655 ] } },
{ "type": "Feature", "properties": { "内容": "デイサービスセンターたから【通所介護】山梨県甲府市宝1-4-16", "url": "https://www.kaigokensaku.mhlw.go.jp/19/index.php?action_kouhyou_detail_004_kani=true&JigyosyoCd=1970101885-00&ServiceCd=150&Type=search", "url2": "http://ykf.or.jp/" }, "geometry": { "type": "Point", "coordinates": [ 138.561043499999982, 35.667868 ] } },
{ "type": "Feature", "properties": { "内容": "社会福祉法人豊住福祉会りぼんデイサービスセンター【通所介護】山梨県甲府市高畑２－８－２", "url": "https://www.kaigokensaku.mhlw.go.jp/19/index.php?action_kouhyou_detail_004_kani=true&JigyosyoCd=1970101224-00&ServiceCd=150&Type=search", "url2": null }, "geometry": { "type": "Point", "coordinates": [ 138.562805600000047, 35.6474594 ] } },
{ "type": "Feature", "properties": { "内容": "yocayoca【通所介護】中村町10-22", "url": "https://www.kaigokensaku.mhlw.go.jp/19/index.php?action_kouhyou_detail_004_kani=true&JigyosyoCd=1970105894-00&ServiceCd=150&Type=search", "url2": "https://www.lifesupport-hikari.com" }, "geometry": { "type": "Point", "coordinates": [ 138.535378640590125, 35.665702467927709 ] } },
{ "type": "Feature", "properties": { "内容": "あおぞらの里　甲府南デイサービスセンター【通所介護】山梨県甲府市国母5-10-27", "url": "https://www.kaigokensaku.mhlw.go.jp/19/index.php?action_kouhyou_detail_004_kani=true&JigyosyoCd=1970103956-00&ServiceCd=150&Type=search", "url2": "http://www.CEDAR-WEB.com" }, "geometry": { "type": "Point", "coordinates": [ 138.5509682, 35.6413781 ] } },
{ "type": "Feature", "properties": { "内容": "大国デイサービスセンター【通所介護】甲府市後屋町２０７", "url": "https://www.kaigokensaku.mhlw.go.jp/19/index.php?action_kouhyou_detail_004_kani=true&JigyosyoCd=1970100408-00&ServiceCd=150&Type=search", "url2": "http://www.ohkunikai.com/" }, "geometry": { "type": "Point", "coordinates": [ 138.5634258, 35.6316725 ] } },
{ "type": "Feature", "properties": { "内容": "南甲府ケアセンターそよ風【通所介護】山梨県甲府市住吉3-27-7", "url": "https://www.kaigokensaku.mhlw.go.jp/19/index.php?action_kouhyou_detail_004_kani=true&JigyosyoCd=1970103477-00&ServiceCd=150&Type=search", "url2": "http://www.unimat-rc.co.jp/company/" }, "geometry": { "type": "Point", "coordinates": [ 138.58530559999997, 35.6394797 ] } },
{ "type": "Feature", "properties": { "内容": "医療法人　笹本会　おおさと通所介護【通所介護】山梨県甲府市大里町5328おおくに在宅ケアセンター", "url": "https://www.kaigokensaku.mhlw.go.jp/19/index.php?action_kouhyou_detail_004_kani=true&JigyosyoCd=1970101232-00&ServiceCd=150&Type=search", "url2": "http://park14.wakwak.com/~sasamotokai/" }, "geometry": { "type": "Point", "coordinates": [ 138.5584543, 35.6243596 ] } },
{ "type": "Feature", "properties": { "内容": "医療法人　笹本会　おおくにいきいき通所介護【通所介護】山梨県甲府市大里町5315", "url": "https://www.kaigokensaku.mhlw.go.jp/19/index.php?action_kouhyou_detail_004_kani=true&JigyosyoCd=1970102115-00&ServiceCd=150&Type=search", "url2": "http://park14.wakwak.com/~sasamotokai/" }, "geometry": { "type": "Point", "coordinates": [ 138.558059899999989, 35.6247456 ] } },
{ "type": "Feature", "properties": { "内容": "デイサービスセンター　甲斐の郷【通所介護】山梨県甲府市大手1-4-45", "url": "https://www.kaigokensaku.mhlw.go.jp/19/index.php?action_kouhyou_detail_004_kani=true&JigyosyoCd=1970104731-00&ServiceCd=150&Type=search", "url2": "http://kainosato.hp.gogo.jp" }, "geometry": { "type": "Point", "coordinates": [ 138.576446509088584, 35.681636466513581 ] } },
{ "type": "Feature", "properties": { "内容": "デイサービス昴【通所介護】山梨県甲府市徳行5丁目１２－５２デイサービス昴・サービス付き高齢者向け住宅昴", "url": "https://www.kaigokensaku.mhlw.go.jp/19/index.php?action_kouhyou_detail_004_kani=true&JigyosyoCd=1970105209-00&ServiceCd=150&Type=search", "url2": "info@subaru-1201.co.jp" }, "geometry": { "type": "Point", "coordinates": [ 138.534765, 35.652068 ] } },
{ "type": "Feature", "properties": { "内容": "あおぞらの里　甲府デイサービスセンター【通所介護】山梨県甲府市荒川１－３－２５", "url": "https://www.kaigokensaku.mhlw.go.jp/19/index.php?action_kouhyou_detail_004_kani=true&JigyosyoCd=1970102875-00&ServiceCd=150&Type=search", "url2": "http://www.CEDAR-WEB.com" }, "geometry": { "type": "Point", "coordinates": [ 138.5411383, 35.6741596 ] } },
{ "type": "Feature", "properties": { "内容": "ニチイケアセンター甲府南【通所介護】山梨県甲府市増坪町266-11", "url": "https://www.kaigokensaku.mhlw.go.jp/19/index.php?action_kouhyou_detail_004_kani=true&JigyosyoCd=1970100564-00&ServiceCd=150&Type=search", "url2": "http://www.nichiigakkan.co.jp" }, "geometry": { "type": "Point", "coordinates": [ 138.591231500000049, 35.6360282 ] } },
{ "type": "Feature", "properties": { "内容": "ケアステーションあさひ甲府【通所介護】山梨県甲府市中小河原341-1", "url": "https://www.kaigokensaku.mhlw.go.jp/19/index.php?action_kouhyou_detail_004_kani=true&JigyosyoCd=1970104095-00&ServiceCd=150&Type=search", "url2": "http://www.vati.co.jp/" }, "geometry": { "type": "Point", "coordinates": [ 138.571225, 35.6357416 ] } },
{ "type": "Feature", "properties": { "内容": "東甲府ケアセンターひばり【通所介護】甲府市川田町40－2", "url": "https://www.kaigokensaku.mhlw.go.jp/19/index.php?action_kouhyou_detail_004_kani=true&JigyosyoCd=1970102644-00&ServiceCd=150&Type=search", "url2": "https://ekh-hibari.jimdofree.com/" }, "geometry": { "type": "Point", "coordinates": [ 138.6198013, 35.655922 ] } },
{ "type": "Feature", "properties": { "内容": "ケアパートナー甲府【通所介護】山梨県甲府市徳行五丁目12番21号エクセレント甲府", "url": "https://www.kaigokensaku.mhlw.go.jp/19/index.php?action_kouhyou_detail_004_kani=true&JigyosyoCd=1970102321-00&ServiceCd=150&Type=search", "url2": "https://www.care-partner.com/" }, "geometry": { "type": "Point", "coordinates": [ 138.533702299999987, 35.6528105 ] } },
{ "type": "Feature", "properties": { "内容": "あっとほーむ甲府山宮【通所介護】山梨県甲府市山宮町1186-1", "url": "https://www.kaigokensaku.mhlw.go.jp/19/index.php?action_kouhyou_detail_004_kani=true&JigyosyoCd=1970105555-00&ServiceCd=150&Type=search", "url2": "https://www.athome-kofu.com/" }, "geometry": { "type": "Point", "coordinates": [ 138.537068799999986, 35.6919601 ] } },
{ "type": "Feature", "properties": { "内容": "尚古園デイサービスセンター【通所介護】山梨県甲府市和田町2948-6", "url": "https://www.kaigokensaku.mhlw.go.jp/19/index.php?action_kouhyou_detail_004_kani=true&JigyosyoCd=1970101083-00&ServiceCd=150&Type=search", "url2": "http://www.zenrinkai.or.jp" }, "geometry": { "type": "Point", "coordinates": [ 138.561566099999936, 35.6875333 ] } },
{ "type": "Feature", "properties": { "内容": "ポシブル甲府【通所介護】山梨県甲府市富士見２－１０－２", "url": "https://www.kaigokensaku.mhlw.go.jp/19/index.php?action_kouhyou_detail_004_kani=true&JigyosyoCd=1970103527-00&ServiceCd=150&Type=search", "url2": "http://www.possible-plus.co.jp/" }, "geometry": { "type": "Point", "coordinates": [ 138.5468085, 35.6771912 ] } },
{ "type": "Feature", "properties": { "内容": "甲府ケアセンターそよ風【通所介護】山梨県甲府市富竹３－３－５", "url": "https://www.kaigokensaku.mhlw.go.jp/19/index.php?action_kouhyou_detail_004_kani=true&JigyosyoCd=1970101554-00&ServiceCd=150&Type=search", "url2": "https://corp.sykz.co.jp/" }, "geometry": { "type": "Point", "coordinates": [ 138.542549406745962, 35.655624105361362 ] } },
{ "type": "Feature", "properties": { "内容": "フォレスト小瀬　デイサービスセンター【通所介護】山梨県甲府市上町１２１１－２", "url": "https://www.kaigokensaku.mhlw.go.jp/19/index.php?action_kouhyou_detail_004_kani=true&JigyosyoCd=1970103147-00&ServiceCd=150&Type=search", "url2": "http://www.fkose.com" }, "geometry": { "type": "Point", "coordinates": [ 138.588343, 35.6322371 ] } },
{ "type": "Feature", "properties": { "内容": "デイサービスセンター奏【通所介護】山梨県甲府市上石田3丁目19-23サービス付き高齢者向け住宅奏", "url": "https://www.kaigokensaku.mhlw.go.jp/19/index.php?action_kouhyou_detail_004_kani=true&JigyosyoCd=1970105498-00&ServiceCd=150&Type=search", "url2": "http://kanade.jandm.co.jp" }, "geometry": { "type": "Point", "coordinates": [ 138.552983, 35.6528726 ] } },
{ "type": "Feature", "properties": { "内容": "デイサービスセンター慶和荘【通所介護】山梨県富士吉田市上吉田字熊穴４５８４", "url": "https://www.kaigokensaku.mhlw.go.jp/19/index.php?action_kouhyou_detail_004_kani=true&JigyosyoCd=1971200306-00&ServiceCd=150&Type=search", "url2": "http://www.mswc.or.jp/" }, "geometry": { "type": "Point", "coordinates": [ 138.785229, 35.4764754 ] } },
{ "type": "Feature", "properties": { "内容": "機能訓練型デイサービス　起楽ふうが　富士吉田【通所介護】山梨県富士吉田市上暮地1-17-23", "url": "https://www.kaigokensaku.mhlw.go.jp/19/index.php?action_kouhyou_detail_004_kani=true&JigyosyoCd=1971200579-00&ServiceCd=150&Type=search", "url2": null }, "geometry": { "type": "Point", "coordinates": [ 138.825435500000026, 35.5081394 ] } },
{ "type": "Feature", "properties": { "内容": "デイサービス　ひまわり【通所介護】山梨県富士吉田市下吉田2丁目１０－８", "url": "https://www.kaigokensaku.mhlw.go.jp/19/index.php?action_kouhyou_detail_004_kani=true&JigyosyoCd=1971200546-00&ServiceCd=150&Type=search", "url2": null }, "geometry": { "type": "Point", "coordinates": [ 138.804598, 35.4911697 ] } },
{ "type": "Feature", "properties": { "内容": "デイサービスつくし庵【通所介護】富士吉田市上吉田東九丁目17番1号", "url": "https://www.kaigokensaku.mhlw.go.jp/19/index.php?action_kouhyou_detail_004_kani=true&JigyosyoCd=1971200439-00&ServiceCd=150&Type=search", "url2": "http://tsukushian.com/" }, "geometry": { "type": "Point", "coordinates": [ 138.80992, 35.467772900000035 ] } },
{ "type": "Feature", "properties": { "内容": "ニチイケアセンター富士吉田【通所介護】山梨県富士吉田市上吉田東7-17-22", "url": "https://www.kaigokensaku.mhlw.go.jp/19/index.php?action_kouhyou_detail_004_kani=true&JigyosyoCd=1971200058-00&ServiceCd=150&Type=search", "url2": "http://www.nichiigakkan.co.jp" }, "geometry": { "type": "Point", "coordinates": [ 138.7976272, 35.4796824 ] } },
{ "type": "Feature", "properties": { "内容": "寿荘デイサービスセンター【通所介護】山梨県富士吉田市下吉田九丁目9番10号", "url": "https://www.kaigokensaku.mhlw.go.jp/19/index.php?action_kouhyou_detail_004_kani=true&JigyosyoCd=1971200207-00&ServiceCd=150&Type=search", "url2": "https://fujiyoshida294.or.jp" }, "geometry": { "type": "Point", "coordinates": [ 138.811216200000018, 35.497202800000018 ] } },
{ "type": "Feature", "properties": { "内容": "ツクイ富士吉田【通所介護】山梨県富士吉田市上吉田東1-8-13", "url": "https://www.kaigokensaku.mhlw.go.jp/19/index.php?action_kouhyou_detail_004_kani=true&JigyosyoCd=1971200686-00&ServiceCd=150&Type=search", "url2": null }, "geometry": { "type": "Point", "coordinates": [ 138.7999834, 35.4756698 ] } },
{ "type": "Feature", "properties": { "内容": "デイサービス　こたちゃん【通所介護】山梨県富士吉田中曽根４丁目１－１３", "url": "https://www.kaigokensaku.mhlw.go.jp/19/index.php?action_kouhyou_detail_004_kani=true&JigyosyoCd=1971200413-00&ServiceCd=150&Type=search", "url2": "http://kotachan.nomuraa.com/index.php?Frontpage" }, "geometry": { "type": "Point", "coordinates": [ 138.80707240000001, 35.4812924 ] } },
{ "type": "Feature", "properties": { "内容": "サンクシア吉田デイサービスセンター【通所介護】山梨県富士吉田市上吉田東5-12-12", "url": "https://www.kaigokensaku.mhlw.go.jp/19/index.php?action_kouhyou_detail_004_kani=true&JigyosyoCd=1971200736-00&ServiceCd=150&Type=search", "url2": null }, "geometry": { "type": "Point", "coordinates": [ 138.804391294165043, 35.468407031914275 ] } },
{ "type": "Feature", "properties": { "内容": "富士養生館　デイサービス平山【通所介護】山梨県富士吉田市大明見2-44-26", "url": "https://www.kaigokensaku.mhlw.go.jp/19/index.php?action_kouhyou_detail_004_kani=true&JigyosyoCd=1971200371-00&ServiceCd=150&Type=search", "url2": "http://www.ferm.jp/" }, "geometry": { "type": "Point", "coordinates": [ 138.8209976, 35.4773422 ] } },
{ "type": "Feature", "properties": { "内容": "医療法人　聖仁会　デイサービスうらら【通所介護】山梨県富士吉田市ときわ台１－１－２６", "url": "https://www.kaigokensaku.mhlw.go.jp/19/index.php?action_kouhyou_detail_004_kani=true&JigyosyoCd=1971200249-00&ServiceCd=150&Type=search", "url2": "http://seijinkai-saiyo.com/dayservice-urara/" }, "geometry": { "type": "Point", "coordinates": [ 138.7924779, 35.4891241 ] } },
{ "type": "Feature", "properties": { "内容": "デイサービスセンター　芙蓉荘【通所介護】山梨県　富士吉田市　松山1613", "url": "https://www.kaigokensaku.mhlw.go.jp/19/index.php?action_kouhyou_detail_004_kani=true&JigyosyoCd=1971200025-00&ServiceCd=150&Type=search", "url2": "http://www.snhfuyoso.com" }, "geometry": { "type": "Point", "coordinates": [ 138.777937800000018, 35.4810441 ] } },
{ "type": "Feature", "properties": { "内容": "やすらぎの家　ゆう【通所介護】山梨県富士吉田市上吉田東8丁目8番16号", "url": "https://www.kaigokensaku.mhlw.go.jp/19/index.php?action_kouhyou_detail_004_kani=true&JigyosyoCd=1971200280-00&ServiceCd=150&Type=search", "url2": "http://yuu3945.co.jp/" }, "geometry": { "type": "Point", "coordinates": [ 138.814487263124221, 35.473141824728074 ] } },
{ "type": "Feature", "properties": { "内容": "介護デイサービスさかえ【通所介護】山梨県富士吉田市小明見５丁目２番１６号", "url": "https://www.kaigokensaku.mhlw.go.jp/19/index.php?action_kouhyou_detail_004_kani=true&JigyosyoCd=1971200421-00&ServiceCd=150&Type=search", "url2": null }, "geometry": { "type": "Point", "coordinates": [ 138.8268128, 35.4921152 ] } },
{ "type": "Feature", "properties": { "内容": "甲州茶話本舗デイサービスこわた亭【通所介護】山梨県都留市鹿留２１９３", "url": "https://www.kaigokensaku.mhlw.go.jp/19/index.php?action_kouhyou_detail_004_kani=true&JigyosyoCd=1971100266-00&ServiceCd=150&Type=search", "url2": "kowatatei@jsp.co.jp" }, "geometry": { "type": "Point", "coordinates": [ 138.878098899999941, 35.5317459 ] } },
{ "type": "Feature", "properties": { "内容": "優しい時間　夏狩【通所介護】都留市夏狩2117-5", "url": "https://www.kaigokensaku.mhlw.go.jp/19/index.php?action_kouhyou_detail_004_kani=true&JigyosyoCd=1971100258-00&ServiceCd=150&Type=search", "url2": "http://www.heisei294.org" }, "geometry": { "type": "Point", "coordinates": [ 138.873313, 35.5413281 ] } },
{ "type": "Feature", "properties": { "内容": "回生荘デイサービスセンター【通所介護】山梨県都留市境３６番地", "url": "https://www.kaigokensaku.mhlw.go.jp/19/index.php?action_kouhyou_detail_004_kani=true&JigyosyoCd=1971100118-00&ServiceCd=150&Type=search", "url2": "http://www.office@kaisei-so.jp" }, "geometry": { "type": "Point", "coordinates": [ 138.863547899999958, 35.5286905 ] } },
{ "type": "Feature", "properties": { "内容": "都留市社会福祉協議会【通所介護】山梨県都留市下谷２，５１６番地１", "url": "https://www.kaigokensaku.mhlw.go.jp/19/index.php?action_kouhyou_detail_004_kani=true&JigyosyoCd=1971100068-00&ServiceCd=150&Type=search", "url2": "http://www11.ocn.ne.jp/~t-shakyo/" }, "geometry": { "type": "Point", "coordinates": [ 138.914301099999989, 35.5618045 ] } },
{ "type": "Feature", "properties": { "内容": "デイサービスてるてるぼうず【通所介護】山梨県都留市鹿留６３７番地", "url": "https://www.kaigokensaku.mhlw.go.jp/19/index.php?action_kouhyou_detail_004_kani=true&JigyosyoCd=1971100464-00&ServiceCd=150&Type=search", "url2": null }, "geometry": { "type": "Point", "coordinates": [ 138.8725942, 35.5280767 ] } },
{ "type": "Feature", "properties": { "内容": "デイサービスあいる【通所介護】山梨県都留市田野倉５４５－１", "url": "https://www.kaigokensaku.mhlw.go.jp/19/index.php?action_kouhyou_detail_004_kani=true&JigyosyoCd=1971100407-00&ServiceCd=150&Type=search", "url2": "https://jsp.co.jp/" }, "geometry": { "type": "Point", "coordinates": [ 138.9293156, 35.5956619 ] } },
{ "type": "Feature", "properties": { "内容": "ツクイ都留四日市場営業所【通所介護】四日市場1052-2", "url": "https://www.kaigokensaku.mhlw.go.jp/19/index.php?action_kouhyou_detail_004_kani=true&JigyosyoCd=1971100449-00&ServiceCd=150&Type=search", "url2": "https://www.tsukui.net/home-care/2216" }, "geometry": { "type": "Point", "coordinates": [ 138.9205682, 35.5677999 ] } },
{ "type": "Feature", "properties": { "内容": "ツクイ都留中津森【通所介護】山梨県都留市中津森1033-2", "url": "https://www.kaigokensaku.mhlw.go.jp/19/index.php?action_kouhyou_detail_004_kani=true&JigyosyoCd=1971100456-00&ServiceCd=150&Type=search", "url2": null }, "geometry": { "type": "Point", "coordinates": [ 138.8967925, 35.5623822 ] } },
{ "type": "Feature", "properties": { "内容": "介護サービスゆりの里【通所介護】山梨県都留市田野倉１４３１番地１", "url": "https://www.kaigokensaku.mhlw.go.jp/19/index.php?action_kouhyou_detail_004_kani=true&JigyosyoCd=1971100241-00&ServiceCd=150&Type=search", "url2": "https://yurinosato-web.jimdosite.com/" }, "geometry": { "type": "Point", "coordinates": [ 138.9342038, 35.5874712 ] } },
{ "type": "Feature", "properties": { "内容": "デイサービスいろは【通所介護】山梨県都留市小野632-1", "url": "https://www.kaigokensaku.mhlw.go.jp/19/index.php?action_kouhyou_detail_004_kani=true&JigyosyoCd=1971100373-00&ServiceCd=150&Type=search", "url2": null }, "geometry": { "type": "Point", "coordinates": [ 138.910675705904367, 35.534732700185408 ] } },
{ "type": "Feature", "properties": { "内容": "笛吹荘デイサービスセンター【通所介護】山梨県山梨市牧丘町室伏２４５２番地", "url": "https://www.kaigokensaku.mhlw.go.jp/19/index.php?action_kouhyou_detail_004_kani=true&JigyosyoCd=1970400139-00&ServiceCd=150&Type=search", "url2": "http://www.fruits.jp/~jyukokai/" }, "geometry": { "type": "Point", "coordinates": [ 138.721706700000027, 35.7524955 ] } },
{ "type": "Feature", "properties": { "内容": "ゆららかデイサービス【通所介護】山梨県山梨市歌田110‐3コンフォートヤマナシ1階", "url": "https://www.kaigokensaku.mhlw.go.jp/19/index.php?action_kouhyou_detail_004_kani=true&JigyosyoCd=1970200471-00&ServiceCd=150&Type=search", "url2": "https://yuraraka.co.jp" }, "geometry": { "type": "Point", "coordinates": [ 138.689145200000013, 35.6647343 ] } },
{ "type": "Feature", "properties": { "内容": "ケアステーションあさひ甲州【通所介護】山梨県山梨市下井尻字相畑340番5", "url": "https://www.kaigokensaku.mhlw.go.jp/19/index.php?action_kouhyou_detail_004_kani=true&JigyosyoCd=1970200711-00&ServiceCd=150&Type=search", "url2": "http://www.vati.co.jp/" }, "geometry": { "type": "Point", "coordinates": [ 138.704923199999939, 35.7002462 ] } },
{ "type": "Feature", "properties": { "内容": "恵信サテライトロジェ山梨【通所介護】山梨県山梨市落合464-1", "url": "https://www.kaigokensaku.mhlw.go.jp/19/index.php?action_kouhyou_detail_004_kani=true&JigyosyoCd=1970200463-00&ServiceCd=150&Type=search", "url2": "http://www.keishin-group.net/satellite/index.html" }, "geometry": { "type": "Point", "coordinates": [ 138.658038900000065, 35.6787405 ] } },
{ "type": "Feature", "properties": { "内容": "山梨市デイサービスセンター【通所介護】山梨県山梨市小原西649-1", "url": "https://www.kaigokensaku.mhlw.go.jp/19/index.php?action_kouhyou_detail_004_kani=true&JigyosyoCd=1970200737-00&ServiceCd=150&Type=search", "url2": null }, "geometry": { "type": "Point", "coordinates": [ 138.809520099999986, 35.646078 ] } },
{ "type": "Feature", "properties": { "内容": "デイサービスセンター　サテライト桃源荘ピーチ【通所介護】山梨県山梨市一町田中197", "url": "https://www.kaigokensaku.mhlw.go.jp/19/index.php?action_kouhyou_detail_004_kani=true&JigyosyoCd=1970200547-00&ServiceCd=150&Type=search", "url2": "http://www.yfj.or.jp/" }, "geometry": { "type": "Point", "coordinates": [ 138.6730504, 35.6632554 ] } },
{ "type": "Feature", "properties": { "内容": "山梨ケアセンターそよ風【通所介護】山梨県山梨市上神内川15-5", "url": "https://www.kaigokensaku.mhlw.go.jp/19/index.php?action_kouhyou_detail_004_kani=true&JigyosyoCd=1970200174-00&ServiceCd=150&Type=search", "url2": null }, "geometry": { "type": "Point", "coordinates": [ 138.686833500000034, 35.685103 ] } },
{ "type": "Feature", "properties": { "内容": "恵信ロジェ山梨【通所介護】山梨県山梨市南１３３５", "url": "https://www.kaigokensaku.mhlw.go.jp/19/index.php?action_kouhyou_detail_004_kani=true&JigyosyoCd=1970200158-00&ServiceCd=150&Type=search", "url2": "http://www.keishin-group.net/roger/index.htm" }, "geometry": { "type": "Point", "coordinates": [ 138.685585899999978, 35.70064 ] } },
{ "type": "Feature", "properties": { "内容": "デイサービスセンター「ハッピーサークル」【通所介護】山梨県大月市七保町葛野1574番地2", "url": "https://www.kaigokensaku.mhlw.go.jp/19/index.php?action_kouhyou_detail_004_kani=true&JigyosyoCd=1971400567-00&ServiceCd=150&Type=search", "url2": null }, "geometry": { "type": "Point", "coordinates": [ 138.957644699999946, 35.6297418 ] } },
{ "type": "Feature", "properties": { "内容": "デイサービス事業所ゆうゆう【通所介護】山梨県大月七保町下和田1521-5", "url": "https://www.kaigokensaku.mhlw.go.jp/19/index.php?action_kouhyou_detail_004_kani=true&JigyosyoCd=1971400153-00&ServiceCd=150&Type=search", "url2": "http://yuuyuu.in.coocan.jp/" }, "geometry": { "type": "Point", "coordinates": [ 138.972026799999981, 35.622859700000014 ] } },
{ "type": "Feature", "properties": { "内容": "共立デイサービスさるはし【通所介護】山梨県大月市猿橋町殿上587-1", "url": "https://www.kaigokensaku.mhlw.go.jp/19/index.php?action_kouhyou_detail_004_kani=true&JigyosyoCd=1971400591-00&ServiceCd=150&Type=search", "url2": "https://daysaru.gunnai-kyoritsu.jp/" }, "geometry": { "type": "Point", "coordinates": [ 138.967489699999987, 35.6118434 ] } },
{ "type": "Feature", "properties": { "内容": "デイサービスセンターシニア【通所介護】山梨県大月市初狩町下初狩４１４６－１０", "url": "https://www.kaigokensaku.mhlw.go.jp/19/index.php?action_kouhyou_detail_004_kani=true&JigyosyoCd=1971400385-00&ServiceCd=150&Type=search", "url2": "http://www.hujikose.or.jp" }, "geometry": { "type": "Point", "coordinates": [ 138.876693499999988, 35.5804987 ] } },
{ "type": "Feature", "properties": { "内容": "デイサービス　いきがい【通所介護】山梨県大月市猿橋町桂台1-100-1", "url": "https://www.kaigokensaku.mhlw.go.jp/19/index.php?action_kouhyou_detail_004_kani=true&JigyosyoCd=1971400575-00&ServiceCd=150&Type=search", "url2": "www.heisei294.org" }, "geometry": { "type": "Point", "coordinates": [ 138.968945603704839, 35.608786484001456 ] } },
{ "type": "Feature", "properties": { "内容": "デイサービスセンター「やまゆり」【通所介護】山梨県大月市富浜町宮谷１５１８－１", "url": "https://www.kaigokensaku.mhlw.go.jp/19/index.php?action_kouhyou_detail_004_kani=true&JigyosyoCd=1971400070-00&ServiceCd=150&Type=search", "url2": null }, "geometry": { "type": "Point", "coordinates": [ 138.9830896, 35.6241122 ] } },
{ "type": "Feature", "properties": { "内容": "福祉工房【通所介護】山梨県大月市賑岡町奥山1833", "url": "https://www.kaigokensaku.mhlw.go.jp/19/index.php?action_kouhyou_detail_004_kani=true&JigyosyoCd=1971400278-00&ServiceCd=150&Type=search", "url2": null }, "geometry": { "type": "Point", "coordinates": [ 138.9393931, 35.6353636 ] } },
{ "type": "Feature", "properties": { "内容": "有限会社ひだまり【通所介護】山梨県韮崎市旭町上條北割2745番地", "url": "https://www.kaigokensaku.mhlw.go.jp/19/index.php?action_kouhyou_detail_004_kani=true&JigyosyoCd=1970900039-00&ServiceCd=150&Type=search", "url2": "http://www.hidamarikaigo.info/" }, "geometry": { "type": "Point", "coordinates": [ 138.436878100000058, 35.6920603 ] } },
{ "type": "Feature", "properties": { "内容": "あいあい　にらさき　デイサービス【通所介護】山梨県韮崎市一ツ谷１５９６－１", "url": "https://www.kaigokensaku.mhlw.go.jp/19/index.php?action_kouhyou_detail_004_kani=true&JigyosyoCd=1970900260-00&ServiceCd=150&Type=search", "url2": "http://www.ii-nirasaki.com" }, "geometry": { "type": "Point", "coordinates": [ 138.43944369999997, 35.7149712 ] } },
{ "type": "Feature", "properties": { "内容": "デイサービス　リハビリテーションこんね藤井【通所介護】山梨県韮崎市藤井町駒井２６５８番地１", "url": "https://www.kaigokensaku.mhlw.go.jp/19/index.php?action_kouhyou_detail_004_kani=true&JigyosyoCd=1970900328-00&ServiceCd=150&Type=search", "url2": null }, "geometry": { "type": "Point", "coordinates": [ 138.4469785, 35.7318553 ] } },
{ "type": "Feature", "properties": { "内容": "レッツ倶楽部韮崎若宮【通所介護】山梨県韮崎市若宮一丁目8－15", "url": "https://www.kaigokensaku.mhlw.go.jp/19/index.php?action_kouhyou_detail_004_kani=true&JigyosyoCd=1970900344-00&ServiceCd=150&Type=search", "url2": "http://www.lets-club.jp/shop/nirasakiwakamiya" }, "geometry": { "type": "Point", "coordinates": [ 138.448343, 35.7150157 ] } },
{ "type": "Feature", "properties": { "内容": "こすもす本町通り通所介護事業所【通所介護】山梨県韮崎市本町通り1丁目10番1号", "url": "https://www.kaigokensaku.mhlw.go.jp/19/index.php?action_kouhyou_detail_004_kani=true&JigyosyoCd=1970900500-00&ServiceCd=150&Type=search", "url2": "http://daycosmos.web.fc2.com/" }, "geometry": { "type": "Point", "coordinates": [ 138.4480836, 35.7086247 ] } },
{ "type": "Feature", "properties": { "内容": "武田の里デイサービス【通所介護】山梨県韮崎市神山町北宮地3", "url": "https://www.kaigokensaku.mhlw.go.jp/19/index.php?action_kouhyou_detail_004_kani=true&JigyosyoCd=1970900534-00&ServiceCd=150&Type=search", "url2": null }, "geometry": { "type": "Point", "coordinates": [ 138.43701981379553, 35.710228026103984 ] } },
{ "type": "Feature", "properties": { "内容": "新こすもす通所介護事業所【通所介護】山梨県韮崎市藤井町北下條2005-1", "url": "https://www.kaigokensaku.mhlw.go.jp/19/index.php?action_kouhyou_detail_004_kani=true&JigyosyoCd=1970900377-00&ServiceCd=150&Type=search", "url2": "http://daycosmos.web.fc2.com/" }, "geometry": { "type": "Point", "coordinates": [ 138.442149195987014, 35.72631706700539 ] } },
{ "type": "Feature", "properties": { "内容": "有限会社こすもす通所介護事業所【通所介護】山梨県韮崎市藤井町北下條2003-4", "url": "https://www.kaigokensaku.mhlw.go.jp/19/index.php?action_kouhyou_detail_004_kani=true&JigyosyoCd=1970900146-00&ServiceCd=150&Type=search", "url2": null }, "geometry": { "type": "Point", "coordinates": [ 138.442141900000024, 35.7263309 ] } },
{ "type": "Feature", "properties": { "内容": "韮崎市大草デイサービスセンターこぶし荘【通所介護】山梨県韮崎市大草町若尾1680番地", "url": "https://www.kaigokensaku.mhlw.go.jp/19/index.php?action_kouhyou_detail_004_kani=true&JigyosyoCd=1970900013-00&ServiceCd=150&Type=search", "url2": "http://www.shakyo.or.jp/hp/840/" }, "geometry": { "type": "Point", "coordinates": [ 138.450191, 35.6946355 ] } },
{ "type": "Feature", "properties": { "内容": "デイサービス　あんず【通所介護】山梨県南アルプス市曲輪田2620", "url": "https://www.kaigokensaku.mhlw.go.jp/19/index.php?action_kouhyou_detail_004_kani=true&JigyosyoCd=1971600588-00&ServiceCd=150&Type=search", "url2": null }, "geometry": { "type": "Point", "coordinates": [ 138.438243199999988, 35.6264859 ] } },
{ "type": "Feature", "properties": { "内容": "デイサービスみかん【通所介護】山梨県南アルプス市飯野3594-7", "url": "https://www.kaigokensaku.mhlw.go.jp/19/index.php?action_kouhyou_detail_004_kani=true&JigyosyoCd=1971600547-00&ServiceCd=150&Type=search", "url2": null }, "geometry": { "type": "Point", "coordinates": [ 138.464540199999988, 35.633671 ] } },
{ "type": "Feature", "properties": { "内容": "甲州茶話本舗デイサービス赤石亭【通所介護】山梨県南アルプス市飯野３４６２－１", "url": "https://www.kaigokensaku.mhlw.go.jp/19/index.php?action_kouhyou_detail_004_kani=true&JigyosyoCd=1971600604-00&ServiceCd=150&Type=search", "url2": null }, "geometry": { "type": "Point", "coordinates": [ 138.4652929, 35.6367372 ] } },
{ "type": "Feature", "properties": { "内容": "デイサービス　ぬくもりの和　南アルプス事業所【通所介護】山梨県南アルプス市加賀美2814", "url": "https://www.kaigokensaku.mhlw.go.jp/19/index.php?action_kouhyou_detail_004_kani=true&JigyosyoCd=1971600802-00&ServiceCd=150&Type=search", "url2": "http://www.nukumorinowa.com/" }, "geometry": { "type": "Point", "coordinates": [ 138.486214199999949, 35.6045392 ] } },
{ "type": "Feature", "properties": { "内容": "デイサービス　リハかのん若草【通所介護】山梨県南アルプス市浅原字中河原240", "url": "https://www.kaigokensaku.mhlw.go.jp/19/index.php?action_kouhyou_detail_004_kani=true&JigyosyoCd=1971700420-00&ServiceCd=150&Type=search", "url2": null }, "geometry": { "type": "Point", "coordinates": [ 138.504423699999961, 35.5918856 ] } },
{ "type": "Feature", "properties": { "内容": "デイサービス　ぼんぼん時計【通所介護】山梨県南アルプス市塚原１８０６", "url": "https://www.kaigokensaku.mhlw.go.jp/19/index.php?action_kouhyou_detail_004_kani=true&JigyosyoCd=1971600471-00&ServiceCd=150&Type=search", "url2": null }, "geometry": { "type": "Point", "coordinates": [ 138.453611599999931, 35.5937906 ] } },
{ "type": "Feature", "properties": { "内容": "デイサービス　花あかり【通所介護】山梨県南アルプス市江原171-1", "url": "https://www.kaigokensaku.mhlw.go.jp/19/index.php?action_kouhyou_detail_004_kani=true&JigyosyoCd=1971600323-00&ServiceCd=150&Type=search", "url2": null }, "geometry": { "type": "Point", "coordinates": [ 138.473995899999977, 35.6014175 ] } },
{ "type": "Feature", "properties": { "内容": "ほっと・ハートデイサービスセンター【通所介護】山梨県南アルプス市下今井５８１", "url": "https://www.kaigokensaku.mhlw.go.jp/19/index.php?action_kouhyou_detail_004_kani=true&JigyosyoCd=1971600257-00&ServiceCd=150&Type=search", "url2": null }, "geometry": { "type": "Point", "coordinates": [ 138.493968399999972, 35.6229393 ] } },
{ "type": "Feature", "properties": { "内容": "有限会社デイサービス未咲【通所介護】山梨県南アルプス市吉田３９６", "url": "https://www.kaigokensaku.mhlw.go.jp/19/index.php?action_kouhyou_detail_004_kani=true&JigyosyoCd=1970800700-00&ServiceCd=150&Type=search", "url2": null }, "geometry": { "type": "Point", "coordinates": [ 138.481878, 35.6189648 ] } },
{ "type": "Feature", "properties": { "内容": "デイサービス　福栄荘【通所介護】山梨県南アルプス市飯野4170-10", "url": "https://www.kaigokensaku.mhlw.go.jp/19/index.php?action_kouhyou_detail_004_kani=true&JigyosyoCd=1971600398-00&ServiceCd=150&Type=search", "url2": null }, "geometry": { "type": "Point", "coordinates": [ 138.450224899999967, 35.6396785 ] } },
{ "type": "Feature", "properties": { "内容": "小規模通所事業所　あした葉【通所介護】山梨県南アルプス市落合２２０－３", "url": "https://www.kaigokensaku.mhlw.go.jp/19/index.php?action_kouhyou_detail_004_kani=true&JigyosyoCd=1971601131-00&ServiceCd=150&Type=search", "url2": "http://www.takahara-hp.or.jp" }, "geometry": { "type": "Point", "coordinates": [ 138.463691299999937, 35.587397 ] } },
{ "type": "Feature", "properties": { "内容": "アルプスデイサービス【通所介護】飯野３４５３", "url": "https://www.kaigokensaku.mhlw.go.jp/19/index.php?action_kouhyou_detail_004_kani=true&JigyosyoCd=1971601107-00&ServiceCd=150&Type=search", "url2": null }, "geometry": { "type": "Point", "coordinates": [ 138.465220600000066, 35.6374288 ] } },
{ "type": "Feature", "properties": { "内容": "デイサービスはっぴ～ふぁいと【通所介護】鏡中條618", "url": "https://www.kaigokensaku.mhlw.go.jp/19/index.php?action_kouhyou_detail_004_kani=true&JigyosyoCd=1971601156-00&ServiceCd=150&Type=search", "url2": null }, "geometry": { "type": "Point", "coordinates": [ 138.498237499999959, 35.6158765 ] } },
{ "type": "Feature", "properties": { "内容": "デイサービス富士見【通所介護】山梨県南アルプス市小笠原1108-1", "url": "https://www.kaigokensaku.mhlw.go.jp/19/index.php?action_kouhyou_detail_004_kani=true&JigyosyoCd=1971601057-00&ServiceCd=150&Type=search", "url2": "http://www.takahara-hp.or.jp/" }, "geometry": { "type": "Point", "coordinates": [ 138.463549199999989, 35.6156126 ] } },
{ "type": "Feature", "properties": { "内容": "あい甲西【通所介護】山梨県南アルプス市古市場595番地", "url": "https://www.kaigokensaku.mhlw.go.jp/19/index.php?action_kouhyou_detail_004_kani=true&JigyosyoCd=1971601214-00&ServiceCd=150&Type=search", "url2": null }, "geometry": { "type": "Point", "coordinates": [ 138.467524300000036, 35.5911355 ] } },
{ "type": "Feature", "properties": { "内容": "デイサービスとりじん【通所介護】山梨県南アルプス市小笠原４９１", "url": "https://www.kaigokensaku.mhlw.go.jp/19/index.php?action_kouhyou_detail_004_kani=true&JigyosyoCd=1971601263-00&ServiceCd=150&Type=search", "url2": "http://hp.kaipoke.biz/426/" }, "geometry": { "type": "Point", "coordinates": [ 138.463285499999984, 35.6115243 ] } },
{ "type": "Feature", "properties": { "内容": "デイサービス南岳荘【通所介護】山梨県南アルプス市徳永450", "url": "https://www.kaigokensaku.mhlw.go.jp/19/index.php?action_kouhyou_detail_004_kani=true&JigyosyoCd=1971601446-00&ServiceCd=150&Type=search", "url2": "http://www.nangakusou.or.jp" }, "geometry": { "type": "Point", "coordinates": [ 138.4941205, 35.6547937 ] } },
{ "type": "Feature", "properties": { "内容": "南アルプス市小笠原介護予防センター【通所介護】山梨県南アルプス市小笠原４０３－１", "url": "https://www.kaigokensaku.mhlw.go.jp/19/index.php?action_kouhyou_detail_004_kani=true&JigyosyoCd=1971600521-00&ServiceCd=150&Type=search", "url2": "http://www.takahara-hp.or.jp/" }, "geometry": { "type": "Point", "coordinates": [ 138.465385400000059, 35.6078832 ] } },
{ "type": "Feature", "properties": { "内容": "櫛形荘通所介護事業所【通所介護】山梨県南アルプス市上宮地1408番地", "url": "https://www.kaigokensaku.mhlw.go.jp/19/index.php?action_kouhyou_detail_004_kani=true&JigyosyoCd=1970800478-00&ServiceCd=150&Type=search", "url2": "http://www.kushigatasou.com" }, "geometry": { "type": "Point", "coordinates": [ 138.444051100000024, 35.6141961 ] } },
{ "type": "Feature", "properties": { "内容": "やさしい手　南アルプス事業所【通所介護】山梨県南アルプス市百々3011-6", "url": "https://www.kaigokensaku.mhlw.go.jp/19/index.php?action_kouhyou_detail_004_kani=true&JigyosyoCd=1970800775-00&ServiceCd=150&Type=search", "url2": null }, "geometry": { "type": "Point", "coordinates": [ 138.464381799999956, 35.6550267 ] } },
{ "type": "Feature", "properties": { "内容": "デイサービス和生あいあい【通所介護】山梨県南アルプス市野牛島1798-2", "url": "https://www.kaigokensaku.mhlw.go.jp/19/index.php?action_kouhyou_detail_004_kani=true&JigyosyoCd=1971601529-00&ServiceCd=150&Type=search", "url2": null }, "geometry": { "type": "Point", "coordinates": [ 138.4884059, 35.6656844 ] } },
{ "type": "Feature", "properties": { "内容": "また明日デイサービス【通所介護】百々2355-1　ハイツ21", "url": "https://www.kaigokensaku.mhlw.go.jp/19/index.php?action_kouhyou_detail_004_kani=true&JigyosyoCd=1971600869-00&ServiceCd=150&Type=search", "url2": "http://www.mata-asita222.co.ｊｐ/" }, "geometry": { "type": "Point", "coordinates": [ 138.468631419049046, 35.658671424002193 ] } },
{ "type": "Feature", "properties": { "内容": "櫛形デイサービスセンターひまわり【通所介護】山梨県南アルプス市小笠原1077-7", "url": "https://www.kaigokensaku.mhlw.go.jp/19/index.php?action_kouhyou_detail_004_kani=true&JigyosyoCd=1970800445-00&ServiceCd=150&Type=search", "url2": "https://oujukai.jp/about/" }, "geometry": { "type": "Point", "coordinates": [ 138.4614314, 35.6170003 ] } },
{ "type": "Feature", "properties": { "内容": "デイサービスセンター白根聖明園【通所介護】山梨県南アルプス市在家塚1305", "url": "https://www.kaigokensaku.mhlw.go.jp/19/index.php?action_kouhyou_detail_004_kani=true&JigyosyoCd=1970800171-00&ServiceCd=150&Type=search", "url2": "http://www8.ocn.ne.jp/~seimeien/" }, "geometry": { "type": "Point", "coordinates": [ 138.467442799999986, 35.6414295 ] } },
{ "type": "Feature", "properties": { "内容": "デイサービスあゆみ指定通所介護事業所【通所介護】山梨県南アルプス市有野3370番地1", "url": "https://www.kaigokensaku.mhlw.go.jp/19/index.php?action_kouhyou_detail_004_kani=true&JigyosyoCd=1971600729-00&ServiceCd=150&Type=search", "url2": "http://will-ayumi.com/" }, "geometry": { "type": "Point", "coordinates": [ 138.441459437503795, 35.661506017734595 ] } },
{ "type": "Feature", "properties": { "内容": "花菱荘デイサービスセンター【通所介護】山梨県南アルプス市田島1108", "url": "https://www.kaigokensaku.mhlw.go.jp/19/index.php?action_kouhyou_detail_004_kani=true&JigyosyoCd=1970800197-00&ServiceCd=150&Type=search", "url2": null }, "geometry": { "type": "Point", "coordinates": [ 138.487110806082114, 35.593257220251246 ] } },
{ "type": "Feature", "properties": { "内容": "デイサービスももその【通所介護】山梨県南アルプス市桃園379共立高齢者複合施設ももその", "url": "https://www.kaigokensaku.mhlw.go.jp/19/index.php?action_kouhyou_detail_004_kani=true&JigyosyoCd=1971600919-00&ServiceCd=150&Type=search", "url2": "https://ykf.or.jp" }, "geometry": { "type": "Point", "coordinates": [ 138.4631489, 35.628427 ] } },
{ "type": "Feature", "properties": { "内容": "デイサービスセンターわかくさ【通所介護】山梨県南アルプス市鏡中条１６４２－２", "url": "https://www.kaigokensaku.mhlw.go.jp/19/index.php?action_kouhyou_detail_004_kani=true&JigyosyoCd=1971600117-00&ServiceCd=150&Type=search", "url2": "ds-waka@minami-alpsshakyo.or.jp" }, "geometry": { "type": "Point", "coordinates": [ 138.495272517688619, 35.605068861583995 ] } },
{ "type": "Feature", "properties": { "内容": "SMILEフラワーパークデイサービスセンター【通所介護】山梨県南アルプス市沢登762-1", "url": "https://www.kaigokensaku.mhlw.go.jp/19/index.php?action_kouhyou_detail_004_kani=true&JigyosyoCd=1971600091-00&ServiceCd=150&Type=search", "url2": null }, "geometry": { "type": "Point", "coordinates": [ 138.469108525100637, 35.626284075510377 ] } },
{ "type": "Feature", "properties": { "内容": "リハスクエアかのん開国橋【通所介護】上今諏訪437－1クボタビル１F", "url": "https://www.kaigokensaku.mhlw.go.jp/19/index.php?action_kouhyou_detail_004_kani=true&JigyosyoCd=1971601651-00&ServiceCd=150&Type=search", "url2": "yfs-kanon.com" }, "geometry": { "type": "Point", "coordinates": [ 138.500120900000013, 35.6367725 ] } },
{ "type": "Feature", "properties": { "内容": "リハビリ道南アルプス事業所【通所介護】山梨県南アルプス市小笠原1419-1", "url": "https://www.kaigokensaku.mhlw.go.jp/19/index.php?action_kouhyou_detail_004_kani=true&JigyosyoCd=1971601560-00&ServiceCd=150&Type=search", "url2": "https://rehabilido.com/" }, "geometry": { "type": "Point", "coordinates": [ 138.4669744, 35.6173395 ] } },
{ "type": "Feature", "properties": { "内容": "リハビリ特化型デイサービス　カラダラボ白根【通所介護】山梨県南アルプス市西野2537-1", "url": "https://www.kaigokensaku.mhlw.go.jp/19/index.php?action_kouhyou_detail_004_kani=true&JigyosyoCd=1971601321-00&ServiceCd=150&Type=search", "url2": "https://www.karadalabo.com/" }, "geometry": { "type": "Point", "coordinates": [ 138.476614910450706, 35.633036062163072 ] } },
{ "type": "Feature", "properties": { "内容": "デイーサービス　のんびり【通所介護】山梨県北杜市高根町清里３５４５－１０９５", "url": "https://www.kaigokensaku.mhlw.go.jp/19/index.php?action_kouhyou_detail_004_kani=true&JigyosyoCd=1971900368-00&ServiceCd=150&Type=search", "url2": "http://blog.m.livedoor.jp/nonbiri0830" }, "geometry": { "type": "Point", "coordinates": [ 138.437212400000021, 35.8837666 ] } },
{ "type": "Feature", "properties": { "内容": "明山荘デイサービスセンター【通所介護】山梨県北杜市明野町上手520", "url": "https://www.kaigokensaku.mhlw.go.jp/19/index.php?action_kouhyou_detail_004_kani=true&JigyosyoCd=1971000029-00&ServiceCd=150&Type=search", "url2": "http://www.ryokuju.com" }, "geometry": { "type": "Point", "coordinates": [ 138.429392300000018, 35.7702452 ] } },
{ "type": "Feature", "properties": { "内容": "あい清里【通所介護】高根町村山北割1391番地1あい清里", "url": "https://www.kaigokensaku.mhlw.go.jp/19/index.php?action_kouhyou_detail_004_kani=true&JigyosyoCd=1971900434-00&ServiceCd=150&Type=search", "url2": "http://www.shinnihontsuusan.co.jp/index.html" }, "geometry": { "type": "Point", "coordinates": [ 138.418887, 35.8447962 ] } },
{ "type": "Feature", "properties": { "内容": "あい清里別館【通所介護】高根町村山北割1386-1あい清里別館", "url": "https://www.kaigokensaku.mhlw.go.jp/19/index.php?action_kouhyou_detail_004_kani=true&JigyosyoCd=1971900475-00&ServiceCd=150&Type=search", "url2": "http://www.shinnihontsuusan.co.jp/index.html" }, "geometry": { "type": "Point", "coordinates": [ 138.419123099999979, 35.8445629 ] } },
{ "type": "Feature", "properties": { "内容": "あい下黒沢【通所介護】山梨県北杜市高根町下黒澤3790番地2あい下黒沢", "url": "https://www.kaigokensaku.mhlw.go.jp/19/index.php?action_kouhyou_detail_004_kani=true&JigyosyoCd=1971900491-00&ServiceCd=150&Type=search", "url2": "http://www.shinnihontsuusan.co.jp/other/company.html" }, "geometry": { "type": "Point", "coordinates": [ 138.399009500000034, 35.8037846 ] } },
{ "type": "Feature", "properties": { "内容": "デイサービスほくとのいえ【通所介護】山梨県北杜市小淵沢町上笹尾3332-2560", "url": "https://www.kaigokensaku.mhlw.go.jp/19/index.php?action_kouhyou_detail_004_kani=true&JigyosyoCd=1971900517-00&ServiceCd=150&Type=search", "url2": "http://www.warauku-navi.net/kobuchizawa/index.html" }, "geometry": { "type": "Point", "coordinates": [ 138.338243, 35.871209 ] } },
{ "type": "Feature", "properties": { "内容": "やさしい手北杜事業所【通所介護】山梨県北杜市須玉町藤田７９９－１", "url": "https://www.kaigokensaku.mhlw.go.jp/19/index.php?action_kouhyou_detail_004_kani=true&JigyosyoCd=1971900269-00&ServiceCd=150&Type=search", "url2": null }, "geometry": { "type": "Point", "coordinates": [ 138.428194599999983, 35.7793633 ] } },
{ "type": "Feature", "properties": { "内容": "仁生園デイサービスセンター【通所介護】山梨県北杜市長坂町小荒間1293", "url": "https://www.kaigokensaku.mhlw.go.jp/19/index.php?action_kouhyou_detail_004_kani=true&JigyosyoCd=1971000011-00&ServiceCd=150&Type=search", "url2": "http://www.aijyukai.com" }, "geometry": { "type": "Point", "coordinates": [ 138.348050699999931, 35.8742171 ] } },
{ "type": "Feature", "properties": { "内容": "大泉通所介護事業所【通所介護】山梨県北杜市大泉町谷戸1880大泉町デイサービスセンター", "url": "https://www.kaigokensaku.mhlw.go.jp/19/index.php?action_kouhyou_detail_004_kani=true&JigyosyoCd=1971900087-00&ServiceCd=150&Type=search", "url2": "http://www.hokuto-shakyo.jp" }, "geometry": { "type": "Point", "coordinates": [ 138.3793667, 35.8604347 ] } },
{ "type": "Feature", "properties": { "内容": "高根通所介護事業所【通所介護】山梨県北杜市高根町箕輪新町５０番地", "url": "https://www.kaigokensaku.mhlw.go.jp/19/index.php?action_kouhyou_detail_004_kani=true&JigyosyoCd=1971900079-00&ServiceCd=150&Type=search", "url2": "www.hokuto-shakyo.jp" }, "geometry": { "type": "Point", "coordinates": [ 138.431149900000037, 35.8326361 ] } },
{ "type": "Feature", "properties": { "内容": "武川通所介護事業所【通所介護】北杜市武川町牧原１３２２武川通所介護事業所", "url": "https://www.kaigokensaku.mhlw.go.jp/19/index.php?action_kouhyou_detail_004_kani=true&JigyosyoCd=1971900103-00&ServiceCd=150&Type=search", "url2": "www.hokuto-shakyo.jp" }, "geometry": { "type": "Point", "coordinates": [ 138.3786651, 35.7835882 ] } },
{ "type": "Feature", "properties": { "内容": "小淵沢通所介護事業所【通所介護】山梨県北杜市小淵沢町６２６６こぶ", "url": "https://www.kaigokensaku.mhlw.go.jp/19/index.php?action_kouhyou_detail_004_kani=true&JigyosyoCd=1971900210-00&ServiceCd=150&Type=search", "url2": null }, "geometry": { "type": "Point", "coordinates": [ 138.302795300000014, 35.8626269 ] } },
{ "type": "Feature", "properties": { "内容": "ほくと夢ポケットデイサービス【通所介護】山梨県　北杜市　高根町　村山西割　2051-1", "url": "https://www.kaigokensaku.mhlw.go.jp/19/index.php?action_kouhyou_detail_004_kani=true&JigyosyoCd=1971000342-00&ServiceCd=150&Type=search", "url2": "http://www.yumepoke.net" }, "geometry": { "type": "Point", "coordinates": [ 138.403234800000064, 35.836166 ] } },
{ "type": "Feature", "properties": { "内容": "ほくと夢ポケットⅡデイサービス【通所介護】山梨県　北杜市　高根町　村山西割　2044-1", "url": "https://www.kaigokensaku.mhlw.go.jp/19/index.php?action_kouhyou_detail_004_kani=true&JigyosyoCd=1971900319-00&ServiceCd=150&Type=search", "url2": "http://www.yumepoke.net" }, "geometry": { "type": "Point", "coordinates": [ 138.4028281, 35.8367798 ] } },
{ "type": "Feature", "properties": { "内容": "ほくと夢ポケットⅢデイサービス【通所介護】山梨県北杜市長坂町大八田1576-27", "url": "https://www.kaigokensaku.mhlw.go.jp/19/index.php?action_kouhyou_detail_004_kani=true&JigyosyoCd=1971900376-00&ServiceCd=150&Type=search", "url2": "http://www.yumepoke.net" }, "geometry": { "type": "Point", "coordinates": [ 138.390651100000014, 35.8375804 ] } },
{ "type": "Feature", "properties": { "内容": "森のデイサービス　さんりん舎【通所介護】大泉町西井出８２４０－２２５６", "url": "https://www.kaigokensaku.mhlw.go.jp/19/index.php?action_kouhyou_detail_004_kani=true&JigyosyoCd=1971900277-00&ServiceCd=150&Type=search", "url2": "sanrinsya.net/" }, "geometry": { "type": "Point", "coordinates": [ 138.410827528776764, 35.889172637597312 ] } },
{ "type": "Feature", "properties": { "内容": "めぐみ荘デイサービスセンター【通所介護】山梨県甲斐市竜王644-5", "url": "https://www.kaigokensaku.mhlw.go.jp/19/index.php?action_kouhyou_detail_004_kani=true&JigyosyoCd=1970800189-00&ServiceCd=150&Type=search", "url2": null }, "geometry": { "type": "Point", "coordinates": [ 138.507627299999967, 35.671283 ] } },
{ "type": "Feature", "properties": { "内容": "宅老所（デイサーヒス）みーんなあつまれ【通所介護】山梨県甲斐市下今井2472-2", "url": "https://www.kaigokensaku.mhlw.go.jp/19/index.php?action_kouhyou_detail_004_kani=true&JigyosyoCd=1971000334-00&ServiceCd=150&Type=search", "url2": "http://www15.plala.or.jp/atumare/" }, "geometry": { "type": "Point", "coordinates": [ 138.5046357, 35.6825317 ] } },
{ "type": "Feature", "properties": { "内容": "デイサービス　　わたぼうし【通所介護】山梨県甲斐市西八幡4027-1", "url": "https://www.kaigokensaku.mhlw.go.jp/19/index.php?action_kouhyou_detail_004_kani=true&JigyosyoCd=1971700149-00&ServiceCd=150&Type=search", "url2": null }, "geometry": { "type": "Point", "coordinates": [ 138.5144606, 35.6379933 ] } },
{ "type": "Feature", "properties": { "内容": "デイサービスセンターふるさと敷島【通所介護】甲斐市大下条425-1", "url": "https://www.kaigokensaku.mhlw.go.jp/19/index.php?action_kouhyou_detail_004_kani=true&JigyosyoCd=1971700362-00&ServiceCd=150&Type=search", "url2": null }, "geometry": { "type": "Point", "coordinates": [ 138.525572300000022, 35.6727774 ] } },
{ "type": "Feature", "properties": { "内容": "双葉デイサービスセンター指定通所介護事業所【通所介護】山梨県甲斐市宇津谷1103", "url": "https://www.kaigokensaku.mhlw.go.jp/19/index.php?action_kouhyou_detail_004_kani=true&JigyosyoCd=1961790043-00&ServiceCd=150&Type=search", "url2": "http://www.hikarinosato.com" }, "geometry": { "type": "Point", "coordinates": [ 138.482132200000024, 35.6955578 ] } },
{ "type": "Feature", "properties": { "内容": "医療法人静正会三井クリニックデイサービスセンター福福【通所介護】山梨県甲斐市宇津谷４０３６－１", "url": "https://www.kaigokensaku.mhlw.go.jp/19/index.php?action_kouhyou_detail_004_kani=true&JigyosyoCd=1971000284-00&ServiceCd=150&Type=search", "url2": null }, "geometry": { "type": "Point", "coordinates": [ 138.4764937, 35.7005209 ] } },
{ "type": "Feature", "properties": { "内容": "希光庵【通所介護】山梨県甲斐市大下条１１２１－１", "url": "https://www.kaigokensaku.mhlw.go.jp/19/index.php?action_kouhyou_detail_004_kani=true&JigyosyoCd=1971700487-00&ServiceCd=150&Type=search", "url2": null }, "geometry": { "type": "Point", "coordinates": [ 138.526577699999962, 35.6749522 ] } },
{ "type": "Feature", "properties": { "内容": "デイサービスだんだん【通所介護】山梨県甲斐市竜王1560番地", "url": "https://www.kaigokensaku.mhlw.go.jp/19/index.php?action_kouhyou_detail_004_kani=true&JigyosyoCd=1971700651-00&ServiceCd=150&Type=search", "url2": null }, "geometry": { "type": "Point", "coordinates": [ 138.51183530000003, 35.6641757 ] } },
{ "type": "Feature", "properties": { "内容": "和音デイサービス【通所介護】山梨県甲斐市富竹新田４１６－５和音デイサービス", "url": "https://www.kaigokensaku.mhlw.go.jp/19/index.php?action_kouhyou_detail_004_kani=true&JigyosyoCd=1971700701-00&ServiceCd=150&Type=search", "url2": null }, "geometry": { "type": "Point", "coordinates": [ 138.528164100000026, 35.6614818 ] } },
{ "type": "Feature", "properties": { "内容": "あい下今井【通所介護】下今井2689-3あい下今井", "url": "https://www.kaigokensaku.mhlw.go.jp/19/index.php?action_kouhyou_detail_004_kani=true&JigyosyoCd=1971700586-00&ServiceCd=150&Type=search", "url2": "http://www.shinnihontsuusan.co.jp/index.html" }, "geometry": { "type": "Point", "coordinates": [ 138.502797099999952, 35.6799931 ] } },
{ "type": "Feature", "properties": { "内容": "あい響が丘【通所介護】龍地3066-1あい響が丘", "url": "https://www.kaigokensaku.mhlw.go.jp/19/index.php?action_kouhyou_detail_004_kani=true&JigyosyoCd=1971700594-00&ServiceCd=150&Type=search", "url2": "http://www.shinnihontsuusan.co.jp/index.html" }, "geometry": { "type": "Point", "coordinates": [ 138.507946400000037, 35.6823373 ] } },
{ "type": "Feature", "properties": { "内容": "あい竜王丘【通所介護】甲斐市西八幡869番地", "url": "https://www.kaigokensaku.mhlw.go.jp/19/index.php?action_kouhyou_detail_004_kani=true&JigyosyoCd=1971700735-00&ServiceCd=150&Type=search", "url2": null }, "geometry": { "type": "Point", "coordinates": [ 138.525826199999983, 35.6382157 ] } },
{ "type": "Feature", "properties": { "内容": "サンクシアデイサービスセンター【通所介護】山梨県甲斐市西八幡637", "url": "https://www.kaigokensaku.mhlw.go.jp/19/index.php?action_kouhyou_detail_004_kani=true&JigyosyoCd=1971700958-00&ServiceCd=150&Type=search", "url2": null }, "geometry": { "type": "Point", "coordinates": [ 138.513938, 35.6521842 ] } },
{ "type": "Feature", "properties": { "内容": "デイサービスセンタ－幸せのリボン【通所介護】山梨県甲斐市岩森184-1", "url": "https://www.kaigokensaku.mhlw.go.jp/19/index.php?action_kouhyou_detail_004_kani=true&JigyosyoCd=1971700784-00&ServiceCd=150&Type=search", "url2": "http://siawasenoribbon.com" }, "geometry": { "type": "Point", "coordinates": [ 138.487198499999977, 35.6941414 ] } },
{ "type": "Feature", "properties": { "内容": "ケアステーションあさひ甲斐西八幡【通所介護】山梨県甲斐市西八幡字西冷間2328", "url": "https://www.kaigokensaku.mhlw.go.jp/19/index.php?action_kouhyou_detail_004_kani=true&JigyosyoCd=1971700677-00&ServiceCd=150&Type=search", "url2": "http://www.vati.co.jp/" }, "geometry": { "type": "Point", "coordinates": [ 138.520196100000021, 35.6400238 ] } },
{ "type": "Feature", "properties": { "内容": "しまのさとデイサービスセンター【通所介護】山梨県甲斐市島上条2545", "url": "https://www.kaigokensaku.mhlw.go.jp/19/index.php?action_kouhyou_detail_004_kani=true&JigyosyoCd=1970800718-00&ServiceCd=150&Type=search", "url2": "shimanosato.net" }, "geometry": { "type": "Point", "coordinates": [ 138.5213349, 35.6901699 ] } },
{ "type": "Feature", "properties": { "内容": "デイサービスセンター敷島荘【通所介護】山梨県甲斐市中下条1136-1", "url": "https://www.kaigokensaku.mhlw.go.jp/19/index.php?action_kouhyou_detail_004_kani=true&JigyosyoCd=1971701048-00&ServiceCd=150&Type=search", "url2": "http://shikishimasou.net/" }, "geometry": { "type": "Point", "coordinates": [ 138.5233874, 35.6816216 ] } },
{ "type": "Feature", "properties": { "内容": "ケアステーションあさひ甲斐下今井【通所介護】山梨県甲斐市下今井2791-1ケアステーションあさひ甲斐下今井", "url": "https://www.kaigokensaku.mhlw.go.jp/19/index.php?action_kouhyou_detail_004_kani=true&JigyosyoCd=1971700693-00&ServiceCd=150&Type=search", "url2": null }, "geometry": { "type": "Point", "coordinates": [ 138.5030175, 35.6785686 ] } },
{ "type": "Feature", "properties": { "内容": "ニチイケアセンター甲斐【通所介護】山梨県甲斐市篠原1659", "url": "https://www.kaigokensaku.mhlw.go.jp/19/index.php?action_kouhyou_detail_004_kani=true&JigyosyoCd=1970800593-00&ServiceCd=150&Type=search", "url2": "http://www.nichiigakkan.co.jp/" }, "geometry": { "type": "Point", "coordinates": [ 138.524304300000011, 35.6503347 ] } },
{ "type": "Feature", "properties": { "内容": "ゆめみどりデイサービスセンター【通所介護】山梨県甲斐市玉川１７００－１", "url": "https://www.kaigokensaku.mhlw.go.jp/19/index.php?action_kouhyou_detail_004_kani=true&JigyosyoCd=1971700255-00&ServiceCd=150&Type=search", "url2": "http://www.kashinokai.or.jp/" }, "geometry": { "type": "Point", "coordinates": [ 138.522757100000035, 35.6331636 ] } },
{ "type": "Feature", "properties": { "内容": "通所介護上機嫌【通所介護】山梨県甲斐市下今井2977", "url": "https://www.kaigokensaku.mhlw.go.jp/19/index.php?action_kouhyou_detail_004_kani=true&JigyosyoCd=1971700669-00&ServiceCd=150&Type=search", "url2": "https://jo-kigen.jp/" }, "geometry": { "type": "Point", "coordinates": [ 138.501266, 35.675421 ] } },
{ "type": "Feature", "properties": { "内容": "甲斐ケアセンターそよ風【通所介護】大下条869-1", "url": "https://www.kaigokensaku.mhlw.go.jp/19/index.php?action_kouhyou_detail_004_kani=true&JigyosyoCd=1971700891-00&ServiceCd=150&Type=search", "url2": null }, "geometry": { "type": "Point", "coordinates": [ 138.520164600000044, 35.6746541 ] } },
{ "type": "Feature", "properties": { "内容": "デイサービスセンター赤坂台【通所介護】山梨県甲斐市篠原315-3", "url": "https://www.kaigokensaku.mhlw.go.jp/19/index.php?action_kouhyou_detail_004_kani=true&JigyosyoCd=1971700321-00&ServiceCd=150&Type=search", "url2": "http://akasakadai.com/" }, "geometry": { "type": "Point", "coordinates": [ 138.521761115771085, 35.653283015138683 ] } },
{ "type": "Feature", "properties": { "内容": "通所介護　自灯明【通所介護】山梨県笛吹市石和町東高橋401-1", "url": "https://www.kaigokensaku.mhlw.go.jp/19/index.php?action_kouhyou_detail_004_kani=true&JigyosyoCd=1971801293-00&ServiceCd=150&Type=search", "url2": "https://koharubi-kaigo.com/zitoumyou/" }, "geometry": { "type": "Point", "coordinates": [ 138.607848749737514, 35.638260299548925 ] } },
{ "type": "Feature", "properties": { "内容": "ハートデイサービス春日居【通所介護】山梨県笛吹市春日居町小松1117", "url": "https://www.kaigokensaku.mhlw.go.jp/19/index.php?action_kouhyou_detail_004_kani=true&JigyosyoCd=1971801434-00&ServiceCd=150&Type=search", "url2": "http://heart-service.co.jp/" }, "geometry": { "type": "Point", "coordinates": [ 138.656864500000012, 35.6625926 ] } },
{ "type": "Feature", "properties": { "内容": "デイサービスセンター八代南【通所介護】山梨県笛吹市八代町南3614-1", "url": "https://www.kaigokensaku.mhlw.go.jp/19/index.php?action_kouhyou_detail_004_kani=true&JigyosyoCd=1971801566-00&ServiceCd=150&Type=search", "url2": "https://rocky-blizzard-313.notion.site/f5b7b95216874c03b2cc73d5a8c39e77" }, "geometry": { "type": "Point", "coordinates": [ 138.62759459510653, 35.620853207878675 ] } },
{ "type": "Feature", "properties": { "内容": "ハッピーホーム八代デイサービスセンター【通所介護】山梨県笛吹市八代町南881番地1ハッピーホーム八代デイサービスセン", "url": "https://www.kaigokensaku.mhlw.go.jp/19/index.php?action_kouhyou_detail_004_kani=true&JigyosyoCd=1971800667-00&ServiceCd=150&Type=search", "url2": null }, "geometry": { "type": "Point", "coordinates": [ 138.639436093254091, 35.618417051340714 ] } },
{ "type": "Feature", "properties": { "内容": "絆　指定通所介護事業所【通所介護】山梨県笛吹市八代町竹居1235-1絆　介護支援センター", "url": "https://www.kaigokensaku.mhlw.go.jp/19/index.php?action_kouhyou_detail_004_kani=true&JigyosyoCd=1971800808-00&ServiceCd=150&Type=search", "url2": "http://kizuna.social/" }, "geometry": { "type": "Point", "coordinates": [ 138.658974299999954, 35.6035777 ] } },
{ "type": "Feature", "properties": { "内容": "壽ノ家　デイサービスセンター【通所介護】山梨県笛吹市石和町四日市場２０３１", "url": "https://www.kaigokensaku.mhlw.go.jp/19/index.php?action_kouhyou_detail_004_kani=true&JigyosyoCd=1970500300-00&ServiceCd=150&Type=search", "url2": "http://www.krg.ne.jp/kt.html" }, "geometry": { "type": "Point", "coordinates": [ 138.6265543, 35.6463337 ] } },
{ "type": "Feature", "properties": { "内容": "デイサービス花みずき【通所介護】山梨県笛吹市石和町小石和1848-4", "url": "https://www.kaigokensaku.mhlw.go.jp/19/index.php?action_kouhyou_detail_004_kani=true&JigyosyoCd=1971801277-00&ServiceCd=150&Type=search", "url2": "https://hanamizuki-day.com/" }, "geometry": { "type": "Point", "coordinates": [ 138.6346613, 35.6285332 ] } },
{ "type": "Feature", "properties": { "内容": "エレガローザいちのみや　デイサービスセンター【通所介護】山梨県笛吹市一宮町下矢作300-3", "url": "https://www.kaigokensaku.mhlw.go.jp/19/index.php?action_kouhyou_detail_004_kani=true&JigyosyoCd=1971801608-00&ServiceCd=150&Type=search", "url2": "http://elega-roza.com" }, "geometry": { "type": "Point", "coordinates": [ 138.683952735582011, 35.657212863015822 ] } },
{ "type": "Feature", "properties": { "内容": "医療法人　聖仁会　デイサービスいずみ【通所介護】山梨県笛吹市一宮町金田52-3", "url": "https://www.kaigokensaku.mhlw.go.jp/19/index.php?action_kouhyou_detail_004_kani=true&JigyosyoCd=1971800618-00&ServiceCd=150&Type=search", "url2": "http://seijinkai-saiyo.com/dayservice-izumi/" }, "geometry": { "type": "Point", "coordinates": [ 138.677440899999965, 35.654761 ] } },
{ "type": "Feature", "properties": { "内容": "笛吹市社会福祉協議会　八代・境川通所介護事業所【通所介護】山梨県笛吹市八代町南３２６番地の１", "url": "https://www.kaigokensaku.mhlw.go.jp/19/index.php?action_kouhyou_detail_004_kani=true&JigyosyoCd=1971800089-00&ServiceCd=150&Type=search", "url2": "http://www.fuefuki-shakyo.or.jp" }, "geometry": { "type": "Point", "coordinates": [ 138.6445879, 35.6133736 ] } },
{ "type": "Feature", "properties": { "内容": "笛吹市社会福祉協議会石和通所介護事業所【通所介護】山梨県笛吹市石和町下平井578", "url": "https://www.kaigokensaku.mhlw.go.jp/19/index.php?action_kouhyou_detail_004_kani=true&JigyosyoCd=1971800055-00&ServiceCd=150&Type=search", "url2": null }, "geometry": { "type": "Point", "coordinates": [ 138.6474311, 35.6464275 ] } },
{ "type": "Feature", "properties": { "内容": "ワイズパーク石和店【通所介護】山梨県笛吹市石和町市部1106-1", "url": "https://www.kaigokensaku.mhlw.go.jp/19/index.php?action_kouhyou_detail_004_kani=true&JigyosyoCd=1971801533-00&ServiceCd=150&Type=search", "url2": "http://ys-park.net" }, "geometry": { "type": "Point", "coordinates": [ 138.6360228, 35.650011 ] } },
{ "type": "Feature", "properties": { "内容": "デイサービスセンター弘寿園【通所介護】山梨県笛吹市石和町川中島1160-1", "url": "https://www.kaigokensaku.mhlw.go.jp/19/index.php?action_kouhyou_detail_004_kani=true&JigyosyoCd=1971801020-00&ServiceCd=150&Type=search", "url2": "http://kasugaisou.jp/" }, "geometry": { "type": "Point", "coordinates": [ 138.659318717049445, 35.655445875059037 ] } },
{ "type": "Feature", "properties": { "内容": "笛吹市社会福祉協議会　一宮通所介護事業所【通所介護】山梨県笛吹市一宮町竹原田40複合施設　スマイルいちのみや", "url": "https://www.kaigokensaku.mhlw.go.jp/19/index.php?action_kouhyou_detail_004_kani=true&JigyosyoCd=1971801418-00&ServiceCd=150&Type=search", "url2": "http://www.fuefuki-shakyo.or.jp/" }, "geometry": { "type": "Point", "coordinates": [ 138.6775116, 35.6485748 ] } },
{ "type": "Feature", "properties": { "内容": "一宮デイサービスセンター【通所介護】山梨県笛吹市一宮町南野呂４２２-１", "url": "https://www.kaigokensaku.mhlw.go.jp/19/index.php?action_kouhyou_detail_004_kani=true&JigyosyoCd=1970500110-00&ServiceCd=150&Type=search", "url2": "http://www:aams.co.jp" }, "geometry": { "type": "Point", "coordinates": [ 138.709587899999974, 35.6564792 ] } },
{ "type": "Feature", "properties": { "内容": "甲州デイサービスセンター一宮事業所【通所介護】山梨県笛吹市一宮町塩田741-1", "url": "https://www.kaigokensaku.mhlw.go.jp/19/index.php?action_kouhyou_detail_004_kani=true&JigyosyoCd=1971801269-00&ServiceCd=150&Type=search", "url2": "https://www.krg.ne.jp/care/" }, "geometry": { "type": "Point", "coordinates": [ 138.690918, 35.6338973 ] } },
{ "type": "Feature", "properties": { "内容": "デイサービスらくっと【通所介護】山梨県上野原市上野原3584番地", "url": "https://www.kaigokensaku.mhlw.go.jp/19/index.php?action_kouhyou_detail_004_kani=true&JigyosyoCd=1972000341-00&ServiceCd=150&Type=search", "url2": "http://www7b.biglobe.ne.jp/~rakutto/" }, "geometry": { "type": "Point", "coordinates": [ 139.111996598217047, 35.629370136958016 ] } },
{ "type": "Feature", "properties": { "内容": "あいらーく鶴川宿【通所介護】山梨県上野原市鶴川89", "url": "https://www.kaigokensaku.mhlw.go.jp/19/index.php?action_kouhyou_detail_004_kani=true&JigyosyoCd=1972000408-00&ServiceCd=150&Type=search", "url2": null }, "geometry": { "type": "Point", "coordinates": [ 139.101815278750337, 35.636125160037722 ] } },
{ "type": "Feature", "properties": { "内容": "やすらぎ荘上野原指定通所介護事業所【通所介護】山梨県上野原市上野原3446", "url": "https://www.kaigokensaku.mhlw.go.jp/19/index.php?action_kouhyou_detail_004_kani=true&JigyosyoCd=1971500168-00&ServiceCd=150&Type=search", "url2": "https://ryokusui.or.jp/" }, "geometry": { "type": "Point", "coordinates": [ 139.112534900000014, 35.6290565 ] } },
{ "type": "Feature", "properties": { "内容": "デイホームにんじん・上野原【通所介護】山梨県上野原市上野原522", "url": "https://www.kaigokensaku.mhlw.go.jp/19/index.php?action_kouhyou_detail_004_kani=true&JigyosyoCd=1971500135-00&ServiceCd=150&Type=search", "url2": "http://www.ninjin.or.jp/" }, "geometry": { "type": "Point", "coordinates": [ 139.1188812, 35.6236436 ] } },
{ "type": "Feature", "properties": { "内容": "山なしこあら指定通所介護事業所【通所介護】山梨県上野原市鶴島589-4", "url": "https://www.kaigokensaku.mhlw.go.jp/19/index.php?action_kouhyou_detail_004_kani=true&JigyosyoCd=1972000309-00&ServiceCd=150&Type=search", "url2": null }, "geometry": { "type": "Point", "coordinates": [ 139.12394230000001, 35.6116618 ] } },
{ "type": "Feature", "properties": { "内容": "フェリーチェ上野原【通所介護】山梨県上野原市大椚６１１番地", "url": "https://www.kaigokensaku.mhlw.go.jp/19/index.php?action_kouhyou_detail_004_kani=true&JigyosyoCd=1972000051-00&ServiceCd=150&Type=search", "url2": "http://www.heisei294.org" }, "geometry": { "type": "Point", "coordinates": [ 139.0907511, 35.634576 ] } },
{ "type": "Feature", "properties": { "内容": "あい里　通所介護事業所【通所介護】山梨県上野原市コモアしおつ1-41-1", "url": "https://www.kaigokensaku.mhlw.go.jp/19/index.php?action_kouhyou_detail_004_kani=true&JigyosyoCd=1971500192-00&ServiceCd=150&Type=search", "url2": "https://airicare.co.jp" }, "geometry": { "type": "Point", "coordinates": [ 139.0772527, 35.6219755 ] } },
{ "type": "Feature", "properties": { "内容": "はやぶさデイサービスセンター【通所介護】塩山小屋敷1669-1", "url": "https://www.kaigokensaku.mhlw.go.jp/19/index.php?action_kouhyou_detail_004_kani=true&JigyosyoCd=1972200180-00&ServiceCd=150&Type=search", "url2": null }, "geometry": { "type": "Point", "coordinates": [ 138.7120449, 35.7297362 ] } },
{ "type": "Feature", "properties": { "内容": "光風園指定通所介護事業所【通所介護】山梨県甲州市塩山西野原603", "url": "https://www.kaigokensaku.mhlw.go.jp/19/index.php?action_kouhyou_detail_004_kani=true&JigyosyoCd=1970300016-00&ServiceCd=150&Type=search", "url2": "http://www.koufuukai-yamanashi.or.jp/" }, "geometry": { "type": "Point", "coordinates": [ 138.736151699999937, 35.6891181 ] } },
{ "type": "Feature", "properties": { "内容": "甲州市大和デイサービスセンター【通所介護】甲州市大和町田野77番地", "url": "https://www.kaigokensaku.mhlw.go.jp/19/index.php?action_kouhyou_detail_004_kani=true&JigyosyoCd=1972200131-00&ServiceCd=150&Type=search", "url2": "http://www.yasashiite-kofu.co.jp/company/" }, "geometry": { "type": "Point", "coordinates": [ 138.809468299999907, 35.6461232 ] } },
{ "type": "Feature", "properties": { "内容": "やさしい手勝沼事業所【通所介護】山梨県甲州市勝沼町休息1867-2", "url": "https://www.kaigokensaku.mhlw.go.jp/19/index.php?action_kouhyou_detail_004_kani=true&JigyosyoCd=1970400063-00&ServiceCd=150&Type=search", "url2": null }, "geometry": { "type": "Point", "coordinates": [ 138.720647399999962, 35.6773161 ] } },
{ "type": "Feature", "properties": { "内容": "デイサービス　和み【通所介護】山梨県甲州市塩山上井尻1708-2", "url": "https://www.kaigokensaku.mhlw.go.jp/19/index.php?action_kouhyou_detail_004_kani=true&JigyosyoCd=1972200388-00&ServiceCd=150&Type=search", "url2": "http://www.dayservice-nagomi.com" }, "geometry": { "type": "Point", "coordinates": [ 138.711888, 35.7154012 ] } },
{ "type": "Feature", "properties": { "内容": "ひかり横丁指定通所介護事業所【通所介護】山梨県甲州市塩山赤尾507－1", "url": "https://www.kaigokensaku.mhlw.go.jp/19/index.php?action_kouhyou_detail_004_kani=true&JigyosyoCd=1972200115-00&ServiceCd=150&Type=search", "url2": "http://www.koufuukai-yamanashi.or.jp/" }, "geometry": { "type": "Point", "coordinates": [ 138.736931700000014, 35.7070768 ] } },
{ "type": "Feature", "properties": { "内容": "デイサービス散歩道【通所介護】山梨県中央市山之神94-41", "url": "https://www.kaigokensaku.mhlw.go.jp/19/index.php?action_kouhyou_detail_004_kani=true&JigyosyoCd=1972300071-00&ServiceCd=150&Type=search", "url2": null }, "geometry": { "type": "Point", "coordinates": [ 138.510294499999986, 35.6201039 ] } },
{ "type": "Feature", "properties": { "内容": "デイサービス　わらべうた【通所介護】山梨県中央市成島２３５３", "url": "https://www.kaigokensaku.mhlw.go.jp/19/index.php?action_kouhyou_detail_004_kani=true&JigyosyoCd=1972300121-00&ServiceCd=150&Type=search", "url2": null }, "geometry": { "type": "Point", "coordinates": [ 138.5463919, 35.6007849 ] } },
{ "type": "Feature", "properties": { "内容": "デイサービス楽泉【通所介護】山梨県中央市布施2107", "url": "https://www.kaigokensaku.mhlw.go.jp/19/index.php?action_kouhyou_detail_004_kani=true&JigyosyoCd=1972300147-00&ServiceCd=150&Type=search", "url2": null }, "geometry": { "type": "Point", "coordinates": [ 138.522982100000036, 35.6068474 ] } },
{ "type": "Feature", "properties": { "内容": "デイサービスセンター　ゆたんぽ【通所介護】山梨県中央市上三條５０８－１", "url": "https://www.kaigokensaku.mhlw.go.jp/19/index.php?action_kouhyou_detail_004_kani=true&JigyosyoCd=1972300063-00&ServiceCd=150&Type=search", "url2": null }, "geometry": { "type": "Point", "coordinates": [ 138.5313122, 35.6032675 ] } },
{ "type": "Feature", "properties": { "内容": "デイサービス　飛鳥【通所介護】藤巻１５８３", "url": "https://www.kaigokensaku.mhlw.go.jp/19/index.php?action_kouhyou_detail_004_kani=true&JigyosyoCd=1972300170-00&ServiceCd=150&Type=search", "url2": null }, "geometry": { "type": "Point", "coordinates": [ 138.516356099999939, 35.5839534 ] } },
{ "type": "Feature", "properties": { "内容": "あい中央西花輪【通所介護】山梨県中央市西花輪2259番地", "url": "https://www.kaigokensaku.mhlw.go.jp/19/index.php?action_kouhyou_detail_004_kani=true&JigyosyoCd=1972300287-00&ServiceCd=150&Type=search", "url2": null }, "geometry": { "type": "Point", "coordinates": [ 138.512880404292332, 35.587816481121045 ] } },
{ "type": "Feature", "properties": { "内容": "田富荘デイサービスセンター【通所介護】山梨県中央市西花輪499番地", "url": "https://www.kaigokensaku.mhlw.go.jp/19/index.php?action_kouhyou_detail_004_kani=true&JigyosyoCd=1970800114-00&ServiceCd=150&Type=search", "url2": "http://www.jsyamanashi.jp/tatomisou/" }, "geometry": { "type": "Point", "coordinates": [ 138.520903299999986, 35.5830592 ] } },
{ "type": "Feature", "properties": { "内容": "田富荘北デイサービスセンター【通所介護】山梨県中央市山之神９１２番地", "url": "https://www.kaigokensaku.mhlw.go.jp/19/index.php?action_kouhyou_detail_004_kani=true&JigyosyoCd=1970800890-00&ServiceCd=150&Type=search", "url2": null }, "geometry": { "type": "Point", "coordinates": [ 138.5134113, 35.619496 ] } },
{ "type": "Feature", "properties": { "内容": "進明園デイサービスセンター通所介護事業所【通所介護】山梨県中央市成島2448-2", "url": "https://www.kaigokensaku.mhlw.go.jp/19/index.php?action_kouhyou_detail_004_kani=true&JigyosyoCd=1970800387-00&ServiceCd=150&Type=search", "url2": "https://shoju.or.jp/" }, "geometry": { "type": "Point", "coordinates": [ 138.5456513, 35.5997701 ] } },
{ "type": "Feature", "properties": { "内容": "シルクの里デイサービスセンター【通所介護】山梨県中央市大鳥居3738-1", "url": "https://www.kaigokensaku.mhlw.go.jp/19/index.php?action_kouhyou_detail_004_kani=true&JigyosyoCd=1972300014-00&ServiceCd=150&Type=search", "url2": null }, "geometry": { "type": "Point", "coordinates": [ 138.5558601, 35.5720337 ] } },
{ "type": "Feature", "properties": { "内容": "デイサービスセンター　ゆたんぽ【通所介護】山梨県中央市中楯1448-1", "url": "https://www.kaigokensaku.mhlw.go.jp/19/index.php?action_kouhyou_detail_004_kani=true&JigyosyoCd=1972300329-00&ServiceCd=150&Type=search", "url2": null }, "geometry": { "type": "Point", "coordinates": [ 138.548218826983629, 35.612880892387118 ] } },
{ "type": "Feature", "properties": { "内容": "市川三郷町デイサービスセンター【通所介護】山梨県西八代郡市川三郷町市川大門416番地", "url": "https://www.kaigokensaku.mhlw.go.jp/19/index.php?action_kouhyou_detail_004_kani=true&JigyosyoCd=1970600373-00&ServiceCd=150&Type=search", "url2": "http://www.im-shakyo,sakura.ne.jp" }, "geometry": { "type": "Point", "coordinates": [ 138.4928621, 35.5599756 ] } },
{ "type": "Feature", "properties": { "内容": "清珠荘　デイサービスセンター【通所介護】山梨県西八代郡市川三郷町岩間５０００番地", "url": "https://www.kaigokensaku.mhlw.go.jp/19/index.php?action_kouhyou_detail_004_kani=true&JigyosyoCd=1970600035-00&ServiceCd=150&Type=search", "url2": "http://www10.ocn.ne.jp/~seijusou/" }, "geometry": { "type": "Point", "coordinates": [ 138.4589789, 35.4863248 ] } },
{ "type": "Feature", "properties": { "内容": "老人デイサービスセンターしもべ荘【通所介護】山梨県南巨摩郡身延町常葉７０５８番地１", "url": "https://www.kaigokensaku.mhlw.go.jp/19/index.php?action_kouhyou_detail_004_kani=true&JigyosyoCd=1970600183-00&ServiceCd=150&Type=search", "url2": null }, "geometry": { "type": "Point", "coordinates": [ 138.4782271, 35.4286239 ] } },
{ "type": "Feature", "properties": { "内容": "さいデイサービスセンターみのぶ【通所介護】山梨県南巨摩郡身延町切石４２１－１", "url": "https://www.kaigokensaku.mhlw.go.jp/19/index.php?action_kouhyou_detail_004_kani=true&JigyosyoCd=1970701148-00&ServiceCd=150&Type=search", "url2": null }, "geometry": { "type": "Point", "coordinates": [ 138.441967401852452, 35.467760486544798 ] } },
{ "type": "Feature", "properties": { "内容": "南部町デイサービスセンター指定通所介護事業所【通所介護】山梨県南巨摩郡南部町中野2847", "url": "https://www.kaigokensaku.mhlw.go.jp/19/index.php?action_kouhyou_detail_004_kani=true&JigyosyoCd=1970700074-00&ServiceCd=150&Type=search", "url2": "http://www.kyonan.jp/" }, "geometry": { "type": "Point", "coordinates": [ 138.45060620000001, 35.3018108 ] } },
{ "type": "Feature", "properties": { "内容": "デイサービスセンター百葉南部の郷【通所介護】山梨県南巨摩郡南部町南部8058-1百葉南部の郷", "url": "https://www.kaigokensaku.mhlw.go.jp/19/index.php?action_kouhyou_detail_004_kani=true&JigyosyoCd=1970701304-00&ServiceCd=150&Type=search", "url2": "http://www.momoha-bloom.or.jp" }, "geometry": { "type": "Point", "coordinates": [ 138.452972478573571, 35.292881224643175 ] } },
{ "type": "Feature", "properties": { "内容": "南部町富沢デイサービスセンター【通所介護】山梨県南巨摩郡南部町福士14123番地", "url": "https://www.kaigokensaku.mhlw.go.jp/19/index.php?action_kouhyou_detail_004_kani=true&JigyosyoCd=1970700488-00&ServiceCd=150&Type=search", "url2": "http://www.town.nanbu.yamanashi.jp/shisetu/dayservice_tomi.html" }, "geometry": { "type": "Point", "coordinates": [ 138.465585299999987, 35.2356572 ] } },
{ "type": "Feature", "properties": { "内容": "いきいきくらぶ第２【通所介護】山梨県南巨摩郡富士川町長沢６８７番地２", "url": "https://www.kaigokensaku.mhlw.go.jp/19/index.php?action_kouhyou_detail_004_kani=true&JigyosyoCd=1970700504-00&ServiceCd=150&Type=search", "url2": "http://care-net.biz/19/human/" }, "geometry": { "type": "Point", "coordinates": [ 138.4679113, 35.5719123 ] } },
{ "type": "Feature", "properties": { "内容": "ますほ共立デイサービスふるさと【通所介護】山梨県南巨摩郡富士川町長沢225-4", "url": "https://www.kaigokensaku.mhlw.go.jp/19/index.php?action_kouhyou_detail_004_kani=true&JigyosyoCd=1910711033-00&ServiceCd=150&Type=search", "url2": null }, "geometry": { "type": "Point", "coordinates": [ 138.461841400000026, 35.5689651 ] } },
{ "type": "Feature", "properties": { "内容": "みんなの家どんぐり通所介護事業所【通所介護】南巨摩郡富士川町小林１９５４番地の７", "url": "https://www.kaigokensaku.mhlw.go.jp/19/index.php?action_kouhyou_detail_004_kani=true&JigyosyoCd=1970700108-00&ServiceCd=150&Type=search", "url2": null }, "geometry": { "type": "Point", "coordinates": [ 138.4554614, 35.570435 ] } },
{ "type": "Feature", "properties": { "内容": "デイサービスセンター　きらきら【通所介護】山梨県南巨摩郡富士川町最勝寺1307-1", "url": "https://www.kaigokensaku.mhlw.go.jp/19/index.php?action_kouhyou_detail_004_kani=true&JigyosyoCd=1970700918-00&ServiceCd=150&Type=search", "url2": "http://www.togawakai.sakura.ne.jp/" }, "geometry": { "type": "Point", "coordinates": [ 138.461069800000018, 35.55274 ] } },
{ "type": "Feature", "properties": { "内容": "富士川町増穂デイサービスセンター【通所介護】山梨県南巨摩郡富士川町長澤1942番地1", "url": "https://www.kaigokensaku.mhlw.go.jp/19/index.php?action_kouhyou_detail_004_kani=true&JigyosyoCd=1970701056-00&ServiceCd=150&Type=search", "url2": null }, "geometry": { "type": "Point", "coordinates": [ 138.466781700000013, 35.5732087 ] } },
{ "type": "Feature", "properties": { "内容": "デイサービス　りばーはうすひだまり【通所介護】山梨県中巨摩郡昭和町河西1235-4", "url": "https://www.kaigokensaku.mhlw.go.jp/19/index.php?action_kouhyou_detail_004_kani=true&JigyosyoCd=1970801054-00&ServiceCd=150&Type=search", "url2": "http://care-net.biz/19/hidamari/" }, "geometry": { "type": "Point", "coordinates": [ 138.518696399999953, 35.6141353 ] } },
{ "type": "Feature", "properties": { "内容": "まごころ指定通所介護事業所【通所介護】山梨県中巨摩郡昭和町西条新田３６６の５", "url": "https://www.kaigokensaku.mhlw.go.jp/19/index.php?action_kouhyou_detail_004_kani=true&JigyosyoCd=1970800635-00&ServiceCd=150&Type=search", "url2": null }, "geometry": { "type": "Point", "coordinates": [ 138.5328978, 35.6397267 ] } },
{ "type": "Feature", "properties": { "内容": "あい常永【通所介護】河西278番地1あい常永", "url": "https://www.kaigokensaku.mhlw.go.jp/19/index.php?action_kouhyou_detail_004_kani=true&JigyosyoCd=1970801096-00&ServiceCd=150&Type=search", "url2": "http://www.shinnihontsuusan.co.jp/index.html" }, "geometry": { "type": "Point", "coordinates": [ 135.849357, 34.5077378 ] } },
{ "type": "Feature", "properties": { "内容": "デイサービス　りばーはうすひだまり【通所介護】山梨県中巨摩郡昭和町河西1493", "url": "https://www.kaigokensaku.mhlw.go.jp/19/index.php?action_kouhyou_detail_004_kani=true&JigyosyoCd=1970800825-00&ServiceCd=150&Type=search", "url2": "http://care-net.biz/19/hidamari/" }, "geometry": { "type": "Point", "coordinates": [ 138.520071, 35.6149534 ] } },
{ "type": "Feature", "properties": { "内容": "フクエス昭和【通所介護】山梨県中巨摩郡昭和町西条5278", "url": "https://www.kaigokensaku.mhlw.go.jp/19/index.php?action_kouhyou_detail_004_kani=true&JigyosyoCd=1970801260-00&ServiceCd=150&Type=search", "url2": null }, "geometry": { "type": "Point", "coordinates": [ 138.5413317, 35.644282 ] } },
{ "type": "Feature", "properties": { "内容": "昭和デイサービスセンター【通所介護】山梨県中巨摩郡昭和町河西１１４９－２", "url": "https://www.kaigokensaku.mhlw.go.jp/19/index.php?action_kouhyou_detail_004_kani=true&JigyosyoCd=1970801062-00&ServiceCd=150&Type=search", "url2": "https://sasamotokai.net/sasanohakai" }, "geometry": { "type": "Point", "coordinates": [ 138.51982959999998, 35.6184737 ] } },
{ "type": "Feature", "properties": { "内容": "デイサービス　ひかり【通所介護】山梨県南都留郡西桂町倉見199番地", "url": "https://www.kaigokensaku.mhlw.go.jp/19/index.php?action_kouhyou_detail_004_kani=true&JigyosyoCd=1971300478-00&ServiceCd=150&Type=search", "url2": null }, "geometry": { "type": "Point", "coordinates": [ 138.84616660000006, 35.5194078 ] } },
{ "type": "Feature", "properties": { "内容": "西桂地域福祉事業所　ばいかも【通所介護】山梨県南都留郡西桂町下暮地915-7いきいき健康福祉センター", "url": "https://www.kaigokensaku.mhlw.go.jp/19/index.php?action_kouhyou_detail_004_kani=true&JigyosyoCd=1971300783-00&ServiceCd=150&Type=search", "url2": null }, "geometry": { "type": "Point", "coordinates": [ 138.842914, 35.5236907 ] } },
{ "type": "Feature", "properties": { "内容": "ブルーゾーン望叶【通所介護】山梨県南都留郡忍野村忍草1083", "url": "https://www.kaigokensaku.mhlw.go.jp/19/index.php?action_kouhyou_detail_004_kani=true&JigyosyoCd=1971300957-00&ServiceCd=150&Type=search", "url2": null }, "geometry": { "type": "Point", "coordinates": [ 138.8346143, 35.4553858 ] } },
{ "type": "Feature", "properties": { "内容": "忍野村デイサービスセンター【通所介護】山梨県南都留郡忍野村忍草１４４５－１番地", "url": "https://www.kaigokensaku.mhlw.go.jp/19/index.php?action_kouhyou_detail_004_kani=true&JigyosyoCd=1971300601-00&ServiceCd=150&Type=search", "url2": "https://oshino-syakyo.cms.ne.jp/" }, "geometry": { "type": "Point", "coordinates": [ 138.84745190000001, 35.4584231 ] } },
{ "type": "Feature", "properties": { "内容": "合資会社　　デイサービスふきのとう【通所介護】山梨県南都留郡鳴沢村５８５５－１", "url": "https://www.kaigokensaku.mhlw.go.jp/19/index.php?action_kouhyou_detail_004_kani=true&JigyosyoCd=1971300445-00&ServiceCd=150&Type=search", "url2": "fukinotou@etude.ocn.ne.jp" }, "geometry": { "type": "Point", "coordinates": [ 138.699019, 35.4807111 ] } },
{ "type": "Feature", "properties": { "内容": "富士山荘指定通所介護事業所【通所介護】山梨県南都留郡鳴沢村5061", "url": "https://www.kaigokensaku.mhlw.go.jp/19/index.php?action_kouhyou_detail_004_kani=true&JigyosyoCd=1971300023-00&ServiceCd=150&Type=search", "url2": "http://www.eiju.or.jp" }, "geometry": { "type": "Point", "coordinates": [ 138.724304299999972, 35.4754244 ] } },
{ "type": "Feature", "properties": { "内容": "富士河口湖町デイサービスセンターふれ愛【通所介護】山梨県南都留郡富士河口湖町小立２４８７番地", "url": "https://www.kaigokensaku.mhlw.go.jp/19/index.php?action_kouhyou_detail_004_kani=true&JigyosyoCd=1971300320-00&ServiceCd=150&Type=search", "url2": null }, "geometry": { "type": "Point", "coordinates": [ 138.75364490000004, 35.5040657 ] } },
{ "type": "Feature", "properties": { "内容": "デイサービスはぴねす【通所介護】山梨県南都留郡富士河口湖町船津６８０９番地１", "url": "https://www.kaigokensaku.mhlw.go.jp/19/index.php?action_kouhyou_detail_004_kani=true&JigyosyoCd=1971300734-00&ServiceCd=150&Type=search", "url2": null }, "geometry": { "type": "Point", "coordinates": [ 138.763836099999907, 35.4885817 ] } },
{ "type": "Feature", "properties": { "内容": "デイサービス四つ葉のクローバー【通所介護】山梨県南都留郡富士河口湖町河口2818", "url": "https://www.kaigokensaku.mhlw.go.jp/19/index.php?action_kouhyou_detail_004_kani=true&JigyosyoCd=1971300718-00&ServiceCd=150&Type=search", "url2": null }, "geometry": { "type": "Point", "coordinates": [ 138.773548099999971, 35.5235167 ] } },
{ "type": "Feature", "properties": { "内容": "医療法人聖仁会　デイサービスたんぽぽ【通所介護】山梨県南都留郡富士河口湖町小立４０１２－１", "url": "https://www.kaigokensaku.mhlw.go.jp/19/index.php?action_kouhyou_detail_004_kani=true&JigyosyoCd=1931310443-00&ServiceCd=150&Type=search", "url2": "http://seijinkai-saiyo.com/dayservice-tanpopo/" }, "geometry": { "type": "Point", "coordinates": [ 138.747021793162475, 35.492192707610918 ] } },
{ "type": "Feature", "properties": { "内容": "医療法人　聖仁会　リハビリデイサービス元気丸【通所介護】山梨県富士河口湖町小立1945", "url": "https://www.kaigokensaku.mhlw.go.jp/19/index.php?action_kouhyou_detail_004_kani=true&JigyosyoCd=1971300643-00&ServiceCd=150&Type=search", "url2": "http://seijinkai-saiyo.com/rehabili-dayservice-genkimaru/" }, "geometry": { "type": "Point", "coordinates": [ 138.711665, 35.507353 ] } },
{ "type": "Feature", "properties": { "内容": "通所介護センター　ラベンダー【通所介護】山梨県南都留郡富士河口湖町船津字桜休場６８８７", "url": "https://www.kaigokensaku.mhlw.go.jp/19/index.php?action_kouhyou_detail_004_kani=true&JigyosyoCd=1971300288-00&ServiceCd=150&Type=search", "url2": null }, "geometry": { "type": "Point", "coordinates": [ 138.7542899, 35.4611677 ] } },
{ "type": "Feature", "properties": { "内容": "倶楽部　暖【通所介護】山梨県南都留郡富士河口湖町船津7522", "url": "https://www.kaigokensaku.mhlw.go.jp/19/index.php?action_kouhyou_detail_004_kani=true&JigyosyoCd=1971300676-00&ServiceCd=150&Type=search", "url2": "https://sinwabusiness.co.jp/" }, "geometry": { "type": "Point", "coordinates": [ 138.765541100000064, 35.5011858 ] } },
{ "type": "Feature", "properties": { "内容": "ケアセンターこころ【通所介護】山梨県南都留郡富士河口湖町船津１２４６－１", "url": "https://www.kaigokensaku.mhlw.go.jp/19/index.php?action_kouhyou_detail_004_kani=true&JigyosyoCd=1971300296-00&ServiceCd=150&Type=search", "url2": null }, "geometry": { "type": "Point", "coordinates": [ 138.753943, 35.5016022 ] } },
{ "type": "Feature", "properties": { "内容": "丹波山村社会福祉協議会【通所介護】山梨県北都留郡丹波山村２９０１", "url": "https://www.kaigokensaku.mhlw.go.jp/19/index.php?action_kouhyou_detail_004_kani=true&JigyosyoCd=1971500077-00&ServiceCd=150&Type=search", "url2": null }, "geometry": { "type": "Point", "coordinates": [ 138.922231300000021, 35.7897122 ] } }
]
}
