{
"type": "FeatureCollection",
"name": "geo_19_専修学校",
"crs": { "type": "name", "properties": { "name": "urn:ogc:def:crs:EPSG::6668" } },
"features": [
{ "type": "Feature", "properties": { "P29_001": "19201", "P29_002": "H119210000015", "P29_003": "16016", "P29_004": "山梨県立宝石美術専門学校", "P29_005": "山梨県甲府市丸の内1-16-20", "P29_006": "2", "P29_007": "0", "P29_008": "00", "P29_009": null }, "geometry": { "type": "Point", "coordinates": [ 138.569907099105109, 35.662785589802567 ] } },
{ "type": "Feature", "properties": { "P29_001": "19201", "P29_002": "H119210000024", "P29_003": "16016", "P29_004": "甲府市立甲府商科専門学校", "P29_005": "山梨県甲府市西下条町1020", "P29_006": "3", "P29_007": "0", "P29_008": "00", "P29_009": null }, "geometry": { "type": "Point", "coordinates": [ 138.5753589970993, 35.609336998193648 ] } },
{ "type": "Feature", "properties": { "P29_001": "19202", "P29_002": "H119210000033", "P29_003": "16016", "P29_004": "富士吉田市立看護専門学校", "P29_005": "山梨県富士吉田市上吉田5606-18", "P29_006": "3", "P29_007": "0", "P29_008": "00", "P29_009": null }, "geometry": { "type": "Point", "coordinates": [ 138.8032751375803, 35.455541536541197 ] } },
{ "type": "Feature", "properties": { "P29_001": "19209", "P29_002": "H119210000042", "P29_003": "16016", "P29_004": "専門学校山梨県立農林大学校", "P29_005": "山梨県北杜市長坂町長坂上条3251", "P29_006": "2", "P29_007": "0", "P29_008": "00", "P29_009": null }, "geometry": { "type": "Point", "coordinates": [ 138.364146050494639, 35.823075466789319 ] } },
{ "type": "Feature", "properties": { "P29_001": "19201", "P29_002": "H119310000013", "P29_003": "16016", "P29_004": "山梨予備校", "P29_005": "山梨県甲府市宝1-4-35", "P29_006": "4", "P29_007": "0", "P29_008": "00", "P29_009": null }, "geometry": { "type": "Point", "coordinates": [ 138.561505998053548, 35.668357002574865 ] } },
{ "type": "Feature", "properties": { "P29_001": "19201", "P29_002": "H119310000022", "P29_003": "16016", "P29_004": "山梨女子専門学校", "P29_005": "山梨県甲府市塩部1-3-14", "P29_006": "4", "P29_007": "0", "P29_008": "00", "P29_009": null }, "geometry": { "type": "Point", "coordinates": [ 138.559721298903241, 35.672726952619776 ] } },
{ "type": "Feature", "properties": { "P29_001": "19201", "P29_002": "H119310000031", "P29_003": "16016", "P29_004": "モードアカデミー服装専門学校", "P29_005": "山梨県甲府市中央2-5-29", "P29_006": "4", "P29_007": "0", "P29_008": "00", "P29_009": null }, "geometry": { "type": "Point", "coordinates": [ 138.57317300187205, 35.665227001708672 ] } },
{ "type": "Feature", "properties": { "P29_001": "19201", "P29_002": "H119310000040", "P29_003": "16016", "P29_004": "共立高等看護学院", "P29_005": "山梨県甲府市飯田3-1-35", "P29_006": "4", "P29_007": "0", "P29_008": "00", "P29_009": null }, "geometry": { "type": "Point", "coordinates": [ 138.560062999752915, 35.66681500282521 ] } },
{ "type": "Feature", "properties": { "P29_001": "19201", "P29_002": "H119310000059", "P29_003": "16016", "P29_004": "甲府ドレメ学院", "P29_005": "山梨県甲府市丸の内2-18-15", "P29_006": "4", "P29_007": "0", "P29_008": "00", "P29_009": null }, "geometry": { "type": "Point", "coordinates": [ 138.566184738929309, 35.664922373255962 ] } },
{ "type": "Feature", "properties": { "P29_001": "19210", "P29_002": "H119310000068", "P29_003": "16016", "P29_004": "日本航空大学校山梨", "P29_005": "山梨県甲斐市宇津谷445", "P29_006": "4", "P29_007": "0", "P29_008": "00", "P29_009": null }, "geometry": { "type": "Point", "coordinates": [ 138.48067227922445, 35.682223335946048 ] } },
{ "type": "Feature", "properties": { "P29_001": "19201", "P29_002": "H119310000077", "P29_003": "16016", "P29_004": "甲府看護専門学校", "P29_005": "山梨県甲府市塩部3-1-4", "P29_006": "4", "P29_007": "0", "P29_008": "00", "P29_009": null }, "geometry": { "type": "Point", "coordinates": [ 138.556355149138739, 35.672818375067777 ] } },
{ "type": "Feature", "properties": { "P29_001": "19201", "P29_002": "H119310000086", "P29_003": "16016", "P29_004": "山梨県歯科衛生専門学校", "P29_005": "山梨県甲府市大手1-4-1", "P29_006": "4", "P29_007": "0", "P29_008": "00", "P29_009": null }, "geometry": { "type": "Point", "coordinates": [ 138.575332003533987, 35.681149998087342 ] } },
{ "type": "Feature", "properties": { "P29_001": "19201", "P29_002": "H119310000095", "P29_003": "16016", "P29_004": "山梨情報専門学校", "P29_005": "山梨県甲府市幸町18-12", "P29_006": "4", "P29_007": "0", "P29_008": "00", "P29_009": null }, "geometry": { "type": "Point", "coordinates": [ 138.570009001407044, 35.646115000075177 ] } },
{ "type": "Feature", "properties": { "P29_001": "19201", "P29_002": "H119310000102", "P29_003": "16016", "P29_004": "帝京山梨看護専門学校", "P29_005": "山梨県甲府市北口2-15-4", "P29_006": "4", "P29_007": "0", "P29_008": "00", "P29_009": null }, "geometry": { "type": "Point", "coordinates": [ 138.570227972321248, 35.669996713335038 ] } },
{ "type": "Feature", "properties": { "P29_001": "19205", "P29_002": "H119310000111", "P29_003": "16016", "P29_004": "帝京福祉専門学校", "P29_005": "山梨県山梨市上神内川77-3", "P29_006": "4", "P29_007": "0", "P29_008": "00", "P29_009": null }, "geometry": { "type": "Point", "coordinates": [ 138.684185697688235, 35.684270020847798 ] } },
{ "type": "Feature", "properties": { "P29_001": "19201", "P29_002": "H119310000120", "P29_003": "16016", "P29_004": "専門学校甲府医療秘書学院", "P29_005": "山梨県甲府市幸町18-12", "P29_006": "4", "P29_007": "0", "P29_008": "00", "P29_009": null }, "geometry": { "type": "Point", "coordinates": [ 138.570096796486638, 35.6460742825751 ] } },
{ "type": "Feature", "properties": { "P29_001": "19210", "P29_002": "H119310000139", "P29_003": "16016", "P29_004": "専門学校サンテクノカレッジ", "P29_005": "山梨県甲斐市竜王新町1999-5", "P29_006": "4", "P29_007": "0", "P29_008": "00", "P29_009": null }, "geometry": { "type": "Point", "coordinates": [ 138.509457924119204, 35.675253730139246 ] } },
{ "type": "Feature", "properties": { "P29_001": "19201", "P29_002": "H119310000148", "P29_003": "16016", "P29_004": "山梨県美容専門学校", "P29_005": "山梨県甲府市緑が丘2-13-36", "P29_006": "4", "P29_007": "0", "P29_008": "00", "P29_009": null }, "geometry": { "type": "Point", "coordinates": [ 138.55904087692258, 35.682850036189713 ] } },
{ "type": "Feature", "properties": { "P29_001": "19430", "P29_002": "H119310000157", "P29_003": "16016", "P29_004": "生長の家養心女子学園", "P29_005": "山梨県南都留郡富士河口湖町船津5027-1", "P29_006": "4", "P29_007": "0", "P29_008": "00", "P29_009": null }, "geometry": { "type": "Point", "coordinates": [ 138.77980348651505, 35.495234516218723 ] } },
{ "type": "Feature", "properties": { "P29_001": "19209", "P29_002": "H119310000166", "P29_003": "16016", "P29_004": "女神の森ライフクリエイト専門学校", "P29_005": "山梨県北杜市小淵沢町2950", "P29_006": "4", "P29_007": "0", "P29_008": "00", "P29_009": null }, "geometry": { "type": "Point", "coordinates": [ 138.318210953818777, 35.877257456989511 ] } },
{ "type": "Feature", "properties": { "P29_001": "19201", "P29_002": "H119310000175", "P29_003": "16016", "P29_004": "山梨秀峰調理師専門学校", "P29_005": "山梨県甲府市中町264", "P29_006": "4", "P29_007": "0", "P29_008": "00", "P29_009": null }, "geometry": { "type": "Point", "coordinates": [ 138.572756999492469, 35.615982998659312 ] } },
{ "type": "Feature", "properties": { "P29_001": "19384", "P29_002": "H119310000184", "P29_003": "16016", "P29_004": "優和福祉専門学校", "P29_005": "山梨県中巨摩郡昭和町築地新居374-1", "P29_006": "4", "P29_007": "0", "P29_008": "00", "P29_009": null }, "geometry": { "type": "Point", "coordinates": [ 138.523674677482489, 35.62980284827357 ] } },
{ "type": "Feature", "properties": { "P29_001": "19201", "P29_002": "H119310000193", "P29_003": "16016", "P29_004": "大原簿記情報ビジネス医療福祉保育専門学校甲府校", "P29_005": "山梨県甲府市丸の内2-8-8", "P29_006": "4", "P29_007": "0", "P29_008": "00", "P29_009": null }, "geometry": { "type": "Point", "coordinates": [ 138.565365833521867, 35.667838687308652 ] } },
{ "type": "Feature", "properties": { "P29_001": "19201", "P29_002": "H119310000200", "P29_003": "16016", "P29_004": "大原スポーツ公務員専門学校甲府校", "P29_005": "山梨県甲府市丸の内2-8-8", "P29_006": "4", "P29_007": "0", "P29_008": "00", "P29_009": null }, "geometry": { "type": "Point", "coordinates": [ 138.565369850953061, 35.667764716831556 ] } }
]
}
