{
"type": "FeatureCollection",
"name": "geo_19_訪問リハビリテーション",
"crs": { "type": "name", "properties": { "name": "urn:ogc:def:crs:OGC:1.3:CRS84" } },
"features": [
{ "type": "Feature", "properties": { "内容": "湯村温泉病院訪問リハビリテーション【訪問リハビリテーション】山梨県甲府市湯村三丁目3番4号", "url": "https://www.kaigokensaku.mhlw.go.jp/19/index.php?action_kouhyou_detail_004_kani=true&JigyosyoCd=1910112984-00&ServiceCd=140&Type=search", "url2": "http://www.yumura-reha.com" }, "geometry": { "type": "Point", "coordinates": [ 138.549277599999982, 35.6805658 ] } },
{ "type": "Feature", "properties": { "内容": "NAC湯村指定訪問リハビリテーション「にこにこ倶楽部」【訪問リハビリテーション】山梨県甲府市湯村3-15-13", "url": "https://www.kaigokensaku.mhlw.go.jp/19/index.php?action_kouhyou_detail_004_kani=true&JigyosyoCd=1950180024-00&ServiceCd=140&Type=search", "url2": "http://www.nac-yumura.com" }, "geometry": { "type": "Point", "coordinates": [ 138.546763899999974, 35.6833931 ] } },
{ "type": "Feature", "properties": { "内容": "ひかり訪問リハビリテーション事業所【訪問リハビリテーション】山梨県甲府市上町７５３－１", "url": "https://www.kaigokensaku.mhlw.go.jp/19/index.php?action_kouhyou_detail_004_kani=true&JigyosyoCd=1910112935-00&ServiceCd=140&Type=search", "url2": "http://www.kofujonan.or.jp/" }, "geometry": { "type": "Point", "coordinates": [ 138.5952263, 35.6294187 ] } },
{ "type": "Feature", "properties": { "内容": "医療法人小宮山会　貢川整形外科病院　こぴっと　くがわ【訪問リハビリテーション】山梨県甲府市新田町10-26貢川整形外科病院", "url": "https://www.kaigokensaku.mhlw.go.jp/19/index.php?action_kouhyou_detail_004_kani=true&JigyosyoCd=1970105134-00&ServiceCd=140&Type=search", "url2": "http://kugawaseikeigeka.com" }, "geometry": { "type": "Point", "coordinates": [ 138.536599599999988, 35.664235 ] } },
{ "type": "Feature", "properties": { "内容": "訪問リハビリテーションかぞく【訪問リハビリテーション】山梨県甲府市上阿原487-1", "url": "https://www.kaigokensaku.mhlw.go.jp/19/index.php?action_kouhyou_detail_004_kani=true&JigyosyoCd=1910115425-00&ServiceCd=140&Type=search", "url2": "http://www.happy-clinic.jp/" }, "geometry": { "type": "Point", "coordinates": [ 138.6042549, 35.6456603 ] } },
{ "type": "Feature", "properties": { "内容": "介護老人保健施設　甲府南ﾗｲﾌｹｱｾﾝﾀｰ【訪問リハビリテーション】甲府市住吉５丁目２４－１４", "url": "https://www.kaigokensaku.mhlw.go.jp/19/index.php?action_kouhyou_detail_004_kani=true&JigyosyoCd=1950180016-00&ServiceCd=140&Type=search", "url2": "https://care-net.biz/19/kofuminamilife/" }, "geometry": { "type": "Point", "coordinates": [ 138.57811049999998, 35.635203 ] } },
{ "type": "Feature", "properties": { "内容": "今井整形外科医院訪問リハビリテーション事業所【訪問リハビリテーション】山梨県甲府市上阿原町1151", "url": "https://www.kaigokensaku.mhlw.go.jp/19/index.php?action_kouhyou_detail_004_kani=true&JigyosyoCd=1910113446-00&ServiceCd=140&Type=search", "url2": "https://imaiseikei.net/zaitaku" }, "geometry": { "type": "Point", "coordinates": [ 138.602986499999986, 35.6438823 ] } },
{ "type": "Feature", "properties": { "内容": "医療法人笹本会　笹本整形外科　おおくに訪問リハビリテーション【訪問リハビリテーション】山梨県甲府市古上条町446笹本整形外科", "url": "https://www.kaigokensaku.mhlw.go.jp/19/index.php?action_kouhyou_detail_004_kani=true&JigyosyoCd=1910114360-00&ServiceCd=140&Type=search", "url2": "http://sasamotokai.net/" }, "geometry": { "type": "Point", "coordinates": [ 138.5607622, 35.6312753 ] } },
{ "type": "Feature", "properties": { "内容": "甲府共立診療所　訪問リハビリテーション事業所【訪問リハビリテーション】山梨県甲府市宝1丁目10番5号", "url": "https://www.kaigokensaku.mhlw.go.jp/19/index.php?action_kouhyou_detail_004_kani=true&JigyosyoCd=1910115094-00&ServiceCd=140&Type=search", "url2": null }, "geometry": { "type": "Point", "coordinates": [ 138.5641426, 35.6665968 ] } },
{ "type": "Feature", "properties": { "内容": "医療法人慶友会　城東病院訪問リハビリテーション【訪問リハビリテーション】山梨県甲府市城東4-13-15", "url": "https://www.kaigokensaku.mhlw.go.jp/19/index.php?action_kouhyou_detail_004_kani=true&JigyosyoCd=1910113131-00&ServiceCd=140&Type=search", "url2": "https://www.joto-group.com" }, "geometry": { "type": "Point", "coordinates": [ 138.581959399999988, 35.6573408 ] } },
{ "type": "Feature", "properties": { "内容": "露木耳鼻咽喉科医院【訪問リハビリテーション】山梨県甲府市中央４丁目９－２", "url": "https://www.kaigokensaku.mhlw.go.jp/19/index.php?action_kouhyou_detail_004_kani=true&JigyosyoCd=1910103652-00&ServiceCd=140&Type=search", "url2": "http://tsuyuki-ent.com" }, "geometry": { "type": "Point", "coordinates": [ 138.57146130000001, 35.6574998 ] } },
{ "type": "Feature", "properties": { "内容": "樂天堂訪問リハ【訪問リハビリテーション】山梨県富士吉田市上吉田2-5-1富士急ターミナルビル5階", "url": "https://www.kaigokensaku.mhlw.go.jp/19/index.php?action_kouhyou_detail_004_kani=true&JigyosyoCd=1911211082-00&ServiceCd=140&Type=search", "url2": "http://www.rakutendo.jp/" }, "geometry": { "type": "Point", "coordinates": [ 138.795144099999987, 35.4837144 ] } },
{ "type": "Feature", "properties": { "内容": "ツル虎ノ門整形外科・リハビリテーション病院　訪問リハビリテーション【訪問リハビリテーション】山梨県都留市四日市場瀬中188", "url": "https://www.kaigokensaku.mhlw.go.jp/19/index.php?action_kouhyou_detail_004_kani=true&JigyosyoCd=1911110474-00&ServiceCd=140&Type=search", "url2": "https://www.toranomon.or.jp/turu/" }, "geometry": { "type": "Point", "coordinates": [ 138.9177641, 35.5675086 ] } },
{ "type": "Feature", "properties": { "内容": "山梨市立牧丘病院【訪問リハビリテーション】山梨県山梨市牧丘町窪平302-2", "url": "https://www.kaigokensaku.mhlw.go.jp/19/index.php?action_kouhyou_detail_004_kani=true&JigyosyoCd=1910210572-00&ServiceCd=140&Type=search", "url2": "http://makioka.y-min.or.jp/" }, "geometry": { "type": "Point", "coordinates": [ 138.71510330000001, 35.7403793 ] } },
{ "type": "Feature", "properties": { "内容": "通所リハビリテーションいぶき(訪問）【訪問リハビリテーション】山梨県山梨市七日市場８０５－１番地", "url": "https://www.kaigokensaku.mhlw.go.jp/19/index.php?action_kouhyou_detail_004_kani=true&JigyosyoCd=1910210408-00&ServiceCd=140&Type=search", "url2": "https://yamanasikitaseikei.com" }, "geometry": { "type": "Point", "coordinates": [ 138.698074600000012, 35.7002391 ] } },
{ "type": "Feature", "properties": { "内容": "もちづき整形外科訪問リハビリテーション【訪問リハビリテーション】山梨県南アルプス市在家塚68-1", "url": "https://www.kaigokensaku.mhlw.go.jp/19/index.php?action_kouhyou_detail_004_kani=true&JigyosyoCd=1911600557-00&ServiceCd=140&Type=search", "url2": "https://www.mochizuki-seikei.com" }, "geometry": { "type": "Point", "coordinates": [ 138.4670298, 35.6317765 ] } },
{ "type": "Feature", "properties": { "内容": "峡西老人保健センター【訪問リハビリテーション】山梨県南アルプス市下宮地４２１", "url": "https://www.kaigokensaku.mhlw.go.jp/19/index.php?action_kouhyou_detail_004_kani=true&JigyosyoCd=1950880011-00&ServiceCd=140&Type=search", "url2": "https://www.nan-zan.or.jp/roken/" }, "geometry": { "type": "Point", "coordinates": [ 138.463344, 35.603939 ] } },
{ "type": "Feature", "properties": { "内容": "巨摩共立病院【訪問リハビリテーション】桃園340", "url": "https://www.kaigokensaku.mhlw.go.jp/19/index.php?action_kouhyou_detail_004_kani=true&JigyosyoCd=1971600646-00&ServiceCd=140&Type=search", "url2": "http://www.yamanashi-min.jp/koma-kyoritsu/" }, "geometry": { "type": "Point", "coordinates": [ 121.296967399999957, 24.9934099 ] } },
{ "type": "Feature", "properties": { "内容": "医療法人　燦生会　訪問ﾘﾊﾋﾞﾘﾃｰｼｮﾝ　ﾌﾙﾘｰﾙむかわ【訪問リハビリテーション】山梨県北杜市武川町柳沢740‐1", "url": "https://www.kaigokensaku.mhlw.go.jp/19/index.php?action_kouhyou_detail_004_kani=true&JigyosyoCd=1951080025-00&ServiceCd=140&Type=search", "url2": "https://fluriru.com/" }, "geometry": { "type": "Point", "coordinates": [ 138.3515344, 35.7868083 ] } },
{ "type": "Feature", "properties": { "内容": "峡北シルバーケアホーム【訪問リハビリテーション】山梨県北杜市長坂町渋沢907", "url": "https://www.kaigokensaku.mhlw.go.jp/19/index.php?action_kouhyou_detail_004_kani=true&JigyosyoCd=1951080009-00&ServiceCd=140&Type=search", "url2": "https://kyohoku-silver-care-home.yamanashi.jp/" }, "geometry": { "type": "Point", "coordinates": [ 138.387138099999987, 35.8128998 ] } },
{ "type": "Feature", "properties": { "内容": "北杜市国保辺見診療所【訪問リハビリテーション】山梨県北杜市明野町上手1-12", "url": "https://www.kaigokensaku.mhlw.go.jp/19/index.php?action_kouhyou_detail_004_kani=true&JigyosyoCd=1911910188-00&ServiceCd=140&Type=search", "url2": "https://www.city.hokuto.yamanashi.jp/docs/1203.html" }, "geometry": { "type": "Point", "coordinates": [ 138.4357535, 35.7527205 ] } },
{ "type": "Feature", "properties": { "内容": "恵信リハビリテーション病院　訪問リハビリテーション事業所【訪問リハビリテーション】山梨県甲斐市岩森1111", "url": "https://www.kaigokensaku.mhlw.go.jp/19/index.php?action_kouhyou_detail_004_kani=true&JigyosyoCd=1911710562-00&ServiceCd=140&Type=search", "url2": "http://www.keishin-group.net/rihoku/" }, "geometry": { "type": "Point", "coordinates": [ 138.49430183558195, 35.692595551427075 ] } },
{ "type": "Feature", "properties": { "内容": "赤坂台訪問リハビリテーション事業所【訪問リハビリテーション】山梨県　甲斐市　竜王新町　2150", "url": "https://www.kaigokensaku.mhlw.go.jp/19/index.php?action_kouhyou_detail_004_kani=true&JigyosyoCd=1911710117-00&ServiceCd=140&Type=search", "url2": "http://akasakadai.com/" }, "geometry": { "type": "Point", "coordinates": [ 138.5075996, 35.6784268 ] } },
{ "type": "Feature", "properties": { "内容": "甲斐リハビリテーションクリニック訪問リハビリテーションにじ【訪問リハビリテーション】山梨県甲斐市西八幡3990", "url": "https://www.kaigokensaku.mhlw.go.jp/19/index.php?action_kouhyou_detail_004_kani=true&JigyosyoCd=1911710778-00&ServiceCd=140&Type=search", "url2": "http://kai-reha.jp" }, "geometry": { "type": "Point", "coordinates": [ 138.516960368122881, 35.637312519714648 ] } },
{ "type": "Feature", "properties": { "内容": "医療法人　仁和会　竜王リハビリテーション病院　訪問リハビリテーション事業所【訪問リハビリテーション】山梨県甲斐市万才287", "url": "https://www.kaigokensaku.mhlw.go.jp/19/index.php?action_kouhyou_detail_004_kani=true&JigyosyoCd=1911710133-00&ServiceCd=140&Type=search", "url2": "http://www.ryuo-rhp.or.jp/" }, "geometry": { "type": "Point", "coordinates": [ 138.530315200000018, 35.6502843 ] } },
{ "type": "Feature", "properties": { "内容": "石和温泉病院指定訪問リハビリテーション事業所【訪問リハビリテーション】山梨県笛吹市石和町八田330‐5", "url": "https://www.kaigokensaku.mhlw.go.jp/19/index.php?action_kouhyou_detail_004_kani=true&JigyosyoCd=1911810016-00&ServiceCd=140&Type=search", "url2": "https://isawa-hsp.or.jp/" }, "geometry": { "type": "Point", "coordinates": [ 138.641023499999989, 35.6558742 ] } },
{ "type": "Feature", "properties": { "内容": "いちのみやケアセンター指定訪問リハビリテーション【訪問リハビリテーション】山梨県笛吹市一宮町竹原田1255-1", "url": "https://www.kaigokensaku.mhlw.go.jp/19/index.php?action_kouhyou_detail_004_kani=true&JigyosyoCd=1950580017-00&ServiceCd=140&Type=search", "url2": "https://fuyo-kai.or.jp/" }, "geometry": { "type": "Point", "coordinates": [ 138.6725352, 35.6476034 ] } },
{ "type": "Feature", "properties": { "内容": "甲州リハビリテーション病院　甲州訪問リハビリテーション【訪問リハビリテーション】山梨県笛吹市石和町四日市場2031", "url": "https://www.kaigokensaku.mhlw.go.jp/19/index.php?action_kouhyou_detail_004_kani=true&JigyosyoCd=1971800410-00&ServiceCd=140&Type=search", "url2": "https://www.krg.ne.jp/care/" }, "geometry": { "type": "Point", "coordinates": [ 138.6252819, 35.6457142 ] } },
{ "type": "Feature", "properties": { "内容": "リハケアセンターきらり【訪問リハビリテーション】山梨県笛吹市春日居町小松855", "url": "https://www.kaigokensaku.mhlw.go.jp/19/index.php?action_kouhyou_detail_004_kani=true&JigyosyoCd=1971800345-00&ServiceCd=140&Type=search", "url2": "https://yamanashireha.jp/reha-care" }, "geometry": { "type": "Point", "coordinates": [ 138.6574129, 35.6604779 ] } },
{ "type": "Feature", "properties": { "内容": "石和共立病院　訪問リハビリテーション【訪問リハビリテーション】石和町広瀬623", "url": "https://www.kaigokensaku.mhlw.go.jp/19/index.php?action_kouhyou_detail_004_kani=true&JigyosyoCd=1911810024-00&ServiceCd=140&Type=search", "url2": "http://www.yamanashi-min.jp/isawa/" }, "geometry": { "type": "Point", "coordinates": [ 138.614632259007635, 35.642284264764633 ] } },
{ "type": "Feature", "properties": { "内容": "医療法人社団協友会　笛吹中央病院訪問リハビリテーション事業所【訪問リハビリテーション】山梨県笛吹市石和町四日市場47-1", "url": "https://www.kaigokensaku.mhlw.go.jp/19/index.php?action_kouhyou_detail_004_kani=true&JigyosyoCd=1911810362-00&ServiceCd=140&Type=search", "url2": "http://fch.or.jp" }, "geometry": { "type": "Point", "coordinates": [ 138.6352071, 35.6411737 ] } },
{ "type": "Feature", "properties": { "内容": "一宮温泉病院訪問リハビリテーション事業所【訪問リハビリテーション】一宮町坪井1745", "url": "https://www.kaigokensaku.mhlw.go.jp/19/index.php?action_kouhyou_detail_004_kani=true&JigyosyoCd=1911810065-00&ServiceCd=140&Type=search", "url2": "http://1nomiya/or.jp" }, "geometry": { "type": "Point", "coordinates": [ 138.6627068, 35.6536218 ] } },
{ "type": "Feature", "properties": { "内容": "笛吹中央病院附属おひさま在宅クリニック訪問リハビリテーション【訪問リハビリテーション】山梨県笛吹市石和町四日市場2205－4笛吹中央病院附属おひさま在宅クリニック", "url": "https://www.kaigokensaku.mhlw.go.jp/19/index.php?action_kouhyou_detail_004_kani=true&JigyosyoCd=1911810578-00&ServiceCd=140&Type=search", "url2": "https://www.ohisama-zaitakushien.jp/" }, "geometry": { "type": "Point", "coordinates": [ 138.6360846, 35.642139 ] } },
{ "type": "Feature", "properties": { "内容": "上條内科クリニック訪問リハビリテーション【訪問リハビリテーション】山梨県上野原市大野1284", "url": "https://www.kaigokensaku.mhlw.go.jp/19/index.php?action_kouhyou_detail_004_kani=true&JigyosyoCd=1912000211-00&ServiceCd=140&Type=search", "url2": "https://dcco.jp›clinic" }, "geometry": { "type": "Point", "coordinates": [ 139.058482199999986, 35.6211439 ] } },
{ "type": "Feature", "properties": { "内容": "勝沼ナーシングセンター　訪問リハビリテーション【訪問リハビリテーション】山梨県甲州市勝沼町菱山４３００", "url": "https://www.kaigokensaku.mhlw.go.jp/19/index.php?action_kouhyou_detail_004_kani=true&JigyosyoCd=1950480010-00&ServiceCd=140&Type=search", "url2": "http://www.katsunuma-nursing.com/index.html" }, "geometry": { "type": "Point", "coordinates": [ 138.738782464417994, 35.667031058156297 ] } },
{ "type": "Feature", "properties": { "内容": "玉穂ケアセンター訪問リハビリテーション事業所【訪問リハビリテーション】山梨県中央市乙黒247-1", "url": "https://www.kaigokensaku.mhlw.go.jp/19/index.php?action_kouhyou_detail_004_kani=true&JigyosyoCd=1970800908-00&ServiceCd=140&Type=search", "url2": null }, "geometry": { "type": "Point", "coordinates": [ 138.552884, 35.5970085 ] } },
{ "type": "Feature", "properties": { "内容": "玉穂訪問リハビリテーション【訪問リハビリテーション】山梨県中央市成島2439-1", "url": "https://www.kaigokensaku.mhlw.go.jp/19/index.php?action_kouhyou_detail_004_kani=true&JigyosyoCd=1912310156-00&ServiceCd=140&Type=search", "url2": null }, "geometry": { "type": "Point", "coordinates": [ 138.5447122, 35.5998083 ] } },
{ "type": "Feature", "properties": { "内容": "峡南医療センター企業団　市川三郷診療所【訪問リハビリテーション】山梨県西八代郡市川三郷町市川大門428-1", "url": "https://www.kaigokensaku.mhlw.go.jp/19/index.php?action_kouhyou_detail_004_kani=true&JigyosyoCd=1910610649-00&ServiceCd=140&Type=search", "url2": "https://www.kyonan-mc.jp/" }, "geometry": { "type": "Point", "coordinates": [ 138.4917686, 35.5600855 ] } },
{ "type": "Feature", "properties": { "内容": "医療法人財団交道会　指定訪問リハビリテーションしもべ【訪問リハビリテーション】山梨県南巨摩郡身延町下部1063", "url": "https://www.kaigokensaku.mhlw.go.jp/19/index.php?action_kouhyou_detail_004_kani=true&JigyosyoCd=1970700785-00&ServiceCd=140&Type=search", "url2": "http//www.shimobe-hp.or.jp" }, "geometry": { "type": "Point", "coordinates": [ 138.4771144, 35.424409105247115 ] } },
{ "type": "Feature", "properties": { "内容": "峡南病院訪問リハビリテーション【訪問リハビリテーション】山梨県南巨摩郡富士川町鰍沢1544-1", "url": "https://www.kaigokensaku.mhlw.go.jp/19/index.php?action_kouhyou_detail_004_kani=true&JigyosyoCd=1910710316-00&ServiceCd=140&Type=search", "url2": null }, "geometry": { "type": "Point", "coordinates": [ 138.4588446, 35.5438538 ] } },
{ "type": "Feature", "properties": { "内容": "ノイエス【訪問リハビリテーション】山梨県中巨摩郡昭和町河東中島443", "url": "https://www.kaigokensaku.mhlw.go.jp/19/index.php?action_kouhyou_detail_004_kani=true&JigyosyoCd=1950880037-00&ServiceCd=140&Type=search", "url2": "https://ri-shikai.or.jp" }, "geometry": { "type": "Point", "coordinates": [ 138.5355591, 35.6213462 ] } },
{ "type": "Feature", "properties": { "内容": "介護老人保健施設ひばり苑　訪問リハビリテーション【訪問リハビリテーション】山梨県中巨摩郡昭和町飯喰1277", "url": "https://www.kaigokensaku.mhlw.go.jp/19/index.php?action_kouhyou_detail_004_kani=true&JigyosyoCd=1950880029-00&ServiceCd=140&Type=search", "url2": "http://care-net.biz/19/hibari-en/" }, "geometry": { "type": "Point", "coordinates": [ 138.5197991, 35.6221871 ] } },
{ "type": "Feature", "properties": { "内容": "健康科学大学クリニック【訪問リハビリテーション】山梨県南都留郡富士河口湖町小立2487", "url": "https://www.kaigokensaku.mhlw.go.jp/19/index.php?action_kouhyou_detail_004_kani=true&JigyosyoCd=1911310769-00&ServiceCd=140&Type=search", "url2": "https://www.kenkoudai-clinic.com/" }, "geometry": { "type": "Point", "coordinates": [ 138.7536577, 35.5040146 ] } },
{ "type": "Feature", "properties": { "内容": "介護老人保健施設　はまなす【訪問リハビリテーション】山梨県南都留郡富士河口湖町船津字桜休場６９０１", "url": "https://www.kaigokensaku.mhlw.go.jp/19/index.php?action_kouhyou_detail_004_kani=true&JigyosyoCd=1951380003-00&ServiceCd=140&Type=search", "url2": null }, "geometry": { "type": "Point", "coordinates": [ 138.7542899, 35.4611677 ] } }
]
}
