{
"type": "FeatureCollection",
"name": "geo_19_特定福祉用具販売",
"crs": { "type": "name", "properties": { "name": "urn:ogc:def:crs:OGC:1.3:CRS84" } },
"features": [
{ "type": "Feature", "properties": { "内容": "ケアサポート望月【特定福祉用具販売】山梨県甲府市美咲2丁目16-17", "url": "https://www.kaigokensaku.mhlw.go.jp/19/index.php?action_kouhyou_detail_004_kani=true&JigyosyoCd=1970100242-00&ServiceCd=410&Type=search", "url2": "www.s-mochizuki.co.jp" }, "geometry": { "type": "Point", "coordinates": [ 138.5653261, 35.6778583 ] } },
{ "type": "Feature", "properties": { "内容": "甲府レンタルケアサービス【特定福祉用具販売】山梨県甲府市住吉5-22-14", "url": "https://www.kaigokensaku.mhlw.go.jp/19/index.php?action_kouhyou_detail_004_kani=true&JigyosyoCd=1970101307-00&ServiceCd=410&Type=search", "url2": null }, "geometry": { "type": "Point", "coordinates": [ 138.576788399999941, 35.634442 ] } },
{ "type": "Feature", "properties": { "内容": "株式会社T・H・G【特定福祉用具販売】山梨県甲府市中央２－１２－６サンセゾンみな与", "url": "https://www.kaigokensaku.mhlw.go.jp/19/index.php?action_kouhyou_detail_004_kani=true&JigyosyoCd=1970104459-00&ServiceCd=410&Type=search", "url2": "http://www.thg-inc.co.jp" }, "geometry": { "type": "Point", "coordinates": [ 138.574345499999907, 35.6610386 ] } },
{ "type": "Feature", "properties": { "内容": "株式会社　山梨福祉設備センター【特定福祉用具販売】山梨県甲府市小瀬329-4", "url": "https://www.kaigokensaku.mhlw.go.jp/19/index.php?action_kouhyou_detail_004_kani=true&JigyosyoCd=1970100507-00&ServiceCd=410&Type=search", "url2": null }, "geometry": { "type": "Point", "coordinates": [ 138.579185700000039, 35.6273986 ] } },
{ "type": "Feature", "properties": { "内容": "アーク福祉用具貸与事業所【特定福祉用具販売】山梨県甲府市向町259-1アーク総合福祉プラザ", "url": "https://www.kaigokensaku.mhlw.go.jp/19/index.php?action_kouhyou_detail_004_kani=true&JigyosyoCd=1970104863-00&ServiceCd=410&Type=search", "url2": "http://www.arc-m.co.jp/" }, "geometry": { "type": "Point", "coordinates": [ 138.615040099999987, 35.6475129 ] } },
{ "type": "Feature", "properties": { "内容": "アルファケア南甲府介護施設【特定福祉用具販売】山梨県甲府市南口町2番7号", "url": "https://www.kaigokensaku.mhlw.go.jp/19/index.php?action_kouhyou_detail_004_kani=true&JigyosyoCd=1970101133-00&ServiceCd=410&Type=search", "url2": "https://www.alphacare.joto-group.com/index.html" }, "geometry": { "type": "Point", "coordinates": [ 138.579977, 35.6467658 ] } },
{ "type": "Feature", "properties": { "内容": "つむぎコンフォート【特定福祉用具販売】山梨県甲府市蓬沢1丁目12番25号", "url": "https://www.kaigokensaku.mhlw.go.jp/19/index.php?action_kouhyou_detail_004_kani=true&JigyosyoCd=1970105910-00&ServiceCd=410&Type=search", "url2": null }, "geometry": { "type": "Point", "coordinates": [ 138.590544099999988, 35.6432409 ] } },
{ "type": "Feature", "properties": { "内容": "ふうが介護ショップ【特定福祉用具販売】山梨県甲府市上今井町681-12", "url": "https://www.kaigokensaku.mhlw.go.jp/19/index.php?action_kouhyou_detail_004_kani=true&JigyosyoCd=1970104954-00&ServiceCd=410&Type=search", "url2": "http://www.fugaku.net" }, "geometry": { "type": "Point", "coordinates": [ 138.570794799999931, 35.6256431 ] } },
{ "type": "Feature", "properties": { "内容": "今井整形福祉用具貸与事業所【特定福祉用具販売】山梨県甲府市上阿原町1151番地", "url": "https://www.kaigokensaku.mhlw.go.jp/19/index.php?action_kouhyou_detail_004_kani=true&JigyosyoCd=1970105787-00&ServiceCd=410&Type=search", "url2": null }, "geometry": { "type": "Point", "coordinates": [ 138.602986499999986, 35.6438823 ] } },
{ "type": "Feature", "properties": { "内容": "ダスキンヘルスレント甲府ステーション【特定福祉用具販売】山梨県甲府市住吉3-26-20", "url": "https://www.kaigokensaku.mhlw.go.jp/19/index.php?action_kouhyou_detail_004_kani=true&JigyosyoCd=1970105316-00&ServiceCd=410&Type=search", "url2": "https://healthrent.duskin.jp/station/yamanashi/kofu.html" }, "geometry": { "type": "Point", "coordinates": [ 138.584295601852403, 35.641319727317637 ] } },
{ "type": "Feature", "properties": { "内容": "株式会社フロンティア山梨営業所【特定福祉用具販売】山梨県甲府市住吉4-3-38", "url": "https://www.kaigokensaku.mhlw.go.jp/19/index.php?action_kouhyou_detail_004_kani=true&JigyosyoCd=1970103691-00&ServiceCd=410&Type=search", "url2": "http://www.frontier-ph.com/homecare/" }, "geometry": { "type": "Point", "coordinates": [ 138.584039100000012, 35.6385825 ] } },
{ "type": "Feature", "properties": { "内容": "株式会社ヤマシタ山梨営業所【特定福祉用具販売】山梨県甲府市和戸町1018-1", "url": "https://www.kaigokensaku.mhlw.go.jp/19/index.php?action_kouhyou_detail_004_kani=true&JigyosyoCd=1970100291-00&ServiceCd=410&Type=search", "url2": "http://www.yco.co.jp" }, "geometry": { "type": "Point", "coordinates": [ 138.616084423384933, 35.653784033358363 ] } },
{ "type": "Feature", "properties": { "内容": "有限会社グットケアー特定福祉用具販売事業所【特定福祉用具販売】山梨県甲府市住吉5-21-1", "url": "https://www.kaigokensaku.mhlw.go.jp/19/index.php?action_kouhyou_detail_004_kani=true&JigyosyoCd=1970100960-00&ServiceCd=410&Type=search", "url2": "http://www.goodcare-kaigo.com/" }, "geometry": { "type": "Point", "coordinates": [ 138.576358833525461, 35.634187239304126 ] } },
{ "type": "Feature", "properties": { "内容": "フロンティア福祉用具サービス【特定福祉用具販売】山梨県甲府市徳行3丁目7-20橘ビル201", "url": "https://www.kaigokensaku.mhlw.go.jp/19/index.php?action_kouhyou_detail_004_kani=true&JigyosyoCd=1970105563-00&ServiceCd=410&Type=search", "url2": null }, "geometry": { "type": "Point", "coordinates": [ 138.541665378880026, 35.649424506859638 ] } },
{ "type": "Feature", "properties": { "内容": "富士新幸株式会社福祉介護事業部【特定福祉用具販売】山梨県都留市つる５－３－５", "url": "https://www.kaigokensaku.mhlw.go.jp/19/index.php?action_kouhyou_detail_004_kani=true&JigyosyoCd=1971100092-00&ServiceCd=410&Type=search", "url2": null }, "geometry": { "type": "Point", "coordinates": [ 138.904017, 35.5622566 ] } },
{ "type": "Feature", "properties": { "内容": "Nutsケアサービス【特定福祉用具販売】山梨県都留市夏狩1719-201", "url": "https://www.kaigokensaku.mhlw.go.jp/19/index.php?action_kouhyou_detail_004_kani=true&JigyosyoCd=1971100498-00&ServiceCd=410&Type=search", "url2": null }, "geometry": { "type": "Point", "coordinates": [ 138.880331500000011, 35.5391093 ] } },
{ "type": "Feature", "properties": { "内容": "クローバーケアサービスつる【特定福祉用具販売】山梨県都留市下谷2441-1", "url": "https://www.kaigokensaku.mhlw.go.jp/19/index.php?action_kouhyou_detail_004_kani=true&JigyosyoCd=1971100431-00&ServiceCd=410&Type=search", "url2": "https://clovercare.co.jp/" }, "geometry": { "type": "Point", "coordinates": [ 138.9202238, 35.5604169 ] } },
{ "type": "Feature", "properties": { "内容": "特定福祉用具販売事業所　この指とまれ【特定福祉用具販売】山梨県山梨市上栗原733-2", "url": "https://www.kaigokensaku.mhlw.go.jp/19/index.php?action_kouhyou_detail_004_kani=true&JigyosyoCd=1970200802-00&ServiceCd=410&Type=search", "url2": null }, "geometry": { "type": "Point", "coordinates": [ 138.7074771, 35.6641546 ] } },
{ "type": "Feature", "properties": { "内容": "ウイールチェアー中部株式会社【特定福祉用具販売】山梨県韮崎市藤井町北下條１１４０－１１", "url": "https://www.kaigokensaku.mhlw.go.jp/19/index.php?action_kouhyou_detail_004_kani=true&JigyosyoCd=1970900252-00&ServiceCd=410&Type=search", "url2": null }, "geometry": { "type": "Point", "coordinates": [ 138.4522869, 35.7222398 ] } },
{ "type": "Feature", "properties": { "内容": "有限会社シルバーショップたんぽぽ【特定福祉用具販売】山梨県南アルプス市六科1298-8", "url": "https://www.kaigokensaku.mhlw.go.jp/19/index.php?action_kouhyou_detail_004_kani=true&JigyosyoCd=1971600299-00&ServiceCd=410&Type=search", "url2": null }, "geometry": { "type": "Point", "coordinates": [ 138.462423700000045, 35.6647977 ] } },
{ "type": "Feature", "properties": { "内容": "高原会福祉用具相談室【特定福祉用具販売】山梨県南アルプス市小笠原３０７－５", "url": "https://www.kaigokensaku.mhlw.go.jp/19/index.php?action_kouhyou_detail_004_kani=true&JigyosyoCd=1971601149-00&ServiceCd=410&Type=search", "url2": "http://www.takahara-hp.or.jp/" }, "geometry": { "type": "Point", "coordinates": [ 138.466671708073363, 35.60742217015116 ] } },
{ "type": "Feature", "properties": { "内容": "福祉用具貸与・販売　フルリールサポート【特定福祉用具販売】山梨県北杜市武川町柳澤719", "url": "https://www.kaigokensaku.mhlw.go.jp/19/index.php?action_kouhyou_detail_004_kani=true&JigyosyoCd=1971900590-00&ServiceCd=410&Type=search", "url2": null }, "geometry": { "type": "Point", "coordinates": [ 138.3509417, 35.787117 ] } },
{ "type": "Feature", "properties": { "内容": "TOTOリモデルクラブ甲斐中央リフォーム社【特定福祉用具販売】山梨県甲斐市玉川３２－１　K&Mビル２F", "url": "https://www.kaigokensaku.mhlw.go.jp/19/index.php?action_kouhyou_detail_004_kani=true&JigyosyoCd=1971700222-00&ServiceCd=410&Type=search", "url2": "http://www.shi-kcr.jp/" }, "geometry": { "type": "Point", "coordinates": [ 138.518746299999975, 35.6390877 ] } },
{ "type": "Feature", "properties": { "内容": "スマイルケアライフ【特定福祉用具販売】山梨県甲斐市富竹新田470-7", "url": "https://www.kaigokensaku.mhlw.go.jp/19/index.php?action_kouhyou_detail_004_kani=true&JigyosyoCd=1971700438-00&ServiceCd=410&Type=search", "url2": "http://www.smile1.co.jp/care/" }, "geometry": { "type": "Point", "coordinates": [ 138.533385800000019, 35.6586462 ] } },
{ "type": "Feature", "properties": { "内容": "株式会社介護センター花岡甲府店【特定福祉用具販売】西八幡3800-1", "url": "https://www.kaigokensaku.mhlw.go.jp/19/index.php?action_kouhyou_detail_004_kani=true&JigyosyoCd=1971700370-00&ServiceCd=410&Type=search", "url2": "http://www.kaigo-hanaoka.com/" }, "geometry": { "type": "Point", "coordinates": [ 138.5170415, 35.6380341 ] } },
{ "type": "Feature", "properties": { "内容": "やさしい手　福祉用具センター【特定福祉用具販売】甲斐市篠原２１７３－６", "url": "https://www.kaigokensaku.mhlw.go.jp/19/index.php?action_kouhyou_detail_004_kani=true&JigyosyoCd=1971700214-00&ServiceCd=410&Type=search", "url2": null }, "geometry": { "type": "Point", "coordinates": [ 138.515790599999946, 35.6553548 ] } },
{ "type": "Feature", "properties": { "内容": "絆　福祉用具サービス【特定福祉用具販売】山梨県笛吹市八代町竹居1235-1", "url": "https://www.kaigokensaku.mhlw.go.jp/19/index.php?action_kouhyou_detail_004_kani=true&JigyosyoCd=1971801582-00&ServiceCd=410&Type=search", "url2": "http://kizuna.social" }, "geometry": { "type": "Point", "coordinates": [ 138.6591953, 35.6035263 ] } },
{ "type": "Feature", "properties": { "内容": "株式会社ナック　ダスキンヘルスレント笛吹ステーション【特定福祉用具販売】山梨県笛吹市一宮町中尾694-1", "url": "https://www.kaigokensaku.mhlw.go.jp/19/index.php?action_kouhyou_detail_004_kani=true&JigyosyoCd=1971801368-00&ServiceCd=410&Type=search", "url2": "https://healthrent.duskin.jp/station/yamanashi/fuefuki.html" }, "geometry": { "type": "Point", "coordinates": [ 138.700666935581978, 35.658036986481875 ] } },
{ "type": "Feature", "properties": { "内容": "あい和ケアサービス【特定福祉用具販売】山梨県上野原市上野原682-3", "url": "https://www.kaigokensaku.mhlw.go.jp/19/index.php?action_kouhyou_detail_004_kani=true&JigyosyoCd=1972000390-00&ServiceCd=410&Type=search", "url2": null }, "geometry": { "type": "Point", "coordinates": [ 139.123208863781741, 35.62124858552238 ] } },
{ "type": "Feature", "properties": { "内容": "万年屋【特定福祉用具販売】山梨県上野原市上野原3237", "url": "https://www.kaigokensaku.mhlw.go.jp/19/index.php?action_kouhyou_detail_004_kani=true&JigyosyoCd=1972000416-00&ServiceCd=410&Type=search", "url2": "https://www.longlife.co.jp/" }, "geometry": { "type": "Point", "coordinates": [ 139.1143712, 35.6274727 ] } },
{ "type": "Feature", "properties": { "内容": "有限会社幸英介護支援サービス【特定福祉用具販売】甲州市塩山上於曽1085-1　甲州市役所地下", "url": "https://www.kaigokensaku.mhlw.go.jp/19/index.php?action_kouhyou_detail_004_kani=true&JigyosyoCd=1970300081-00&ServiceCd=410&Type=search", "url2": null }, "geometry": { "type": "Point", "coordinates": [ 138.7294264, 35.7042891 ] } },
{ "type": "Feature", "properties": { "内容": "株式会社　サンカイゴ　中央店【特定福祉用具販売】山梨県中央市中楯91-1", "url": "https://www.kaigokensaku.mhlw.go.jp/19/index.php?action_kouhyou_detail_004_kani=true&JigyosyoCd=1940810391-00&ServiceCd=410&Type=search", "url2": null }, "geometry": { "type": "Point", "coordinates": [ 138.5528531, 35.610287 ] } },
{ "type": "Feature", "properties": { "内容": "株式会社　さい【特定福祉用具販売】南巨摩郡切石４２１－１", "url": "https://www.kaigokensaku.mhlw.go.jp/19/index.php?action_kouhyou_detail_004_kani=true&JigyosyoCd=1970701163-00&ServiceCd=410&Type=search", "url2": null }, "geometry": { "type": "Point", "coordinates": [ 138.441901799999982, 35.467647 ] } },
{ "type": "Feature", "properties": { "内容": "介護ショップマーガレット【特定福祉用具販売】山梨県南巨摩郡南部町南部8207-3", "url": "https://www.kaigokensaku.mhlw.go.jp/19/index.php?action_kouhyou_detail_004_kani=true&JigyosyoCd=1970700447-00&ServiceCd=410&Type=search", "url2": "http://care-net.biz/19/ma-galet" }, "geometry": { "type": "Point", "coordinates": [ 138.454507299999932, 35.2904805 ] } },
{ "type": "Feature", "properties": { "内容": "クローバー【特定福祉用具販売】山梨県中巨摩郡昭和町西条984-1", "url": "https://www.kaigokensaku.mhlw.go.jp/19/index.php?action_kouhyou_detail_004_kani=true&JigyosyoCd=1970801245-00&ServiceCd=410&Type=search", "url2": null }, "geometry": { "type": "Point", "coordinates": [ 138.545159500000011, 35.6305293 ] } },
{ "type": "Feature", "properties": { "内容": "有限会社エフ・ラインワタトウ【特定福祉用具販売】山梨県南都留郡富士河口湖町船津3100-5", "url": "https://www.kaigokensaku.mhlw.go.jp/19/index.php?action_kouhyou_detail_004_kani=true&JigyosyoCd=1971300205-00&ServiceCd=410&Type=search", "url2": null }, "geometry": { "type": "Point", "coordinates": [ 138.764474699999937, 35.4962502 ] } },
{ "type": "Feature", "properties": { "内容": "ケアショップ　まるやま【特定福祉用具販売】山梨県南都留郡富士河口湖町勝山1223-5", "url": "https://www.kaigokensaku.mhlw.go.jp/19/index.php?action_kouhyou_detail_004_kani=true&JigyosyoCd=1971300551-00&ServiceCd=410&Type=search", "url2": null }, "geometry": { "type": "Point", "coordinates": [ 138.744981700000039, 35.5063626 ] } },
{ "type": "Feature", "properties": { "内容": "富士観光開発(株)　生活設備部　福祉用具課【特定福祉用具販売】山梨県　南都留郡　富士河口湖町　船津　3172", "url": "https://www.kaigokensaku.mhlw.go.jp/19/index.php?action_kouhyou_detail_004_kani=true&JigyosyoCd=1971300114-00&ServiceCd=410&Type=search", "url2": "https://www.fujikanko.co.jp/" }, "geometry": { "type": "Point", "coordinates": [ 138.7678388, 35.4939645 ] } }
]
}
