{
"type": "FeatureCollection",
"name": "geo_19_大学",
"crs": { "type": "name", "properties": { "name": "urn:ogc:def:crs:EPSG::6668" } },
"features": [
{ "type": "Feature", "properties": { "P29_001": "19201", "P29_002": "F119110105676", "P29_003": "16007", "P29_004": "山梨大学", "P29_005": "山梨県甲府市武田4-4-37", "P29_006": "1", "P29_007": "0", "P29_008": "01", "P29_009": "甲府キャンパス" }, "geometry": { "type": "Point", "coordinates": [ 138.572888488963912, 35.678463581149003 ] } },
{ "type": "Feature", "properties": { "P29_001": "19204", "P29_002": "F119210105683", "P29_003": "16007", "P29_004": "都留文科大学", "P29_005": "山梨県都留市田原3-8-1", "P29_006": "3", "P29_007": "0", "P29_008": "00", "P29_009": null }, "geometry": { "type": "Point", "coordinates": [ 138.896871543105846, 35.538368753831712 ] } },
{ "type": "Feature", "properties": { "P29_001": "19201", "P29_002": "F119210105692", "P29_003": "16007", "P29_004": "山梨県立大学", "P29_005": "山梨県甲府市飯田5-11-1", "P29_006": "2", "P29_007": "0", "P29_008": "01", "P29_009": "飯田キャンパス" }, "geometry": { "type": "Point", "coordinates": [ 138.556021094725764, 35.663733259079358 ] } },
{ "type": "Feature", "properties": { "P29_001": "19201", "P29_002": "F119310105707", "P29_003": "16007", "P29_004": "山梨学院大学", "P29_005": "山梨県甲府市酒折2-4-5", "P29_006": "4", "P29_007": "0", "P29_008": "00", "P29_009": null }, "geometry": { "type": "Point", "coordinates": [ 138.600974763257994, 35.657463023609786 ] } },
{ "type": "Feature", "properties": { "P29_001": "19365", "P29_002": "F119310105716", "P29_003": "16007", "P29_004": "身延山大学", "P29_005": "山梨県南巨摩郡身延町身延3567", "P29_006": "4", "P29_007": "0", "P29_008": "00", "P29_009": null }, "geometry": { "type": "Point", "coordinates": [ 138.427608116254504, 35.381523277764529 ] } },
{ "type": "Feature", "properties": { "P29_001": "19201", "P29_002": "F119310105725", "P29_003": "16007", "P29_004": "山梨英和大学", "P29_005": "山梨県甲府市横根町888", "P29_006": "4", "P29_007": "0", "P29_008": "00", "P29_009": null }, "geometry": { "type": "Point", "coordinates": [ 138.6140333969403, 35.661578721821172 ] } },
{ "type": "Feature", "properties": { "P29_001": "19430", "P29_002": "F119310105734", "P29_003": "16007", "P29_004": "健康科学大学", "P29_005": "山梨県南都留郡富士河口湖町小立7187", "P29_006": "4", "P29_007": "0", "P29_008": "00", "P29_009": null }, "geometry": { "type": "Point", "coordinates": [ 138.743722690211911, 35.464352399297901 ] } },
{ "type": "Feature", "properties": { "P29_001": "19202", "P29_002": "F113310103073", "P29_003": "16007", "P29_004": "昭和大学", "P29_005": "山梨県富士吉田市上吉田4562", "P29_006": "4", "P29_007": "0", "P29_008": "03", "P29_009": "富士吉田キャンパス" }, "geometry": { "type": "Point", "coordinates": [ 138.776258813434396, 35.474048471460158 ] } },
{ "type": "Feature", "properties": { "P29_001": "19212", "P29_002": "F113310104170", "P29_003": "16007", "P29_004": "帝京科学大学", "P29_005": "山梨県上野原市八ッ沢2525", "P29_006": "4", "P29_007": "0", "P29_008": "02", "P29_009": "東京西キャンパス" }, "geometry": { "type": "Point", "coordinates": [ 139.097966577794153, 35.624799651298012 ] } },
{ "type": "Feature", "properties": { "P29_001": "19214", "P29_002": "F119110105676", "P29_003": "16007", "P29_004": "山梨大学", "P29_005": "山梨県中央市下河東1110", "P29_006": "1", "P29_007": "0", "P29_008": "02", "P29_009": "医学部キャンパス" }, "geometry": { "type": "Point", "coordinates": [ 138.537475074766576, 35.60936340815659 ] } },
{ "type": "Feature", "properties": { "P29_001": "19201", "P29_002": "F119210105692", "P29_003": "16007", "P29_004": "山梨県立大学", "P29_005": "山梨県甲府市池田1-6-1", "P29_006": "2", "P29_007": "0", "P29_008": "02", "P29_009": "池田キャンパス" }, "geometry": { "type": "Point", "coordinates": [ 138.545596967517383, 35.671492665383681 ] } }
]
}
