{
"type": "FeatureCollection",
"name": "geo_19_特別支援学校",
"crs": { "type": "name", "properties": { "name": "urn:ogc:def:crs:EPSG::6668" } },
"features": [
{ "type": "Feature", "properties": { "P29_001": "19201", "P29_002": "E119110000013", "P29_003": "16012", "P29_004": "山梨大学教育学部附属特別支援学校", "P29_005": "山梨県甲府市天神町17-35", "P29_006": "1", "P29_007": "0", "P29_008": "00", "P29_009": null }, "geometry": { "type": "Point", "coordinates": [ 138.570454413688282, 35.678814103699246 ] } },
{ "type": "Feature", "properties": { "P29_001": "19201", "P29_002": "E119210000011", "P29_003": "16012", "P29_004": "山梨県立盲学校", "P29_005": "山梨県甲府市下飯田2-10-2", "P29_006": "2", "P29_007": "0", "P29_008": "00", "P29_009": null }, "geometry": { "type": "Point", "coordinates": [ 138.545690127368346, 35.665041303945351 ] } },
{ "type": "Feature", "properties": { "P29_001": "19205", "P29_002": "E119210000020", "P29_003": "16012", "P29_004": "山梨県立ろう学校", "P29_005": "山梨県山梨市大野1009", "P29_006": "2", "P29_007": "0", "P29_008": "00", "P29_009": null }, "geometry": { "type": "Point", "coordinates": [ 138.674014402923547, 35.673740663715037 ] } },
{ "type": "Feature", "properties": { "P29_001": "19201", "P29_002": "E119210000039", "P29_003": "16012", "P29_004": "山梨県立甲府支援学校", "P29_005": "山梨県甲府市下飯田2-10-3", "P29_006": "2", "P29_007": "0", "P29_008": "00", "P29_009": null }, "geometry": { "type": "Point", "coordinates": [ 138.544624113542653, 35.664857793670237 ] } },
{ "type": "Feature", "properties": { "P29_001": "19201", "P29_002": "E119210000048", "P29_003": "16012", "P29_004": "山梨県立富士見支援学校", "P29_005": "山梨県甲府市富士見1-1-1", "P29_006": "2", "P29_007": "0", "P29_008": "00", "P29_009": null }, "geometry": { "type": "Point", "coordinates": [ 138.549537650355745, 35.670451460768881 ] } },
{ "type": "Feature", "properties": { "P29_001": "19207", "P29_002": "E119210000057", "P29_003": "16012", "P29_004": "山梨県立あけぼの支援学校", "P29_005": "山梨県韮崎市旭町上條南割3251-1", "P29_006": "2", "P29_007": "0", "P29_008": "00", "P29_009": null }, "geometry": { "type": "Point", "coordinates": [ 138.444307621895291, 35.668086095832273 ] } },
{ "type": "Feature", "properties": { "P29_001": "19208", "P29_002": "E119210000066", "P29_003": "16012", "P29_004": "山梨県立わかば支援学校", "P29_005": "山梨県南アルプス市有野3346-3", "P29_006": "2", "P29_007": "0", "P29_008": "00", "P29_009": null }, "geometry": { "type": "Point", "coordinates": [ 138.445701167950716, 35.664059726514409 ] } },
{ "type": "Feature", "properties": { "P29_001": "19206", "P29_002": "E119210000075", "P29_003": "16012", "P29_004": "山梨県立やまびこ支援学校", "P29_005": "山梨県大月市猿橋町桂台3-31-1", "P29_006": "2", "P29_007": "0", "P29_008": "00", "P29_009": null }, "geometry": { "type": "Point", "coordinates": [ 138.972242997327527, 35.606139000897642 ] } },
{ "type": "Feature", "properties": { "P29_001": "19430", "P29_002": "E119210000084", "P29_003": "16012", "P29_004": "山梨県立ふじざくら支援学校", "P29_005": "山梨県南都留郡富士河口湖町船津6663-1", "P29_006": "2", "P29_007": "0", "P29_008": "00", "P29_009": null }, "geometry": { "type": "Point", "coordinates": [ 138.765286175387956, 35.484096581297472 ] } },
{ "type": "Feature", "properties": { "P29_001": "19207", "P29_002": "E119210000093", "P29_003": "16012", "P29_004": "山梨県立富士見支援学校旭分校", "P29_005": "山梨県韮崎市旭町上條南割3314-13", "P29_006": "2", "P29_007": "0", "P29_008": "00", "P29_009": null }, "geometry": { "type": "Point", "coordinates": [ 138.438629413624142, 35.666274969175596 ] } },
{ "type": "Feature", "properties": { "P29_001": "19368", "P29_002": "E119210000100", "P29_003": "16012", "P29_004": "山梨県立わかば支援学校ふじかわ分校", "P29_005": "山梨県南巨摩郡富士川町鰍沢5673-12", "P29_006": "2", "P29_007": "0", "P29_008": "00", "P29_009": null }, "geometry": { "type": "Point", "coordinates": [ 138.451925933442453, 35.514376428313305 ] } },
{ "type": "Feature", "properties": { "P29_001": "19201", "P29_002": "E119210000119", "P29_003": "16012", "P29_004": "山梨県立かえで支援学校", "P29_005": "山梨県甲府市東光寺2-25-1", "P29_006": "2", "P29_007": "0", "P29_008": "00", "P29_009": null }, "geometry": { "type": "Point", "coordinates": [ 138.586217875005673, 35.664713574912021 ] } },
{ "type": "Feature", "properties": { "P29_001": "19211", "P29_002": "E119210000128", "P29_003": "16012", "P29_004": "山梨県立高等支援学校桃花台学園", "P29_005": "山梨県笛吹市石和町中川1400", "P29_006": "2", "P29_007": "0", "P29_008": "00", "P29_009": null }, "geometry": { "type": "Point", "coordinates": [ 138.668411134811919, 35.641074506695908 ] } },
{ "type": "Feature", "properties": { "P29_001": "19201", "P29_002": "E119210000137", "P29_003": "16012", "P29_004": "特別支援学校うぐいすの杜学園", "P29_005": "山梨県甲府市住吉2-1-17", "P29_006": "2", "P29_007": "0", "P29_008": "00", "P29_009": null }, "geometry": { "type": "Point", "coordinates": [ 138.569696008741346, 35.637862537358153 ] } }
]
}
