{
"type": "FeatureCollection",
"name": "geo_19_中学校",
"crs": { "type": "name", "properties": { "name": "urn:ogc:def:crs:EPSG::6668" } },
"features": [
{ "type": "Feature", "properties": { "P29_001": "19201", "P29_002": "C119110000018", "P29_003": "16002", "P29_004": "山梨大学教育学部附属中学校", "P29_005": "山梨県甲府市北新1-4-2", "P29_006": "1", "P29_007": "1", "P29_008": "00", "P29_009": null }, "geometry": { "type": "Point", "coordinates": [ 138.567891218054569, 35.679368454241349 ] } },
{ "type": "Feature", "properties": { "P29_001": "19211", "P29_002": "C119210000016", "P29_003": "16002", "P29_004": "笛吹市立春日居中学校", "P29_005": "山梨県笛吹市春日居町鎮目613-2", "P29_006": "3", "P29_007": "1", "P29_008": "00", "P29_009": null }, "geometry": { "type": "Point", "coordinates": [ 138.643328356135129, 35.66382898157525 ] } },
{ "type": "Feature", "properties": { "P29_001": "19213", "P29_002": "C119210000025", "P29_003": "16002", "P29_004": "甲州市立勝沼中学校", "P29_005": "山梨県甲州市勝沼町勝沼761-1", "P29_006": "3", "P29_007": "1", "P29_008": "00", "P29_009": null }, "geometry": { "type": "Point", "coordinates": [ 138.724668196759751, 35.665706253396962 ] } },
{ "type": "Feature", "properties": { "P29_001": "19211", "P29_002": "C119210000043", "P29_003": "16002", "P29_004": "笛吹市立石和中学校", "P29_005": "山梨県笛吹市石和町小石和716", "P29_006": "3", "P29_007": "1", "P29_008": "00", "P29_009": null }, "geometry": { "type": "Point", "coordinates": [ 138.627762206203698, 35.633916762982494 ] } },
{ "type": "Feature", "properties": { "P29_001": "19211", "P29_002": "C119210000052", "P29_003": "16002", "P29_004": "笛吹市立御坂中学校", "P29_005": "山梨県笛吹市御坂町下野原1257", "P29_006": "3", "P29_007": "1", "P29_008": "00", "P29_009": null }, "geometry": { "type": "Point", "coordinates": [ 138.669636126893096, 35.619659990751344 ] } },
{ "type": "Feature", "properties": { "P29_001": "19211", "P29_002": "C119210000061", "P29_003": "16002", "P29_004": "笛吹市立一宮中学校", "P29_005": "山梨県笛吹市一宮町末木801", "P29_006": "3", "P29_007": "1", "P29_008": "00", "P29_009": null }, "geometry": { "type": "Point", "coordinates": [ 138.69093307366046, 35.647979234671496 ] } },
{ "type": "Feature", "properties": { "P29_001": "19201", "P29_002": "C119210000070", "P29_003": "16002", "P29_004": "甲府市立笛南中学校", "P29_005": "山梨県甲府市下曽根町270", "P29_006": "3", "P29_007": "1", "P29_008": "00", "P29_009": null }, "geometry": { "type": "Point", "coordinates": [ 138.575358640126609, 35.594821069190914 ] } },
{ "type": "Feature", "properties": { "P29_001": "19346", "P29_002": "C119210000089", "P29_003": "16002", "P29_004": "市川三郷町立三珠中学校", "P29_005": "山梨県西八代郡市川三郷町上野2697", "P29_006": "3", "P29_007": "1", "P29_008": "00", "P29_009": null }, "geometry": { "type": "Point", "coordinates": [ 138.5143715338302, 35.565978558464316 ] } },
{ "type": "Feature", "properties": { "P29_001": "19346", "P29_002": "C119210000098", "P29_003": "16002", "P29_004": "市川三郷町立市川中学校", "P29_005": "山梨県西八代郡市川三郷町市川大門5064-1", "P29_006": "3", "P29_007": "1", "P29_008": "00", "P29_009": null }, "geometry": { "type": "Point", "coordinates": [ 138.505938988382013, 35.556358372271092 ] } },
{ "type": "Feature", "properties": { "P29_001": "19346", "P29_002": "C119210000105", "P29_003": "16002", "P29_004": "市川三郷町立市川南中学校", "P29_005": "山梨県西八代郡市川三郷町黒沢1462", "P29_006": "3", "P29_007": "1", "P29_008": "00", "P29_009": null }, "geometry": { "type": "Point", "coordinates": [ 138.476324900193305, 35.535243200004317 ] } },
{ "type": "Feature", "properties": { "P29_001": "19346", "P29_002": "C119210000114", "P29_003": "16002", "P29_004": "市川三郷町立六郷中学校", "P29_005": "山梨県西八代郡市川三郷町岩間2927", "P29_006": "3", "P29_007": "1", "P29_008": "00", "P29_009": null }, "geometry": { "type": "Point", "coordinates": [ 138.463619846059032, 35.49850894187032 ] } },
{ "type": "Feature", "properties": { "P29_001": "19368", "P29_002": "C119210000123", "P29_003": "16002", "P29_004": "富士川町立鰍沢中学校", "P29_005": "山梨県南巨摩郡富士川町鰍沢1187-2", "P29_006": "3", "P29_007": "1", "P29_008": "00", "P29_009": null }, "geometry": { "type": "Point", "coordinates": [ 138.46049290579387, 35.545395734960124 ] } },
{ "type": "Feature", "properties": { "P29_001": "19210", "P29_002": "C119210000132", "P29_003": "16002", "P29_004": "甲斐市立竜王中学校", "P29_005": "山梨県甲斐市篠原2030", "P29_006": "3", "P29_007": "1", "P29_008": "00", "P29_009": null }, "geometry": { "type": "Point", "coordinates": [ 138.514403603055342, 35.654185168546967 ] } },
{ "type": "Feature", "properties": { "P29_001": "19210", "P29_002": "C119210000141", "P29_003": "16002", "P29_004": "甲斐市立敷島中学校", "P29_005": "山梨県甲斐市島上条1263", "P29_006": "3", "P29_007": "1", "P29_008": "00", "P29_009": null }, "geometry": { "type": "Point", "coordinates": [ 138.526624964131116, 35.686780535848882 ] } },
{ "type": "Feature", "properties": { "P29_001": "19384", "P29_002": "C119210000150", "P29_003": "16002", "P29_004": "昭和町立押原中学校", "P29_005": "山梨県中巨摩郡昭和町押越542-1", "P29_006": "3", "P29_007": "1", "P29_008": "00", "P29_009": null }, "geometry": { "type": "Point", "coordinates": [ 138.535188990087534, 35.627389959798762 ] } },
{ "type": "Feature", "properties": { "P29_001": "19214", "P29_002": "C119210000169", "P29_003": "16002", "P29_004": "中央市立田富中学校", "P29_005": "山梨県中央市布施2493", "P29_006": "3", "P29_007": "1", "P29_008": "00", "P29_009": null }, "geometry": { "type": "Point", "coordinates": [ 138.522280340987805, 35.596691778781526 ] } },
{ "type": "Feature", "properties": { "P29_001": "19208", "P29_002": "C119210000178", "P29_003": "16002", "P29_004": "南アルプス市立芦安中学校", "P29_005": "山梨県南アルプス市芦安安通350", "P29_006": "3", "P29_007": "1", "P29_008": "00", "P29_009": null }, "geometry": { "type": "Point", "coordinates": [ 138.378809652946956, 35.636778704563021 ] } },
{ "type": "Feature", "properties": { "P29_001": "19208", "P29_002": "C119210000187", "P29_003": "16002", "P29_004": "南アルプス市立白根巨摩中学校", "P29_005": "山梨県南アルプス市飯野2860-2", "P29_006": "3", "P29_007": "1", "P29_008": "00", "P29_009": null }, "geometry": { "type": "Point", "coordinates": [ 138.463339848301729, 35.639313257448684 ] } },
{ "type": "Feature", "properties": { "P29_001": "19208", "P29_002": "C119210000196", "P29_003": "16002", "P29_004": "南アルプス市立若草中学校", "P29_005": "山梨県南アルプス市加賀美2943", "P29_006": "3", "P29_007": "1", "P29_008": "00", "P29_009": null }, "geometry": { "type": "Point", "coordinates": [ 138.488582581388044, 35.60708523226743 ] } },
{ "type": "Feature", "properties": { "P29_001": "19208", "P29_002": "C119210000203", "P29_003": "16002", "P29_004": "南アルプス市立櫛形中学校", "P29_005": "山梨県南アルプス市小笠原985", "P29_006": "3", "P29_007": "1", "P29_008": "00", "P29_009": null }, "geometry": { "type": "Point", "coordinates": [ 138.46056054281118, 35.616119144803072 ] } },
{ "type": "Feature", "properties": { "P29_001": "19208", "P29_002": "C119210000212", "P29_003": "16002", "P29_004": "南アルプス市立甲西中学校", "P29_005": "山梨県南アルプス市古市場150", "P29_006": "3", "P29_007": "1", "P29_008": "00", "P29_009": null }, "geometry": { "type": "Point", "coordinates": [ 138.471759489323517, 35.590777897369414 ] } },
{ "type": "Feature", "properties": { "P29_001": "19210", "P29_002": "C119210000221", "P29_003": "16002", "P29_004": "甲斐市立双葉中学校", "P29_005": "山梨県甲斐市岩森1337", "P29_006": "3", "P29_007": "1", "P29_008": "00", "P29_009": null }, "geometry": { "type": "Point", "coordinates": [ 138.491495471576258, 35.690256922311931 ] } },
{ "type": "Feature", "properties": { "P29_001": "19209", "P29_002": "C119210000230", "P29_003": "16002", "P29_004": "北杜市立明野中学校", "P29_005": "山梨県北杜市明野町上手8342", "P29_006": "3", "P29_007": "1", "P29_008": "00", "P29_009": null }, "geometry": { "type": "Point", "coordinates": [ 138.443501488945941, 35.770296778778096 ] } },
{ "type": "Feature", "properties": { "P29_001": "19209", "P29_002": "C119210000249", "P29_003": "16002", "P29_004": "北杜市立須玉中学校", "P29_005": "山梨県北杜市須玉町小倉200", "P29_006": "3", "P29_007": "1", "P29_008": "00", "P29_009": null }, "geometry": { "type": "Point", "coordinates": [ 138.432376661203847, 35.797798246058186 ] } },
{ "type": "Feature", "properties": { "P29_001": "19209", "P29_002": "C119210000258", "P29_003": "16002", "P29_004": "北杜市立高根中学校", "P29_005": "山梨県北杜市高根町村山東割98", "P29_006": "3", "P29_007": "1", "P29_008": "00", "P29_009": null }, "geometry": { "type": "Point", "coordinates": [ 138.411442062120102, 35.833892993626023 ] } },
{ "type": "Feature", "properties": { "P29_001": "19209", "P29_002": "C119210000267", "P29_003": "16002", "P29_004": "北杜市立長坂中学校", "P29_005": "山梨県北杜市長坂町長坂上条1608", "P29_006": "3", "P29_007": "1", "P29_008": "00", "P29_009": null }, "geometry": { "type": "Point", "coordinates": [ 138.375296099277278, 35.824396046503182 ] } },
{ "type": "Feature", "properties": { "P29_001": "19209", "P29_002": "C119210000276", "P29_003": "16002", "P29_004": "北杜市立泉中学校", "P29_005": "山梨県北杜市大泉町谷戸2087", "P29_006": "3", "P29_007": "1", "P29_008": "00", "P29_009": null }, "geometry": { "type": "Point", "coordinates": [ 138.380880001478317, 35.860090869991772 ] } },
{ "type": "Feature", "properties": { "P29_001": "19209", "P29_002": "C119210000285", "P29_003": "16002", "P29_004": "北杜市立小淵沢中学校", "P29_005": "山梨県北杜市小淵沢町732", "P29_006": "3", "P29_007": "1", "P29_008": "00", "P29_009": null }, "geometry": { "type": "Point", "coordinates": [ 138.321511366824637, 35.866911730569917 ] } },
{ "type": "Feature", "properties": { "P29_001": "19209", "P29_002": "C119210000294", "P29_003": "16002", "P29_004": "北杜市立白州中学校", "P29_005": "山梨県北杜市白州町白須1920", "P29_006": "3", "P29_007": "1", "P29_008": "00", "P29_009": null }, "geometry": { "type": "Point", "coordinates": [ 138.323273143073322, 35.806605343948547 ] } },
{ "type": "Feature", "properties": { "P29_001": "19209", "P29_002": "C119210000301", "P29_003": "16002", "P29_004": "北杜市立武川中学校", "P29_005": "山梨県北杜市武川町山高1457", "P29_006": "3", "P29_007": "1", "P29_008": "00", "P29_009": null }, "geometry": { "type": "Point", "coordinates": [ 138.373450703594642, 35.784559294137914 ] } },
{ "type": "Feature", "properties": { "P29_001": "19212", "P29_002": "C119210000310", "P29_003": "16002", "P29_004": "上野原市立秋山中学校", "P29_005": "山梨県上野原市秋山6770", "P29_006": "3", "P29_007": "1", "P29_008": "00", "P29_009": null }, "geometry": { "type": "Point", "coordinates": [ 139.086162836052154, 35.568343849399405 ] } },
{ "type": "Feature", "properties": { "P29_001": "19423", "P29_002": "C119210000329", "P29_003": "16002", "P29_004": "西桂町立西桂中学校", "P29_005": "山梨県南都留郡西桂町下暮地884-1", "P29_006": "3", "P29_007": "1", "P29_008": "00", "P29_009": null }, "geometry": { "type": "Point", "coordinates": [ 138.841883933363505, 35.522910240077913 ] } },
{ "type": "Feature", "properties": { "P29_001": "19424", "P29_002": "C119210000338", "P29_003": "16002", "P29_004": "忍野村立忍野中学校", "P29_005": "山梨県南都留郡忍野村忍草1666-36", "P29_006": "3", "P29_007": "1", "P29_008": "00", "P29_009": null }, "geometry": { "type": "Point", "coordinates": [ 138.845748478800886, 35.464695518847122 ] } },
{ "type": "Feature", "properties": { "P29_001": "19425", "P29_002": "C119210000347", "P29_003": "16002", "P29_004": "山中湖村立山中湖中学校", "P29_005": "山梨県南都留郡山中湖村山中341-40", "P29_006": "3", "P29_007": "1", "P29_008": "00", "P29_009": null }, "geometry": { "type": "Point", "coordinates": [ 138.857094541147404, 35.408695727413125 ] } },
{ "type": "Feature", "properties": { "P29_001": "19430", "P29_002": "C119210000356", "P29_003": "16002", "P29_004": "河口湖南中学校組合立河口湖南中学校", "P29_005": "山梨県南都留郡富士河口湖町船津1164", "P29_006": "3", "P29_007": "1", "P29_008": "00", "P29_009": null }, "geometry": { "type": "Point", "coordinates": [ 138.759313142187096, 35.500100605252307 ] } },
{ "type": "Feature", "properties": { "P29_001": "19430", "P29_002": "C119210000365", "P29_003": "16002", "P29_004": "富士河口湖町立勝山中学校", "P29_005": "山梨県南都留郡富士河口湖町勝山1047", "P29_006": "3", "P29_007": "1", "P29_008": "00", "P29_009": null }, "geometry": { "type": "Point", "coordinates": [ 138.741210007458591, 35.504105759524741 ] } },
{ "type": "Feature", "properties": { "P29_001": "19212", "P29_002": "C119210000374", "P29_003": "16002", "P29_004": "上野原市立上野原西中学校", "P29_005": "山梨県上野原市四方津215", "P29_006": "3", "P29_007": "1", "P29_008": "00", "P29_009": null }, "geometry": { "type": "Point", "coordinates": [ 139.089794044151859, 35.618428512104792 ] } },
{ "type": "Feature", "properties": { "P29_001": "19212", "P29_002": "C119210000383", "P29_003": "16002", "P29_004": "上野原市立上野原中学校", "P29_005": "山梨県上野原市上野原9191", "P29_006": "3", "P29_007": "1", "P29_008": "00", "P29_009": null }, "geometry": { "type": "Point", "coordinates": [ 139.11352669868819, 35.63816426760016 ] } },
{ "type": "Feature", "properties": { "P29_001": "19442", "P29_002": "C119210000392", "P29_003": "16002", "P29_004": "小菅村立小菅中学校", "P29_005": "山梨県北都留郡小菅村4590", "P29_006": "3", "P29_007": "1", "P29_008": "00", "P29_009": null }, "geometry": { "type": "Point", "coordinates": [ 138.941285995481365, 35.760542998631756 ] } },
{ "type": "Feature", "properties": { "P29_001": "19443", "P29_002": "C119210000409", "P29_003": "16002", "P29_004": "丹波山村立丹波中学校", "P29_005": "山梨県北都留郡丹波山村2004", "P29_006": "3", "P29_007": "1", "P29_008": "00", "P29_009": null }, "geometry": { "type": "Point", "coordinates": [ 138.914617805055514, 35.793019666077008 ] } },
{ "type": "Feature", "properties": { "P29_001": "19201", "P29_002": "C119210000418", "P29_003": "16002", "P29_004": "甲府市立東中学校", "P29_005": "山梨県甲府市東光寺2-8-1", "P29_006": "3", "P29_007": "1", "P29_008": "00", "P29_009": null }, "geometry": { "type": "Point", "coordinates": [ 138.58609370673301, 35.66364027389006 ] } },
{ "type": "Feature", "properties": { "P29_001": "19201", "P29_002": "C119210000427", "P29_003": "16002", "P29_004": "甲府市立西中学校", "P29_005": "山梨県甲府市飯田5-13-1", "P29_006": "3", "P29_007": "1", "P29_008": "00", "P29_009": null }, "geometry": { "type": "Point", "coordinates": [ 138.55419174350763, 35.664238447263727 ] } },
{ "type": "Feature", "properties": { "P29_001": "19201", "P29_002": "C119210000436", "P29_003": "16002", "P29_004": "甲府市立南中学校", "P29_005": "山梨県甲府市湯田2-21-24", "P29_006": "3", "P29_007": "1", "P29_008": "00", "P29_009": null }, "geometry": { "type": "Point", "coordinates": [ 138.574434875099968, 35.643434033662878 ] } },
{ "type": "Feature", "properties": { "P29_001": "19201", "P29_002": "C119210000445", "P29_003": "16002", "P29_004": "甲府市立北中学校", "P29_005": "山梨県甲府市大和町4-35", "P29_006": "3", "P29_007": "1", "P29_008": "00", "P29_009": null }, "geometry": { "type": "Point", "coordinates": [ 138.556944498373895, 35.679533932598247 ] } },
{ "type": "Feature", "properties": { "P29_001": "19201", "P29_002": "C119210000454", "P29_003": "16002", "P29_004": "甲府市立北東中学校", "P29_005": "山梨県甲府市大手2-4-18", "P29_006": "3", "P29_007": "1", "P29_008": "00", "P29_009": null }, "geometry": { "type": "Point", "coordinates": [ 138.578839586439102, 35.680877224144247 ] } },
{ "type": "Feature", "properties": { "P29_001": "19201", "P29_002": "C119210000463", "P29_003": "16002", "P29_004": "甲府市立南西中学校", "P29_005": "山梨県甲府市上石田4-10-8", "P29_006": "3", "P29_007": "1", "P29_008": "00", "P29_009": null }, "geometry": { "type": "Point", "coordinates": [ 138.555907228905568, 35.649484156058115 ] } },
{ "type": "Feature", "properties": { "P29_001": "19202", "P29_002": "C119210000472", "P29_003": "16002", "P29_004": "富士吉田市立下吉田中学校", "P29_005": "山梨県富士吉田市新町4-12-27", "P29_006": "3", "P29_007": "1", "P29_008": "00", "P29_009": null }, "geometry": { "type": "Point", "coordinates": [ 138.79600672975107, 35.495696045285008 ] } },
{ "type": "Feature", "properties": { "P29_001": "19202", "P29_002": "C119210000481", "P29_003": "16002", "P29_004": "富士吉田市立吉田中学校", "P29_005": "山梨県富士吉田市上吉田1-3-6", "P29_006": "3", "P29_007": "1", "P29_008": "00", "P29_009": null }, "geometry": { "type": "Point", "coordinates": [ 138.799730412828808, 35.480786567625842 ] } },
{ "type": "Feature", "properties": { "P29_001": "19202", "P29_002": "C119210000490", "P29_003": "16002", "P29_004": "富士吉田市立明見中学校", "P29_005": "山梨県富士吉田市小明見1-4-14", "P29_006": "3", "P29_007": "1", "P29_008": "00", "P29_009": null }, "geometry": { "type": "Point", "coordinates": [ 138.8207779889851, 35.492068224136531 ] } },
{ "type": "Feature", "properties": { "P29_001": "19213", "P29_002": "C119210000506", "P29_003": "16002", "P29_004": "甲州市立塩山中学校", "P29_005": "山梨県甲州市塩山下於曽1039-1", "P29_006": "3", "P29_007": "1", "P29_008": "00", "P29_009": null }, "geometry": { "type": "Point", "coordinates": [ 138.728541677230311, 35.702447177030415 ] } },
{ "type": "Feature", "properties": { "P29_001": "19213", "P29_002": "C119210000515", "P29_003": "16002", "P29_004": "甲州市立塩山北中学校", "P29_005": "山梨県甲州市塩山上粟生野133", "P29_006": "3", "P29_007": "1", "P29_008": "00", "P29_009": null }, "geometry": { "type": "Point", "coordinates": [ 138.751180191412345, 35.722756906978461 ] } },
{ "type": "Feature", "properties": { "P29_001": "19213", "P29_002": "C119210000524", "P29_003": "16002", "P29_004": "甲州市立神金第二中学校", "P29_005": "山梨県甲州市塩山一之瀬高橋404", "P29_006": "3", "P29_007": "9", "P29_008": "00", "P29_009": null }, "geometry": { "type": "Point", "coordinates": [ 138.841936775008918, 35.830903910177931 ] } },
{ "type": "Feature", "properties": { "P29_001": "19213", "P29_002": "C119210000533", "P29_003": "16002", "P29_004": "甲州市立松里中学校", "P29_005": "山梨県甲州市塩山小屋敷1", "P29_006": "3", "P29_007": "1", "P29_008": "00", "P29_009": null }, "geometry": { "type": "Point", "coordinates": [ 138.718308438244833, 35.729899839825613 ] } },
{ "type": "Feature", "properties": { "P29_001": "19204", "P29_002": "C119210000542", "P29_003": "16002", "P29_004": "都留市立都留第一中学校", "P29_005": "山梨県都留市大野52-5", "P29_006": "3", "P29_007": "1", "P29_008": "00", "P29_009": null }, "geometry": { "type": "Point", "coordinates": [ 138.909567536292059, 35.542443939742427 ] } },
{ "type": "Feature", "properties": { "P29_001": "19204", "P29_002": "C119210000551", "P29_003": "16002", "P29_004": "都留市立都留第二中学校", "P29_005": "山梨県都留市四日市場750", "P29_006": "3", "P29_007": "1", "P29_008": "00", "P29_009": null }, "geometry": { "type": "Point", "coordinates": [ 138.915632937465062, 35.569927425761826 ] } },
{ "type": "Feature", "properties": { "P29_001": "19204", "P29_002": "C119210000560", "P29_003": "16002", "P29_004": "都留市立東桂中学校", "P29_005": "山梨県都留市桂町840", "P29_006": "3", "P29_007": "1", "P29_008": "00", "P29_009": null }, "geometry": { "type": "Point", "coordinates": [ 138.872217535611583, 35.533510706407355 ] } },
{ "type": "Feature", "properties": { "P29_001": "19207", "P29_002": "C119210000579", "P29_003": "16002", "P29_004": "韮崎市立韮崎東中学校", "P29_005": "山梨県韮崎市藤井町南下條371", "P29_006": "3", "P29_007": "1", "P29_008": "00", "P29_009": null }, "geometry": { "type": "Point", "coordinates": [ 138.451057789663338, 35.718174540707608 ] } },
{ "type": "Feature", "properties": { "P29_001": "19207", "P29_002": "C119210000588", "P29_003": "16002", "P29_004": "韮崎市立韮崎西中学校", "P29_005": "山梨県韮崎市神山町鍋山1-1", "P29_006": "3", "P29_007": "1", "P29_008": "00", "P29_009": null }, "geometry": { "type": "Point", "coordinates": [ 138.439166455466875, 35.709081319322543 ] } },
{ "type": "Feature", "properties": { "P29_001": "19206", "P29_002": "C119210000597", "P29_003": "16002", "P29_004": "大月市立大月東中学校", "P29_005": "山梨県大月市大月2-15-11", "P29_006": "3", "P29_007": "1", "P29_008": "00", "P29_009": null }, "geometry": { "type": "Point", "coordinates": [ 138.936645888353326, 35.611191295058717 ] } },
{ "type": "Feature", "properties": { "P29_001": "19206", "P29_002": "C119210000604", "P29_003": "16002", "P29_004": "大月市立猿橋中学校", "P29_005": "山梨県大月市猿橋町猿橋567", "P29_006": "3", "P29_007": "1", "P29_008": "00", "P29_009": null }, "geometry": { "type": "Point", "coordinates": [ 138.98059345072059, 35.616945145550858 ] } },
{ "type": "Feature", "properties": { "P29_001": "19205", "P29_002": "C119210000613", "P29_003": "16002", "P29_004": "山梨市立笛川中学校", "P29_005": "山梨県山梨市牧丘町窪平1100", "P29_006": "3", "P29_007": "1", "P29_008": "00", "P29_009": null }, "geometry": { "type": "Point", "coordinates": [ 138.714156921838935, 35.744149680684039 ] } },
{ "type": "Feature", "properties": { "P29_001": "19205", "P29_002": "C119210000622", "P29_003": "16002", "P29_004": "山梨市立山梨南中学校", "P29_005": "山梨県山梨市下石森376", "P29_006": "3", "P29_007": "1", "P29_008": "00", "P29_009": null }, "geometry": { "type": "Point", "coordinates": [ 138.686002185507988, 35.673017941596733 ] } },
{ "type": "Feature", "properties": { "P29_001": "19368", "P29_002": "C119210000631", "P29_003": "16002", "P29_004": "富士川町立増穂中学校", "P29_005": "山梨県南巨摩郡富士川町天神中條991-1", "P29_006": "3", "P29_007": "1", "P29_008": "00", "P29_009": null }, "geometry": { "type": "Point", "coordinates": [ 138.461918994207764, 35.564363003021754 ] } },
{ "type": "Feature", "properties": { "P29_001": "19205", "P29_002": "C119210000640", "P29_003": "16002", "P29_004": "山梨市立山梨北中学校", "P29_005": "山梨県山梨市小原東359-1", "P29_006": "3", "P29_007": "1", "P29_008": "00", "P29_009": null }, "geometry": { "type": "Point", "coordinates": [ 138.69795100003995, 35.699768003527197 ] } },
{ "type": "Feature", "properties": { "P29_001": "19211", "P29_002": "C119210000659", "P29_003": "16002", "P29_004": "笛吹市立浅川中学校", "P29_005": "山梨県笛吹市八代町岡1111", "P29_006": "3", "P29_007": "1", "P29_008": "00", "P29_009": null }, "geometry": { "type": "Point", "coordinates": [ 138.640916906913986, 35.608154463247608 ] } },
{ "type": "Feature", "properties": { "P29_001": "19422", "P29_002": "C119210000668", "P29_003": "16002", "P29_004": "道志村立道志中学校", "P29_005": "山梨県南都留郡道志村7568", "P29_006": "3", "P29_007": "1", "P29_008": "00", "P29_009": null }, "geometry": { "type": "Point", "coordinates": [ 139.02201973245019, 35.520041490187786 ] } },
{ "type": "Feature", "properties": { "P29_001": "19201", "P29_002": "C119210000677", "P29_003": "16002", "P29_004": "甲府市立北西中学校", "P29_005": "山梨県甲府市山宮町538", "P29_006": "3", "P29_007": "1", "P29_008": "00", "P29_009": null }, "geometry": { "type": "Point", "coordinates": [ 138.529078673960527, 35.69185827784333 ] } },
{ "type": "Feature", "properties": { "P29_001": "19202", "P29_002": "C119210000686", "P29_003": "16002", "P29_004": "富士吉田市立富士見台中学校", "P29_005": "山梨県富士吉田市上暮地1-6-1", "P29_006": "3", "P29_007": "1", "P29_008": "00", "P29_009": null }, "geometry": { "type": "Point", "coordinates": [ 138.82794299752976, 35.507239000051719 ] } },
{ "type": "Feature", "properties": { "P29_001": "19364", "P29_002": "C119210000695", "P29_003": "16002", "P29_004": "早川町立早川中学校", "P29_005": "山梨県南巨摩郡早川町保666", "P29_006": "3", "P29_007": "1", "P29_008": "00", "P29_009": null }, "geometry": { "type": "Point", "coordinates": [ 138.332316449258713, 35.434214929354262 ] } },
{ "type": "Feature", "properties": { "P29_001": "19210", "P29_002": "C119210000702", "P29_003": "16002", "P29_004": "甲斐市立玉幡中学校", "P29_005": "山梨県甲斐市西八幡3190", "P29_006": "3", "P29_007": "1", "P29_008": "00", "P29_009": null }, "geometry": { "type": "Point", "coordinates": [ 138.50945867789963, 35.646175344054875 ] } },
{ "type": "Feature", "properties": { "P29_001": "19430", "P29_002": "C119210000711", "P29_003": "16002", "P29_004": "富士河口湖町立河口湖北中学校", "P29_005": "山梨県南都留郡富士河口湖町河口3210", "P29_006": "3", "P29_007": "1", "P29_008": "00", "P29_009": null }, "geometry": { "type": "Point", "coordinates": [ 138.769478308515062, 35.520901951443157 ] } },
{ "type": "Feature", "properties": { "P29_001": "19201", "P29_002": "C119210000720", "P29_003": "16002", "P29_004": "甲府市立富竹中学校", "P29_005": "山梨県甲府市富竹4-5-8", "P29_006": "3", "P29_007": "1", "P29_008": "00", "P29_009": null }, "geometry": { "type": "Point", "coordinates": [ 138.536686776720728, 35.656106070463323 ] } },
{ "type": "Feature", "properties": { "P29_001": "19201", "P29_002": "C119210000739", "P29_003": "16002", "P29_004": "甲府市立城南中学校", "P29_005": "山梨県甲府市大里町2590-1", "P29_006": "3", "P29_007": "1", "P29_008": "00", "P29_009": null }, "geometry": { "type": "Point", "coordinates": [ 138.569041867726611, 35.619205075356042 ] } },
{ "type": "Feature", "properties": { "P29_001": "19214", "P29_002": "C119210000748", "P29_003": "16002", "P29_004": "中央市立玉穂中学校", "P29_005": "山梨県中央市下河東180", "P29_006": "3", "P29_007": "1", "P29_008": "00", "P29_009": null }, "geometry": { "type": "Point", "coordinates": [ 138.542117729158292, 35.600185282943031 ] } },
{ "type": "Feature", "properties": { "P29_001": "19201", "P29_002": "C119210000757", "P29_003": "16002", "P29_004": "甲府市立上条中学校", "P29_005": "山梨県甲府市古上条町95", "P29_006": "3", "P29_007": "1", "P29_008": "00", "P29_009": null }, "geometry": { "type": "Point", "coordinates": [ 138.556985009702856, 35.628857996913027 ] } },
{ "type": "Feature", "properties": { "P29_001": "19208", "P29_002": "C119210000766", "P29_003": "16002", "P29_004": "南アルプス市立八田中学校", "P29_005": "山梨県南アルプス市榎原620", "P29_006": "3", "P29_007": "1", "P29_008": "00", "P29_009": null }, "geometry": { "type": "Point", "coordinates": [ 138.485517548235038, 35.66054109561113 ] } },
{ "type": "Feature", "properties": { "P29_001": "19208", "P29_002": "C119210000775", "P29_003": "16002", "P29_004": "南アルプス市立白根御勅使中学校", "P29_005": "山梨県南アルプス市百々1990-1", "P29_006": "3", "P29_007": "1", "P29_008": "00", "P29_009": null }, "geometry": { "type": "Point", "coordinates": [ 138.466629753446341, 35.661781945607991 ] } },
{ "type": "Feature", "properties": { "P29_001": "19210", "P29_002": "C119210000784", "P29_003": "16002", "P29_004": "甲斐市立竜王北中学校", "P29_005": "山梨県甲斐市竜王420", "P29_006": "3", "P29_007": "1", "P29_008": "00", "P29_009": null }, "geometry": { "type": "Point", "coordinates": [ 138.505044940622213, 35.670102802013638 ] } },
{ "type": "Feature", "properties": { "P29_001": "19214", "P29_002": "C119210000793", "P29_003": "16002", "P29_004": "中央市立玉穂中学校下河東分校", "P29_005": "山梨県中央市下河東1110", "P29_006": "3", "P29_007": "1", "P29_008": "00", "P29_009": null }, "geometry": { "type": "Point", "coordinates": [ 138.538596500785104, 35.608705675861167 ] } },
{ "type": "Feature", "properties": { "P29_001": "19201", "P29_002": "C119210000800", "P29_003": "16002", "P29_004": "甲府市立城南中学校分校", "P29_005": "山梨県甲府市増坪町366", "P29_006": "3", "P29_007": "1", "P29_008": "00", "P29_009": null }, "geometry": { "type": "Point", "coordinates": [ 138.590981187789652, 35.634399606025745 ] } },
{ "type": "Feature", "properties": { "P29_001": "19209", "P29_002": "C119210000819", "P29_003": "16002", "P29_004": "北杜市立甲陵中学校", "P29_005": "山梨県北杜市長坂町長坂上条2003", "P29_006": "3", "P29_007": "1", "P29_008": "00", "P29_009": null }, "geometry": { "type": "Point", "coordinates": [ 138.378010532968176, 35.825275479139542 ] } },
{ "type": "Feature", "properties": { "P29_001": "19201", "P29_002": "C119210000828", "P29_003": "16002", "P29_004": "甲府市立笛南中学校桜木分校", "P29_005": "山梨県甲府市中畑町1284", "P29_006": "3", "P29_007": "1", "P29_008": "00", "P29_009": null }, "geometry": { "type": "Point", "coordinates": [ 138.599591461838628, 35.567244117629983 ] } },
{ "type": "Feature", "properties": { "P29_001": "19366", "P29_002": "C119210000837", "P29_003": "16002", "P29_004": "南部町立南部中学校", "P29_005": "山梨県南巨摩郡南部町南部8746", "P29_006": "3", "P29_007": "1", "P29_008": "00", "P29_009": null }, "geometry": { "type": "Point", "coordinates": [ 138.454072008012645, 35.288272162123135 ] } },
{ "type": "Feature", "properties": { "P29_001": "19365", "P29_002": "C119210000846", "P29_003": "16002", "P29_004": "身延町立身延中学校", "P29_005": "山梨県南巨摩郡身延町梅平1000", "P29_006": "3", "P29_007": "1", "P29_008": "00", "P29_009": null }, "geometry": { "type": "Point", "coordinates": [ 138.436459438935145, 35.370011075321287 ] } },
{ "type": "Feature", "properties": { "P29_001": "19201", "P29_002": "C119310000014", "P29_003": "16002", "P29_004": "山梨英和中学校", "P29_005": "山梨県甲府市愛宕町112", "P29_006": "4", "P29_007": "1", "P29_008": "00", "P29_009": null }, "geometry": { "type": "Point", "coordinates": [ 138.575519735776169, 35.667443225362447 ] } },
{ "type": "Feature", "properties": { "P29_001": "19201", "P29_002": "C119310000023", "P29_003": "16002", "P29_004": "甲府湯田中学校", "P29_005": "山梨県甲府市青沼3-10-1", "P29_006": "4", "P29_007": "1", "P29_008": "00", "P29_009": null }, "geometry": { "type": "Point", "coordinates": [ 138.573846997956139, 35.651283003540463 ] } },
{ "type": "Feature", "properties": { "P29_001": "19201", "P29_002": "C119310000032", "P29_003": "16002", "P29_004": "駿台甲府中学校", "P29_005": "山梨県甲府市塩部2-8-1", "P29_006": "4", "P29_007": "1", "P29_008": "00", "P29_009": null }, "geometry": { "type": "Point", "coordinates": [ 138.556811730158472, 35.670408082116829 ] } },
{ "type": "Feature", "properties": { "P29_001": "19201", "P29_002": "C119310000041", "P29_003": "16002", "P29_004": "山梨学院中学校", "P29_005": "山梨県甲府市酒折3-3-1", "P29_006": "4", "P29_007": "1", "P29_008": "00", "P29_009": null }, "geometry": { "type": "Point", "coordinates": [ 138.597878460993087, 35.66149929053023 ] } },
{ "type": "Feature", "properties": { "P29_001": "19210", "P29_002": "C119310000050", "P29_003": "16002", "P29_004": "日本航空高等学校附属中学校", "P29_005": "山梨県甲斐市宇津谷445", "P29_006": "4", "P29_007": "1", "P29_008": "00", "P29_009": null }, "geometry": { "type": "Point", "coordinates": [ 138.480670099778365, 35.682428602739257 ] } },
{ "type": "Feature", "properties": { "P29_001": "19202", "P29_002": "C119310000069", "P29_003": "16002", "P29_004": "富士学苑中学校", "P29_005": "山梨県富士吉田市下吉田3-28-19", "P29_006": "4", "P29_007": "1", "P29_008": "00", "P29_009": null }, "geometry": { "type": "Point", "coordinates": [ 138.80135615594665, 35.494041195728549 ] } },
{ "type": "Feature", "properties": { "P29_001": "19208", "P29_002": "C119310000078", "P29_003": "16002", "P29_004": "南アルプス子どもの村中学校", "P29_005": "山梨県南アルプス市徳永1717", "P29_006": "4", "P29_007": "1", "P29_008": "00", "P29_009": null }, "geometry": { "type": "Point", "coordinates": [ 138.486606329678295, 35.654419844895685 ] } },
{ "type": "Feature", "properties": { "P29_001": "19430", "P29_002": "C119310000087", "P29_003": "16002", "P29_004": "素和美中学校", "P29_005": "山梨県南都留郡富士河口湖町小立5931", "P29_006": "4", "P29_007": "1", "P29_008": "00", "P29_009": null }, "geometry": { "type": "Point", "coordinates": [ 138.748752521448267, 35.478402254755686 ] } }
]
}
