{
"type": "FeatureCollection",
"name": "geo_19_介護老人福祉施設",
"crs": { "type": "name", "properties": { "name": "urn:ogc:def:crs:OGC:1.3:CRS84" } },
"features": [
{ "type": "Feature", "properties": { "内容": "奥湯村指定介護老人福祉施設【介護老人福祉施設】甲府市羽黒町1657-5", "url": "https://www.kaigokensaku.mhlw.go.jp/19/index.php?action_kouhyou_detail_004_kani=true&JigyosyoCd=1970100150-00&ServiceCd=510&Type=search", "url2": "htt@p://okuyumura.or.jp/" }, "geometry": { "type": "Point", "coordinates": [ 138.5504209, 35.6926428 ] } },
{ "type": "Feature", "properties": { "内容": "特別養護老人ホーム　ロイヤルあかし【介護老人福祉施設】甲府市上町２４７３", "url": "https://www.kaigokensaku.mhlw.go.jp/19/index.php?action_kouhyou_detail_004_kani=true&JigyosyoCd=1970101166-00&ServiceCd=510&Type=search", "url2": "www.akashi.or.jp" }, "geometry": { "type": "Point", "coordinates": [ 138.5869844, 35.6366689 ] } },
{ "type": "Feature", "properties": { "内容": "特別養護老人ホーム　和久園【介護老人福祉施設】甲府市中村町11-18", "url": "https://www.kaigokensaku.mhlw.go.jp/19/index.php?action_kouhyou_detail_004_kani=true&JigyosyoCd=1970100119-00&ServiceCd=510&Type=search", "url2": "https://www.wakouwelfare.or.jp" }, "geometry": { "type": "Point", "coordinates": [ 138.534890638226614, 35.665574314586451 ] } },
{ "type": "Feature", "properties": { "内容": "特別養護老人ホーム　桜井寮【介護老人福祉施設】山梨県甲府市桜井町558番地", "url": "https://www.kaigokensaku.mhlw.go.jp/19/index.php?action_kouhyou_detail_004_kani=true&JigyosyoCd=1970100192-00&ServiceCd=510&Type=search", "url2": "http://www.sakurai-ryo.com" }, "geometry": { "type": "Point", "coordinates": [ 138.617745099999979, 35.6577311 ] } },
{ "type": "Feature", "properties": { "内容": "とくべつようごろうじんほーむそれいゆこうふ【介護老人福祉施設】西高橋町277番ソレイユ甲府", "url": "https://www.kaigokensaku.mhlw.go.jp/19/index.php?action_kouhyou_detail_004_kani=true&JigyosyoCd=1970104376-00&ServiceCd=510&Type=search", "url2": "http://www.fujikoseikai.or.jp" }, "geometry": { "type": "Point", "coordinates": [ 138.5969642, 35.6398333 ] } },
{ "type": "Feature", "properties": { "内容": "特別養護老人ホーム　清栄なでしこ荘【介護老人福祉施設】山梨県甲府市横根町５５４", "url": "https://www.kaigokensaku.mhlw.go.jp/19/index.php?action_kouhyou_detail_004_kani=true&JigyosyoCd=1970100994-00&ServiceCd=510&Type=search", "url2": null }, "geometry": { "type": "Point", "coordinates": [ 138.6151137, 35.6575986 ] } },
{ "type": "Feature", "properties": { "内容": "トリアス【介護老人福祉施設】山梨県甲府市国玉町９５１－１", "url": "https://www.kaigokensaku.mhlw.go.jp/19/index.php?action_kouhyou_detail_004_kani=true&JigyosyoCd=1970100200-00&ServiceCd=510&Type=search", "url2": "http://www.torias.or.jp" }, "geometry": { "type": "Point", "coordinates": [ 138.5986866, 35.6465584 ] } },
{ "type": "Feature", "properties": { "内容": "特別養護老人ホーム　風林荘【介護老人福祉施設】山梨県甲府市宮原町１１９１", "url": "https://www.kaigokensaku.mhlw.go.jp/19/index.php?action_kouhyou_detail_004_kani=true&JigyosyoCd=1970101901-00&ServiceCd=510&Type=search", "url2": "http://fuurinsou.com" }, "geometry": { "type": "Point", "coordinates": [ 138.557206800000017, 35.6176865 ] } },
{ "type": "Feature", "properties": { "内容": "特別養護老人ホーム　尚古園【介護老人福祉施設】山梨県甲府市和田町2948番地の6", "url": "https://www.kaigokensaku.mhlw.go.jp/19/index.php?action_kouhyou_detail_004_kani=true&JigyosyoCd=1970100176-00&ServiceCd=510&Type=search", "url2": "https://www.zenrinkai.or.jp" }, "geometry": { "type": "Point", "coordinates": [ 138.5615484, 35.6875623 ] } },
{ "type": "Feature", "properties": { "内容": "指定介護老人福祉施設コスモ【介護老人福祉施設】山梨県甲府市下向山町１２８０－１", "url": "https://www.kaigokensaku.mhlw.go.jp/19/index.php?action_kouhyou_detail_004_kani=true&JigyosyoCd=1970500581-00&ServiceCd=510&Type=search", "url2": "https://ikiikiclub.com/" }, "geometry": { "type": "Point", "coordinates": [ 138.580885200000012, 35.5892522 ] } },
{ "type": "Feature", "properties": { "内容": "快晴苑【介護老人福祉施設】山梨県甲府市大津町３３３", "url": "https://www.kaigokensaku.mhlw.go.jp/19/index.php?action_kouhyou_detail_004_kani=true&JigyosyoCd=1970100184-00&ServiceCd=510&Type=search", "url2": "https://daijukai-y.or.jp/" }, "geometry": { "type": "Point", "coordinates": [ 138.563861800000012, 35.6090356 ] } },
{ "type": "Feature", "properties": { "内容": "特別養護老人ホーム春光園【介護老人福祉施設】山梨県甲府市増坪町681", "url": "https://www.kaigokensaku.mhlw.go.jp/19/index.php?action_kouhyou_detail_004_kani=true&JigyosyoCd=1970100044-00&ServiceCd=510&Type=search", "url2": "http://shinwakai1979.or.jp" }, "geometry": { "type": "Point", "coordinates": [ 138.594295200000033, 35.6344728 ] } },
{ "type": "Feature", "properties": { "内容": "富士吉田市特別養護老人ホーム寿荘【介護老人福祉施設】山梨県富士吉田市下吉田9-9-10", "url": "https://www.kaigokensaku.mhlw.go.jp/19/index.php?action_kouhyou_detail_004_kani=true&JigyosyoCd=1971200215-00&ServiceCd=510&Type=search", "url2": null }, "geometry": { "type": "Point", "coordinates": [ 138.811149595922984, 35.497209778208898 ] } },
{ "type": "Feature", "properties": { "内容": "特別養護老人ホーム芙蓉荘【介護老人福祉施設】山梨県　富士吉田市　松山1613", "url": "https://www.kaigokensaku.mhlw.go.jp/19/index.php?action_kouhyou_detail_004_kani=true&JigyosyoCd=1971200025-00&ServiceCd=510&Type=search", "url2": "http://www.snhfuyoso.com" }, "geometry": { "type": "Point", "coordinates": [ 138.777937800000018, 35.4810441 ] } },
{ "type": "Feature", "properties": { "内容": "特別養護老人ホーム慶和荘【介護老人福祉施設】山梨県富士吉田市上吉田字熊穴４５８４", "url": "https://www.kaigokensaku.mhlw.go.jp/19/index.php?action_kouhyou_detail_004_kani=true&JigyosyoCd=1971200298-00&ServiceCd=510&Type=search", "url2": "http://www.mswc.or.jp" }, "geometry": { "type": "Point", "coordinates": [ 138.785229, 35.4764754 ] } },
{ "type": "Feature", "properties": { "内容": "特別養護老人ホーム　　　　　　　　回生荘【介護老人福祉施設】山梨県都留市境36番地", "url": "https://www.kaigokensaku.mhlw.go.jp/19/index.php?action_kouhyou_detail_004_kani=true&JigyosyoCd=1971100100-00&ServiceCd=510&Type=search", "url2": "http://www.office@kaisei-so.jp" }, "geometry": { "type": "Point", "coordinates": [ 138.863547899999958, 35.5286905 ] } },
{ "type": "Feature", "properties": { "内容": "特別養護老人ホーム　よこぶき荘【介護老人福祉施設】都留市川茂３２８－４", "url": "https://www.kaigokensaku.mhlw.go.jp/19/index.php?action_kouhyou_detail_004_kani=true&JigyosyoCd=1971100019-00&ServiceCd=510&Type=search", "url2": "http:///www.yokobukiso.or.jp" }, "geometry": { "type": "Point", "coordinates": [ 138.915270700000065, 35.5756331 ] } },
{ "type": "Feature", "properties": { "内容": "特別養護老人ホーム　もりの郷【介護老人福祉施設】山梨県都留市与縄７１６－１", "url": "https://www.kaigokensaku.mhlw.go.jp/19/index.php?action_kouhyou_detail_004_kani=true&JigyosyoCd=1971100217-00&ServiceCd=510&Type=search", "url2": "http://care-net.biz/19/morinosato/" }, "geometry": { "type": "Point", "coordinates": [ 138.9495727, 35.5592295 ] } },
{ "type": "Feature", "properties": { "内容": "特別養護老人ホーム桃源荘【介護老人福祉施設】山梨県山梨市一町田中１５５", "url": "https://www.kaigokensaku.mhlw.go.jp/19/index.php?action_kouhyou_detail_004_kani=true&JigyosyoCd=1970200018-00&ServiceCd=510&Type=search", "url2": "http://www.yfj.or.jp/" }, "geometry": { "type": "Point", "coordinates": [ 138.675785200000064, 35.6626045 ] } },
{ "type": "Feature", "properties": { "内容": "個室ユニット型特別養護老人ホーム桃源荘【介護老人福祉施設】山梨県山梨市一町田中155", "url": "https://www.kaigokensaku.mhlw.go.jp/19/index.php?action_kouhyou_detail_004_kani=true&JigyosyoCd=1970200646-00&ServiceCd=510&Type=search", "url2": "http://www.yfj.or.jp/tougenso/" }, "geometry": { "type": "Point", "coordinates": [ 138.675785200000064, 35.6626045 ] } },
{ "type": "Feature", "properties": { "内容": "特別養護老人ホーム　笛吹荘【介護老人福祉施設】山梨県山梨市牧丘町室伏２４５２番地", "url": "https://www.kaigokensaku.mhlw.go.jp/19/index.php?action_kouhyou_detail_004_kani=true&JigyosyoCd=1970400147-00&ServiceCd=510&Type=search", "url2": "https//:jyukokai.jp" }, "geometry": { "type": "Point", "coordinates": [ 138.721645599999988, 35.7525594 ] } },
{ "type": "Feature", "properties": { "内容": "恵信ロジェ山梨【介護老人福祉施設】山梨県山梨市南１３３５", "url": "https://www.kaigokensaku.mhlw.go.jp/19/index.php?action_kouhyou_detail_004_kani=true&JigyosyoCd=1970200141-00&ServiceCd=510&Type=search", "url2": "http://www.keishin-group.net/roger/index.htm" }, "geometry": { "type": "Point", "coordinates": [ 138.685585899999978, 35.70064 ] } },
{ "type": "Feature", "properties": { "内容": "特別養護老人ホーム志仁也【介護老人福祉施設】山梨県大月市初狩町下初狩４１４６－１０", "url": "https://www.kaigokensaku.mhlw.go.jp/19/index.php?action_kouhyou_detail_004_kani=true&JigyosyoCd=1971400245-00&ServiceCd=510&Type=search", "url2": "http://www.hujikousei.or.jp" }, "geometry": { "type": "Point", "coordinates": [ 138.876693499999988, 35.5804987 ] } },
{ "type": "Feature", "properties": { "内容": "大月富士見苑【介護老人福祉施設】山梨県大月市大月町真木４６６０番地", "url": "https://www.kaigokensaku.mhlw.go.jp/19/index.php?action_kouhyou_detail_004_kani=true&JigyosyoCd=1971400021-00&ServiceCd=510&Type=search", "url2": "https://www.heisei294.org" }, "geometry": { "type": "Point", "coordinates": [ 138.8900659, 35.7041541 ] } },
{ "type": "Feature", "properties": { "内容": "特別養護老人ホーム　穴山の杜【介護老人福祉施設】山梨県韮崎市穴山町5390", "url": "https://www.kaigokensaku.mhlw.go.jp/19/index.php?action_kouhyou_detail_004_kani=true&JigyosyoCd=1970900203-00&ServiceCd=510&Type=search", "url2": "http://www.sip-shinwakai.jp" }, "geometry": { "type": "Point", "coordinates": [ 138.414402099999961, 35.7595907 ] } },
{ "type": "Feature", "properties": { "内容": "特別養護老人ホーム白根聖明園【介護老人福祉施設】山梨県南アルプス市在家塚１３０５", "url": "https://www.kaigokensaku.mhlw.go.jp/19/index.php?action_kouhyou_detail_004_kani=true&JigyosyoCd=1970800676-00&ServiceCd=510&Type=search", "url2": "http://www8.ocn.ne.jp/seimeien/" }, "geometry": { "type": "Point", "coordinates": [ 138.467442799999986, 35.6414295 ] } },
{ "type": "Feature", "properties": { "内容": "特別養護老人ホーム花菱荘【介護老人福祉施設】山梨県南アルプス市田島1108", "url": "https://www.kaigokensaku.mhlw.go.jp/19/index.php?action_kouhyou_detail_004_kani=true&JigyosyoCd=1970800197-00&ServiceCd=510&Type=search", "url2": null }, "geometry": { "type": "Point", "coordinates": [ 138.48742390000001, 35.5930268 ] } },
{ "type": "Feature", "properties": { "内容": "櫛形荘介護老人福祉施設【介護老人福祉施設】山梨県南アルプス市上宮地１４０８", "url": "https://www.kaigokensaku.mhlw.go.jp/19/index.php?action_kouhyou_detail_004_kani=true&JigyosyoCd=1970800155-00&ServiceCd=510&Type=search", "url2": "https://www.kushigatasou.com/" }, "geometry": { "type": "Point", "coordinates": [ 138.444051100000024, 35.6141961 ] } },
{ "type": "Feature", "properties": { "内容": "特別養護老人ホーム南岳荘【介護老人福祉施設】山梨県南アルプス市徳永４３６－１", "url": "https://www.kaigokensaku.mhlw.go.jp/19/index.php?action_kouhyou_detail_004_kani=true&JigyosyoCd=1971600232-00&ServiceCd=510&Type=search", "url2": "http://www.nangakusou.or.jp/" }, "geometry": { "type": "Point", "coordinates": [ 138.4950493, 35.6549538 ] } },
{ "type": "Feature", "properties": { "内容": "特別養護老人ホーム長寿荘【介護老人福祉施設】山梨県北杜市須玉町若神子2169-1", "url": "https://www.kaigokensaku.mhlw.go.jp/19/index.php?action_kouhyou_detail_004_kani=true&JigyosyoCd=1971000037-00&ServiceCd=510&Type=search", "url2": "http://www.yuushin.or.jp" }, "geometry": { "type": "Point", "coordinates": [ 138.42192539377379, 35.792135403337745 ] } },
{ "type": "Feature", "properties": { "内容": "特別養護老人ホーム　みのる荘【介護老人福祉施設】山梨県北杜市高根町箕輪２２７０－１", "url": "https://www.kaigokensaku.mhlw.go.jp/19/index.php?action_kouhyou_detail_004_kani=true&JigyosyoCd=1971000250-00&ServiceCd=510&Type=search", "url2": "https://care-net.biz/19/minoru/" }, "geometry": { "type": "Point", "coordinates": [ 138.426755426983675, 35.820832867650296 ] } },
{ "type": "Feature", "properties": { "内容": "特別養護老人ホーム仁生園【介護老人福祉施設】山梨県北杜市長坂町小荒間菅間1293番地", "url": "https://www.kaigokensaku.mhlw.go.jp/19/index.php?action_kouhyou_detail_004_kani=true&JigyosyoCd=1971000011-00&ServiceCd=510&Type=search", "url2": "http://www.aijyukai.com" }, "geometry": { "type": "Point", "coordinates": [ 138.348019236047691, 35.87429713594495 ] } },
{ "type": "Feature", "properties": { "内容": "特別養護老人ホーム明山荘【介護老人福祉施設】山梨県北杜市明野町上手５２０", "url": "https://www.kaigokensaku.mhlw.go.jp/19/index.php?action_kouhyou_detail_004_kani=true&JigyosyoCd=1971000029-00&ServiceCd=510&Type=search", "url2": "http://www.ryokuju.com" }, "geometry": { "type": "Point", "coordinates": [ 138.429392300000018, 35.7702452 ] } },
{ "type": "Feature", "properties": { "内容": "介護老人福祉施設　敷島荘【介護老人福祉施設】山梨県甲斐市大久保1357", "url": "https://www.kaigokensaku.mhlw.go.jp/19/index.php?action_kouhyou_detail_004_kani=true&JigyosyoCd=1970800221-00&ServiceCd=510&Type=search", "url2": "shikishimasou.net" }, "geometry": { "type": "Point", "coordinates": [ 138.515519, 35.6933058 ] } },
{ "type": "Feature", "properties": { "内容": "特別養護老人ホームめぐみ荘【介護老人福祉施設】山梨県甲斐市竜王644-5", "url": "https://www.kaigokensaku.mhlw.go.jp/19/index.php?action_kouhyou_detail_004_kani=true&JigyosyoCd=1970800189-00&ServiceCd=510&Type=search", "url2": "https://www.megumisou.jp/" }, "geometry": { "type": "Point", "coordinates": [ 138.50751630000002, 35.6716075 ] } },
{ "type": "Feature", "properties": { "内容": "特別養護老人ホームゆめみどり【介護老人福祉施設】山梨県甲斐市玉川１７００－１", "url": "https://www.kaigokensaku.mhlw.go.jp/19/index.php?action_kouhyou_detail_004_kani=true&JigyosyoCd=1971700206-00&ServiceCd=510&Type=search", "url2": "http://www.kashinokai.or.jp/" }, "geometry": { "type": "Point", "coordinates": [ 138.522757100000035, 35.6331636 ] } },
{ "type": "Feature", "properties": { "内容": "特別養護老人ホーム　壽ノ家【介護老人福祉施設】山梨県笛吹市石和町四日市場２０３１", "url": "https://www.kaigokensaku.mhlw.go.jp/19/index.php?action_kouhyou_detail_004_kani=true&JigyosyoCd=1970500052-00&ServiceCd=510&Type=search", "url2": "http://www.krg.ne.jp/kt.html" }, "geometry": { "type": "Point", "coordinates": [ 138.6265543, 35.6463337 ] } },
{ "type": "Feature", "properties": { "内容": "特別養護老人ホーム春日居荘【介護老人福祉施設】山梨県笛吹市春日居町国府436", "url": "https://www.kaigokensaku.mhlw.go.jp/19/index.php?action_kouhyou_detail_004_kani=true&JigyosyoCd=1970400014-00&ServiceCd=510&Type=search", "url2": "http.//www.kasugaisou.jp/" }, "geometry": { "type": "Point", "coordinates": [ 138.651189752253686, 35.659170712332568 ] } },
{ "type": "Feature", "properties": { "内容": "小山荘【介護老人福祉施設】山梨県笛吹市八代町北760", "url": "https://www.kaigokensaku.mhlw.go.jp/19/index.php?action_kouhyou_detail_004_kani=true&JigyosyoCd=1970500102-00&ServiceCd=510&Type=search", "url2": "http//misakikai.ec-net.jp" }, "geometry": { "type": "Point", "coordinates": [ 138.652020599999986, 35.6191011 ] } },
{ "type": "Feature", "properties": { "内容": "特別養護老人ホーム　桜荘【介護老人福祉施設】山梨県上野原市大野２５４１", "url": "https://www.kaigokensaku.mhlw.go.jp/19/index.php?action_kouhyou_detail_004_kani=true&JigyosyoCd=1971500028-00&ServiceCd=510&Type=search", "url2": null }, "geometry": { "type": "Point", "coordinates": [ 139.05355940000004, 35.6216308 ] } },
{ "type": "Feature", "properties": { "内容": "フェリーチェ上野原【介護老人福祉施設】山梨県上野原市大椚６１１番地", "url": "https://www.kaigokensaku.mhlw.go.jp/19/index.php?action_kouhyou_detail_004_kani=true&JigyosyoCd=1972000036-00&ServiceCd=510&Type=search", "url2": "http://www.heisei294.org" }, "geometry": { "type": "Point", "coordinates": [ 139.0907511, 35.634576 ] } },
{ "type": "Feature", "properties": { "内容": "特別養護老人ホーム　緑風苑【介護老人福祉施設】山梨県甲州市塩山下於曽１２５６番地", "url": "https://www.kaigokensaku.mhlw.go.jp/19/index.php?action_kouhyou_detail_004_kani=true&JigyosyoCd=1970300149-00&ServiceCd=510&Type=search", "url2": "http://www.ryokufuuen.com" }, "geometry": { "type": "Point", "coordinates": [ 138.725260400000025, 35.6970111 ] } },
{ "type": "Feature", "properties": { "内容": "特別養護老人ホーム光風園【介護老人福祉施設】甲州市塩山西野原603", "url": "https://www.kaigokensaku.mhlw.go.jp/19/index.php?action_kouhyou_detail_004_kani=true&JigyosyoCd=1970300016-00&ServiceCd=510&Type=search", "url2": "http://www.koufuukai-yamanashi.or.jp/" }, "geometry": { "type": "Point", "coordinates": [ 138.736151699999937, 35.6891181 ] } },
{ "type": "Feature", "properties": { "内容": "特別養護老人ホーム　ヒルズ勝沼【介護老人福祉施設】山梨県甲州市勝沼町下岩崎２０９１", "url": "https://www.kaigokensaku.mhlw.go.jp/19/index.php?action_kouhyou_detail_004_kani=true&JigyosyoCd=1972200099-00&ServiceCd=510&Type=search", "url2": "http://www.hills-katsunuma.com" }, "geometry": { "type": "Point", "coordinates": [ 138.718901100000039, 35.653255 ] } },
{ "type": "Feature", "properties": { "内容": "特別養護老人ホーム「らくえん」【介護老人福祉施設】山梨県中央市極楽寺748番地", "url": "https://www.kaigokensaku.mhlw.go.jp/19/index.php?action_kouhyou_detail_004_kani=true&JigyosyoCd=1970800932-00&ServiceCd=510&Type=search", "url2": "http://www.rakuen1294.com/" }, "geometry": { "type": "Point", "coordinates": [ 138.5573804, 35.6018336 ] } },
{ "type": "Feature", "properties": { "内容": "特別養護老人ホーム　田富荘【介護老人福祉施設】山梨県中央市西花輪499番地", "url": "https://www.kaigokensaku.mhlw.go.jp/19/index.php?action_kouhyou_detail_004_kani=true&JigyosyoCd=1970800114-00&ServiceCd=510&Type=search", "url2": "http://www.jsyamanashi.jp/tatomisou/" }, "geometry": { "type": "Point", "coordinates": [ 138.520950199999987, 35.5830514 ] } },
{ "type": "Feature", "properties": { "内容": "介護老人福祉施設　りんどうの里【介護老人福祉施設】山梨県西八代郡市川三郷町高田３０４３", "url": "https://www.kaigokensaku.mhlw.go.jp/19/index.php?action_kouhyou_detail_004_kani=true&JigyosyoCd=1970600316-00&ServiceCd=510&Type=search", "url2": null }, "geometry": { "type": "Point", "coordinates": [ 138.486931300000037, 35.5543635 ] } },
{ "type": "Feature", "properties": { "内容": "清珠荘【介護老人福祉施設】山梨県西八代郡市川三郷町岩間5000", "url": "https://www.kaigokensaku.mhlw.go.jp/19/index.php?action_kouhyou_detail_004_kani=true&JigyosyoCd=1970600035-00&ServiceCd=510&Type=search", "url2": "http://www10.ocn.ne.jp/~seijusou" }, "geometry": { "type": "Point", "coordinates": [ 138.4589789, 35.4863248 ] } },
{ "type": "Feature", "properties": { "内容": "特別養護老人ホームみのぶ荘【介護老人福祉施設】山梨県南巨摩郡身延町梅平2483番地122", "url": "https://www.kaigokensaku.mhlw.go.jp/19/index.php?action_kouhyou_detail_004_kani=true&JigyosyoCd=1970700058-00&ServiceCd=510&Type=search", "url2": "http://www.jsyamanashi.jp/minobusanfukushikai/" }, "geometry": { "type": "Point", "coordinates": [ 138.4447434, 35.3703628 ] } },
{ "type": "Feature", "properties": { "内容": "特別養護老人ホームしもべ荘【介護老人福祉施設】山梨県南巨摩郡身延町常葉7058番地1", "url": "https://www.kaigokensaku.mhlw.go.jp/19/index.php?action_kouhyou_detail_004_kani=true&JigyosyoCd=1970600183-00&ServiceCd=510&Type=search", "url2": "shimobesou.com" }, "geometry": { "type": "Point", "coordinates": [ 138.478397399999949, 35.4287004 ] } },
{ "type": "Feature", "properties": { "内容": "介護老人福祉施設慈生園【介護老人福祉施設】山梨県南巨摩郡南部町中野２８４７", "url": "https://www.kaigokensaku.mhlw.go.jp/19/index.php?action_kouhyou_detail_004_kani=true&JigyosyoCd=1970700074-00&ServiceCd=510&Type=search", "url2": "http://www.kyonan.jp/" }, "geometry": { "type": "Point", "coordinates": [ 138.45060620000001, 35.3018108 ] } },
{ "type": "Feature", "properties": { "内容": "特別養護老人ホーム　ネオライフとみざわ【介護老人福祉施設】山梨県南巨摩郡南部町福士２６８８－３", "url": "https://www.kaigokensaku.mhlw.go.jp/19/index.php?action_kouhyou_detail_004_kani=true&JigyosyoCd=1970700421-00&ServiceCd=510&Type=search", "url2": "http://www.fujikoseikai.or.jp/neolife" }, "geometry": { "type": "Point", "coordinates": [ 138.482115099999987, 35.2422603 ] } },
{ "type": "Feature", "properties": { "内容": "特別養護老人ホーム富士川荘【介護老人福祉施設】山梨県南巨摩郡富士川町鰍沢1807番地", "url": "https://www.kaigokensaku.mhlw.go.jp/19/index.php?action_kouhyou_detail_004_kani=true&JigyosyoCd=1970700066-00&ServiceCd=510&Type=search", "url2": "http://fujikawasou.or.jp" }, "geometry": { "type": "Point", "coordinates": [ 138.458237, 35.5438605 ] } },
{ "type": "Feature", "properties": { "内容": "特別養護老人ホーム　福寿荘きらきら【介護老人福祉施設】山梨県南巨摩郡富士川町最勝寺１３０７－１", "url": "https://www.kaigokensaku.mhlw.go.jp/19/index.php?action_kouhyou_detail_004_kani=true&JigyosyoCd=1970700900-00&ServiceCd=510&Type=search", "url2": "http://www5.ocn.ne.jp/~togawa/" }, "geometry": { "type": "Point", "coordinates": [ 138.461041099999989, 35.5526429 ] } },
{ "type": "Feature", "properties": { "内容": "特別養護老人ホーム　福寿荘【介護老人福祉施設】山梨県南巨摩郡富士川町小室1241", "url": "https://www.kaigokensaku.mhlw.go.jp/19/index.php?action_kouhyou_detail_004_kani=true&JigyosyoCd=1970700025-00&ServiceCd=510&Type=search", "url2": "http://www.togawakai.sakura.ne.jp" }, "geometry": { "type": "Point", "coordinates": [ 138.430461799999989, 35.5407657 ] } },
{ "type": "Feature", "properties": { "内容": "昭寿荘【介護老人福祉施設】山梨県中巨摩郡昭和町西条２６０５", "url": "https://www.kaigokensaku.mhlw.go.jp/19/index.php?action_kouhyou_detail_004_kani=true&JigyosyoCd=1970800163-00&ServiceCd=510&Type=search", "url2": "http://syowakai.jp" }, "geometry": { "type": "Point", "coordinates": [ 138.538925018385328, 35.642346554004064 ] } },
{ "type": "Feature", "properties": { "内容": "特別養護老人ホーム　いちいの木【介護老人福祉施設】山梨県南都留郡忍野村内野中賀背3572番1", "url": "https://www.kaigokensaku.mhlw.go.jp/19/index.php?action_kouhyou_detail_004_kani=true&JigyosyoCd=1971300262-00&ServiceCd=510&Type=search", "url2": null }, "geometry": { "type": "Point", "coordinates": [ 138.847861400000056, 35.460098 ] } },
{ "type": "Feature", "properties": { "内容": "富士山荘指定介護老人福祉施設【介護老人福祉施設】山梨県南都留郡鳴沢村5061", "url": "https://www.kaigokensaku.mhlw.go.jp/19/index.php?action_kouhyou_detail_004_kani=true&JigyosyoCd=1971300023-00&ServiceCd=510&Type=search", "url2": "http://www.eiju.or.jp/" }, "geometry": { "type": "Point", "coordinates": [ 138.724304299999972, 35.4754244 ] } }
]
}
