{
"type": "FeatureCollection",
"name": "geo_19_認知症対応型通所介護",
"crs": { "type": "name", "properties": { "name": "urn:ogc:def:crs:OGC:1.3:CRS84" } },
"features": [
{ "type": "Feature", "properties": { "内容": "デイサービスセンター笑がお【認知症対応型通所介護】山梨県甲府市羽黒町１４６６－２", "url": "https://www.kaigokensaku.mhlw.go.jp/19/index.php?action_kouhyou_detail_004_kani=true&JigyosyoCd=1990100065-00&ServiceCd=720&Type=search", "url2": null }, "geometry": { "type": "Point", "coordinates": [ 138.543277900000021, 35.6939638 ] } },
{ "type": "Feature", "properties": { "内容": "グループホーム　あかし【認知症対応型通所介護】山梨県甲府市上町２４７３番地", "url": "https://www.kaigokensaku.mhlw.go.jp/19/index.php?action_kouhyou_detail_004_kani=true&JigyosyoCd=1970101174-00&ServiceCd=720&Type=search", "url2": "http://www.akashi.or.jp" }, "geometry": { "type": "Point", "coordinates": [ 138.587093, 35.6366364 ] } },
{ "type": "Feature", "properties": { "内容": "デイサービスセンター山径【認知症対応型通所介護】山梨県甲府市和田町2948-6", "url": "https://www.kaigokensaku.mhlw.go.jp/19/index.php?action_kouhyou_detail_004_kani=true&JigyosyoCd=1970101091-00&ServiceCd=720&Type=search", "url2": "http://www.zenrinkai.or.jp" }, "geometry": { "type": "Point", "coordinates": [ 138.5615484, 35.6875623 ] } },
{ "type": "Feature", "properties": { "内容": "風林荘デイサービス【認知症対応型通所介護】山梨県甲府市宮原町１１９１", "url": "https://www.kaigokensaku.mhlw.go.jp/19/index.php?action_kouhyou_detail_004_kani=true&JigyosyoCd=1990100297-00&ServiceCd=720&Type=search", "url2": "http://www18.ocn.ne.jp/~fuurin/" }, "geometry": { "type": "Point", "coordinates": [ 138.557194900000013, 35.6176796 ] } },
{ "type": "Feature", "properties": { "内容": "デイサービスあかしNT【認知症対応型通所介護】山梨県甲府市上町2473番地", "url": "https://www.kaigokensaku.mhlw.go.jp/19/index.php?action_kouhyou_detail_004_kani=true&JigyosyoCd=1990100172-00&ServiceCd=720&Type=search", "url2": "http://www.akashi.or.jp" }, "geometry": { "type": "Point", "coordinates": [ 138.5869844, 35.6366689 ] } },
{ "type": "Feature", "properties": { "内容": "愛の家デイサービス甲府中央【認知症対応型通所介護】山梨県甲府市中央2丁目7番17号", "url": "https://www.kaigokensaku.mhlw.go.jp/19/index.php?action_kouhyou_detail_004_kani=true&JigyosyoCd=1990100420-00&ServiceCd=720&Type=search", "url2": "https://mcs-ainoie.com/search/yamanashi/kofushi/gh197/" }, "geometry": { "type": "Point", "coordinates": [ 138.5734924, 35.6634243 ] } },
{ "type": "Feature", "properties": { "内容": "古上条認知症対応型通所介護【認知症対応型通所介護】甲府市古上条町424-5", "url": "https://www.kaigokensaku.mhlw.go.jp/19/index.php?action_kouhyou_detail_004_kani=true&JigyosyoCd=1990100206-00&ServiceCd=720&Type=search", "url2": "ｈｔｔｐ//ｗｗｗsasamotokai.net/sasanohakai/index.html" }, "geometry": { "type": "Point", "coordinates": [ 138.560842800000046, 35.6303671 ] } },
{ "type": "Feature", "properties": { "内容": "愛の家デイサービス甲府住吉【認知症対応型通所介護】山梨県甲府市住吉本町1398ｰ1", "url": "https://www.kaigokensaku.mhlw.go.jp/19/index.php?action_kouhyou_detail_004_kani=true&JigyosyoCd=1990100305-00&ServiceCd=720&Type=search", "url2": "https://mcs-ainoie.com/search/yamanashi/kofushi/gh127/" }, "geometry": { "type": "Point", "coordinates": [ 138.587151482803336, 35.637220297840599 ] } },
{ "type": "Feature", "properties": { "内容": "愛の家デイサービス甲府後屋【認知症対応型通所介護】山梨県甲府市後屋町９７－１", "url": "https://www.kaigokensaku.mhlw.go.jp/19/index.php?action_kouhyou_detail_004_kani=true&JigyosyoCd=1970101604-00&ServiceCd=720&Type=search", "url2": "www.mcsg.co.jp" }, "geometry": { "type": "Point", "coordinates": [ 138.5646616, 35.6285442 ] } },
{ "type": "Feature", "properties": { "内容": "愛の家デイサービス甲府増坪【認知症対応型通所介護】山梨県甲府市増坪町338", "url": "https://www.kaigokensaku.mhlw.go.jp/19/index.php?action_kouhyou_detail_004_kani=true&JigyosyoCd=1970101745-00&ServiceCd=720&Type=search", "url2": "https://mcs-ainoie.com/search/yamanashi/kofushi/gh040/" }, "geometry": { "type": "Point", "coordinates": [ 138.5905632, 35.6326304 ] } },
{ "type": "Feature", "properties": { "内容": "医療法人　聖仁会　デイサービスうらら【認知症対応型通所介護】山梨県富士吉田市ときわ台１－１－２６", "url": "https://www.kaigokensaku.mhlw.go.jp/19/index.php?action_kouhyou_detail_004_kani=true&JigyosyoCd=1991200013-00&ServiceCd=720&Type=search", "url2": "http://seijinkai-group.jp/ds_urara/index.htm" }, "geometry": { "type": "Point", "coordinates": [ 138.7924779, 35.4891241 ] } },
{ "type": "Feature", "properties": { "内容": "デイサービス　めだかの学校【認知症対応型通所介護】山梨県山梨市三ヵ所９３７－１", "url": "https://www.kaigokensaku.mhlw.go.jp/19/index.php?action_kouhyou_detail_004_kani=true&JigyosyoCd=1970200091-00&ServiceCd=720&Type=search", "url2": "http://www.hikarinosato.com" }, "geometry": { "type": "Point", "coordinates": [ 138.704462499999977, 35.6879421 ] } },
{ "type": "Feature", "properties": { "内容": "認知症対応型デイサービスセンター　サテライト桃源荘サンピーチ【認知症対応型通所介護】山梨県山梨市一町田中１９７", "url": "https://www.kaigokensaku.mhlw.go.jp/19/index.php?action_kouhyou_detail_004_kani=true&JigyosyoCd=1990200063-00&ServiceCd=720&Type=search", "url2": "http://www.yfj.or.jp/" }, "geometry": { "type": "Point", "coordinates": [ 138.673007466270406, 35.66323176654813 ] } },
{ "type": "Feature", "properties": { "内容": "愛の家デイサービス山梨小原西【認知症対応型通所介護】小原西641-7", "url": "https://www.kaigokensaku.mhlw.go.jp/19/index.php?action_kouhyou_detail_004_kani=true&JigyosyoCd=1970200125-00&ServiceCd=720&Type=search", "url2": null }, "geometry": { "type": "Point", "coordinates": [ 138.6950891, 35.6958939 ] } },
{ "type": "Feature", "properties": { "内容": "グループホーム武田の里【認知症対応型通所介護】山梨県韮崎市神山町北宮地8", "url": "https://www.kaigokensaku.mhlw.go.jp/19/index.php?action_kouhyou_detail_004_kani=true&JigyosyoCd=1990900142-00&ServiceCd=720&Type=search", "url2": null }, "geometry": { "type": "Point", "coordinates": [ 138.437325, 35.710058 ] } },
{ "type": "Feature", "properties": { "内容": "こすもす認知症対応型通所介護事業所【認知症対応型通所介護】山梨県韮崎市藤井町北下條2003-4", "url": "https://www.kaigokensaku.mhlw.go.jp/19/index.php?action_kouhyou_detail_004_kani=true&JigyosyoCd=1990900019-00&ServiceCd=720&Type=search", "url2": "http://daycosmos.web.fc2.com/" }, "geometry": { "type": "Point", "coordinates": [ 138.4421419, 35.7263309 ] } },
{ "type": "Feature", "properties": { "内容": "愛の家グループホームにらさき【認知症対応型通所介護】山梨県韮崎市龍岡町下條南割192-3", "url": "https://www.kaigokensaku.mhlw.go.jp/19/index.php?action_kouhyou_detail_004_kani=true&JigyosyoCd=1970900195-00&ServiceCd=720&Type=search", "url2": "https://mcs-ainoie.com/search/yamanashi/nirasakishi/gh051/" }, "geometry": { "type": "Point", "coordinates": [ 138.468614, 35.6755168 ] } },
{ "type": "Feature", "properties": { "内容": "あすなろデイサービス小笠原センター　寛【認知症対応型通所介護】山梨県南アルプス市小笠原403-1", "url": "https://www.kaigokensaku.mhlw.go.jp/19/index.php?action_kouhyou_detail_004_kani=true&JigyosyoCd=1971600406-00&ServiceCd=720&Type=search", "url2": "http://www.takahara-hp.or.jp/" }, "geometry": { "type": "Point", "coordinates": [ 138.48030719999997, 35.595144 ] } },
{ "type": "Feature", "properties": { "内容": "あすなろデイサービス荊沢センターゆとり【認知症対応型通所介護】山梨県南アルプス市荊沢278", "url": "https://www.kaigokensaku.mhlw.go.jp/19/index.php?action_kouhyou_detail_004_kani=true&JigyosyoCd=1991600048-00&ServiceCd=720&Type=search", "url2": "http://www.takahara-hp.or.jp/" }, "geometry": { "type": "Point", "coordinates": [ 138.496538200000032, 35.5994955 ] } },
{ "type": "Feature", "properties": { "内容": "やさしい手北杜事業所【認知症対応型通所介護】山梨県北杜市藤田799-1", "url": "https://www.kaigokensaku.mhlw.go.jp/19/index.php?action_kouhyou_detail_004_kani=true&JigyosyoCd=1991900018-00&ServiceCd=720&Type=search", "url2": null }, "geometry": { "type": "Point", "coordinates": [ 138.428194599999983, 35.7793633 ] } },
{ "type": "Feature", "properties": { "内容": "通所共用型グループホーム敷島荘【認知症対応型通所介護】山梨県甲斐市大久保１３５１", "url": "https://www.kaigokensaku.mhlw.go.jp/19/index.php?action_kouhyou_detail_004_kani=true&JigyosyoCd=1970800221-00&ServiceCd=720&Type=search", "url2": "http://park15.wakwak.com/^seichoukai" }, "geometry": { "type": "Point", "coordinates": [ 138.5149897, 35.6935137 ] } },
{ "type": "Feature", "properties": { "内容": "愛の家デイサービス甲斐長塚【認知症対応型通所介護】山梨県甲斐市長塚363-1", "url": "https://www.kaigokensaku.mhlw.go.jp/19/index.php?action_kouhyou_detail_004_kani=true&JigyosyoCd=1991700293-00&ServiceCd=720&Type=search", "url2": "https://mcs-ainoie.com/search/yamanashi/kaishi/gh315/" }, "geometry": { "type": "Point", "coordinates": [ 138.532382703275658, 35.670309516663799 ] } },
{ "type": "Feature", "properties": { "内容": "愛の家グループホーム笛吹石和【認知症対応型通所介護】山梨県笛吹石和町唐柏４６６", "url": "https://www.kaigokensaku.mhlw.go.jp/19/index.php?action_kouhyou_detail_004_kani=true&JigyosyoCd=1991800143-00&ServiceCd=720&Type=search", "url2": "www.mcsg.co.jp" }, "geometry": { "type": "Point", "coordinates": [ 138.6152846, 35.6330095 ] } },
{ "type": "Feature", "properties": { "内容": "デイサービスあん　くなど【認知症対応型通所介護】山梨県南巨摩郡身延町三沢1051-2", "url": "https://www.kaigokensaku.mhlw.go.jp/19/index.php?action_kouhyou_detail_004_kani=true&JigyosyoCd=1970701379-00&ServiceCd=720&Type=search", "url2": "an111.kaigo" }, "geometry": { "type": "Point", "coordinates": [ 138.4706342, 35.4801246 ] } },
{ "type": "Feature", "properties": { "内容": "デイサービスセンター・菜の花の里【認知症対応型通所介護】山梨県南巨摩郡南部町福士２６６８－３", "url": "https://www.kaigokensaku.mhlw.go.jp/19/index.php?action_kouhyou_detail_004_kani=true&JigyosyoCd=1970700439-00&ServiceCd=720&Type=search", "url2": "http://www.fujikoseikai.or.jp/" }, "geometry": { "type": "Point", "coordinates": [ 138.481926199999947, 35.2432491 ] } },
{ "type": "Feature", "properties": { "内容": "あすなろデイサービス天神中条センター　こでまりの家【認知症対応型通所介護】山梨県南巨摩郡富士川町天神中条６４－１", "url": "https://www.kaigokensaku.mhlw.go.jp/19/index.php?action_kouhyou_detail_004_kani=true&JigyosyoCd=1990700039-00&ServiceCd=720&Type=search", "url2": "http://www.takahara-hp.or.jp/" }, "geometry": { "type": "Point", "coordinates": [ 138.4544081, 35.5644887 ] } },
{ "type": "Feature", "properties": { "内容": "医療法人聖仁会　デイサービス福寿草【認知症対応型通所介護】山梨県南都留郡富士河口湖町小立4012-1", "url": "https://www.kaigokensaku.mhlw.go.jp/19/index.php?action_kouhyou_detail_004_kani=true&JigyosyoCd=1991300037-00&ServiceCd=720&Type=search", "url2": "http://seijinkai-saiyo.com/dayservice-tanpopo/" }, "geometry": { "type": "Point", "coordinates": [ 138.746998699999949, 35.4921921 ] } }
]
}
