{
"type": "FeatureCollection",
"name": "geo_19_短期大学",
"crs": { "type": "name", "properties": { "name": "urn:ogc:def:crs:EPSG::6668" } },
"features": [
{ "type": "Feature", "properties": { "P29_001": "19206", "P29_002": "F219210105744", "P29_003": "16006", "P29_004": "大月短期大学", "P29_005": "山梨県大月市御太刀1-16-2", "P29_006": "3", "P29_007": "0", "P29_008": "00", "P29_009": null }, "geometry": { "type": "Point", "coordinates": [ 138.947020950593185, 35.612951542077262 ] } },
{ "type": "Feature", "properties": { "P29_001": "19201", "P29_002": "F219310105751", "P29_003": "16006", "P29_004": "山梨学院短期大学", "P29_005": "山梨県甲府市酒折2-4-5", "P29_006": "4", "P29_007": "0", "P29_008": "00", "P29_009": null }, "geometry": { "type": "Point", "coordinates": [ 138.600014112370388, 35.655450744885989 ] } },
{ "type": "Feature", "properties": { "P29_001": "19205", "P29_002": "F219310105760", "P29_003": "16006", "P29_004": "帝京学園短期大学", "P29_005": "山梨県山梨市上神内川1150-1", "P29_006": "4", "P29_007": "0", "P29_008": "00", "P29_009": null }, "geometry": { "type": "Point", "coordinates": [ 138.685517486326205, 35.688523927892668 ] } }
]
}
