{
"type": "FeatureCollection",
"name": "geo_19_幼稚園",
"crs": { "type": "name", "properties": { "name": "urn:ogc:def:crs:EPSG::6668" } },
"features": [
{ "type": "Feature", "properties": { "P29_001": "19201", "P29_002": "A119110000012", "P29_003": "16011", "P29_004": "山梨大学教育学部附属幼稚園", "P29_005": "山梨県甲府市北新1-2-1", "P29_006": "1", "P29_007": "0", "P29_008": "00", "P29_009": null }, "geometry": { "type": "Point", "coordinates": [ 138.567074826296249, 35.678258617276796 ] } },
{ "type": "Feature", "properties": { "P29_001": "19205", "P29_002": "A119210000010", "P29_003": "16011", "P29_004": "山梨市立つつじ幼稚園", "P29_005": "山梨県山梨市上神内川187-5", "P29_006": "3", "P29_007": "0", "P29_008": "00", "P29_009": null }, "geometry": { "type": "Point", "coordinates": [ 138.686117493133878, 35.682923997798802 ] } },
{ "type": "Feature", "properties": { "P29_001": "19424", "P29_002": "A119210000029", "P29_003": "16011", "P29_004": "忍野村立認定こども園忍野幼稚園", "P29_005": "山梨県南都留郡忍野村忍草1437", "P29_006": "3", "P29_007": "0", "P29_008": "00", "P29_009": null }, "geometry": { "type": "Point", "coordinates": [ 138.84792994407826, 35.458690410076272 ] } },
{ "type": "Feature", "properties": { "P29_001": "19208", "P29_002": "A119310000018", "P29_003": "16011", "P29_004": "認定こども園小笠原幼稚園", "P29_005": "山梨県南アルプス市小笠原210-1", "P29_006": "4", "P29_007": "0", "P29_008": "00", "P29_009": null }, "geometry": { "type": "Point", "coordinates": [ 138.468030169954176, 35.609199829853729 ] } },
{ "type": "Feature", "properties": { "P29_001": "19346", "P29_002": "A119310000027", "P29_003": "16011", "P29_004": "認定こども園市川幼稚園", "P29_005": "山梨県西八代郡市川三郷町市川大門1782", "P29_006": "4", "P29_007": "0", "P29_008": "00", "P29_009": null }, "geometry": { "type": "Point", "coordinates": [ 138.501037305780471, 35.56518378082999 ] } },
{ "type": "Feature", "properties": { "P29_001": "19365", "P29_002": "A119310000036", "P29_003": "16011", "P29_004": "身延幼稚園", "P29_005": "山梨県南巨摩郡身延町小田船原101", "P29_006": "4", "P29_007": "0", "P29_008": "00", "P29_009": null }, "geometry": { "type": "Point", "coordinates": [ 138.426038995416263, 35.367793001891883 ] } },
{ "type": "Feature", "properties": { "P29_001": "19368", "P29_002": "A119310000045", "P29_003": "16011", "P29_004": "峡南幼稚園", "P29_005": "山梨県南巨摩郡富士川町青柳町160", "P29_006": "4", "P29_007": "0", "P29_008": "00", "P29_009": null }, "geometry": { "type": "Point", "coordinates": [ 138.464032993954618, 35.562150001952809 ] } },
{ "type": "Feature", "properties": { "P29_001": "19212", "P29_002": "A119310000054", "P29_003": "16011", "P29_004": "学校法人上野原羽佐間幼稚園", "P29_005": "山梨県上野原市上野原3769", "P29_006": "4", "P29_007": "0", "P29_008": "00", "P29_009": null }, "geometry": { "type": "Point", "coordinates": [ 139.108553999684716, 35.632239001869578 ] } },
{ "type": "Feature", "properties": { "P29_001": "19212", "P29_002": "A119310000063", "P29_003": "16011", "P29_004": "上野原幼稚園", "P29_005": "山梨県上野原市上野原1460", "P29_006": "4", "P29_007": "0", "P29_008": "00", "P29_009": null }, "geometry": { "type": "Point", "coordinates": [ 139.116089838756949, 35.62756354197861 ] } },
{ "type": "Feature", "properties": { "P29_001": "19201", "P29_002": "A119310000072", "P29_003": "16011", "P29_004": "貢川進徳幼稚園", "P29_005": "山梨県甲府市貢川1-7-22", "P29_006": "4", "P29_007": "0", "P29_008": "00", "P29_009": null }, "geometry": { "type": "Point", "coordinates": [ 138.53954955492685, 35.659152543783321 ] } },
{ "type": "Feature", "properties": { "P29_001": "19201", "P29_002": "A119310000081", "P29_003": "16011", "P29_004": "聖心幼稚園", "P29_005": "山梨県甲府市飯田5-5-11", "P29_006": "4", "P29_007": "0", "P29_008": "00", "P29_009": null }, "geometry": { "type": "Point", "coordinates": [ 138.556539267507304, 35.660876948292866 ] } },
{ "type": "Feature", "properties": { "P29_001": "19210", "P29_002": "A119310000090", "P29_003": "16011", "P29_004": "双葉甲府幼稚園", "P29_005": "山梨県甲斐市竜地3188", "P29_006": "4", "P29_007": "0", "P29_008": "00", "P29_009": null }, "geometry": { "type": "Point", "coordinates": [ 138.510070180648455, 35.684149232373329 ] } },
{ "type": "Feature", "properties": { "P29_001": "19201", "P29_002": "A119310000107", "P29_003": "16011", "P29_004": "学校法人城北幼稚園", "P29_005": "山梨県甲府市湯村3-4-5", "P29_006": "4", "P29_007": "0", "P29_008": "00", "P29_009": null }, "geometry": { "type": "Point", "coordinates": [ 138.551510996540713, 35.679946000679038 ] } },
{ "type": "Feature", "properties": { "P29_001": "19201", "P29_002": "A119310000116", "P29_003": "16011", "P29_004": "認定こども園朝日幼稚園", "P29_005": "山梨県甲府市塩部1-1-6", "P29_006": "4", "P29_007": "0", "P29_008": "00", "P29_009": null }, "geometry": { "type": "Point", "coordinates": [ 138.559093001284651, 35.670483000503722 ] } },
{ "type": "Feature", "properties": { "P29_001": "19201", "P29_002": "A119310000125", "P29_003": "16011", "P29_004": "慶明幼稚園", "P29_005": "山梨県甲府市朝日3-8-38", "P29_006": "4", "P29_007": "0", "P29_008": "00", "P29_009": null }, "geometry": { "type": "Point", "coordinates": [ 138.56324600422252, 35.670791999764447 ] } },
{ "type": "Feature", "properties": { "P29_001": "19201", "P29_002": "A119310000134", "P29_003": "16011", "P29_004": "塩部幼稚園", "P29_005": "山梨県甲府市塩部4-6-5", "P29_006": "4", "P29_007": "0", "P29_008": "00", "P29_009": null }, "geometry": { "type": "Point", "coordinates": [ 138.55547770543302, 35.675019508637945 ] } },
{ "type": "Feature", "properties": { "P29_001": "19201", "P29_002": "A119310000143", "P29_003": "16011", "P29_004": "富士川幼稚園", "P29_005": "山梨県甲府市愛宕町211", "P29_006": "4", "P29_007": "0", "P29_008": "00", "P29_009": null }, "geometry": { "type": "Point", "coordinates": [ 138.577091531655498, 35.66502724874433 ] } },
{ "type": "Feature", "properties": { "P29_001": "19201", "P29_002": "A119310000152", "P29_003": "16011", "P29_004": "穴切幼稚園", "P29_005": "山梨県甲府市宝2-18-3", "P29_006": "4", "P29_007": "0", "P29_008": "00", "P29_009": null }, "geometry": { "type": "Point", "coordinates": [ 138.561904999301902, 35.660999998690549 ] } },
{ "type": "Feature", "properties": { "P29_001": "19201", "P29_002": "A119310000161", "P29_003": "16011", "P29_004": "相生幼稚園", "P29_005": "山梨県甲府市相生2-19-1", "P29_006": "4", "P29_007": "0", "P29_008": "00", "P29_009": null }, "geometry": { "type": "Point", "coordinates": [ 138.566576997680983, 35.655755000911107 ] } },
{ "type": "Feature", "properties": { "P29_001": "19201", "P29_002": "A119310000170", "P29_003": "16011", "P29_004": "山梨学院幼稚園", "P29_005": "山梨県甲府市酒折2-8-1", "P29_006": "4", "P29_007": "0", "P29_008": "00", "P29_009": null }, "geometry": { "type": "Point", "coordinates": [ 138.603997994132982, 35.656325003533887 ] } },
{ "type": "Feature", "properties": { "P29_001": "19201", "P29_002": "A119310000189", "P29_003": "16011", "P29_004": "琢美幼稚園", "P29_005": "山梨県甲府市城東2-16-18", "P29_006": "4", "P29_007": "0", "P29_008": "00", "P29_009": null }, "geometry": { "type": "Point", "coordinates": [ 138.579778993257008, 35.657738343526802 ] } },
{ "type": "Feature", "properties": { "P29_001": "19201", "P29_002": "A119310000198", "P29_003": "16011", "P29_004": "一蓮寺幼稚園", "P29_005": "山梨県甲府市太田町5-16", "P29_006": "4", "P29_007": "0", "P29_008": "00", "P29_009": null }, "geometry": { "type": "Point", "coordinates": [ 138.571259997918162, 35.651710002446023 ] } },
{ "type": "Feature", "properties": { "P29_001": "19201", "P29_002": "A119310000205", "P29_003": "16011", "P29_004": "学校法人岩田学園みたま幼稚園", "P29_005": "山梨県甲府市里吉1-3-7", "P29_006": "4", "P29_007": "0", "P29_008": "00", "P29_009": null }, "geometry": { "type": "Point", "coordinates": [ 138.588352101020917, 35.653109601257476 ] } },
{ "type": "Feature", "properties": { "P29_001": "19201", "P29_002": "A119310000214", "P29_003": "16011", "P29_004": "学校法人岩田学園いづみ幼稚園", "P29_005": "山梨県甲府市国母1-24-6", "P29_006": "4", "P29_007": "0", "P29_008": "00", "P29_009": null }, "geometry": { "type": "Point", "coordinates": [ 138.55848557241805, 35.648180134756444 ] } },
{ "type": "Feature", "properties": { "P29_001": "19201", "P29_002": "A119310000223", "P29_003": "16011", "P29_004": "川口学園博愛幼稚園", "P29_005": "山梨県甲府市住吉1-6-22", "P29_006": "4", "P29_007": "0", "P29_008": "00", "P29_009": null }, "geometry": { "type": "Point", "coordinates": [ 138.570595998589368, 35.643603997839953 ] } },
{ "type": "Feature", "properties": { "P29_001": "19207", "P29_002": "A119310000232", "P29_003": "16011", "P29_004": "韮崎愛生幼稚園", "P29_005": "山梨県韮崎市本町1-14-15", "P29_006": "4", "P29_007": "0", "P29_008": "00", "P29_009": null }, "geometry": { "type": "Point", "coordinates": [ 138.449363004602475, 35.706369003265344 ] } },
{ "type": "Feature", "properties": { "P29_001": "19207", "P29_002": "A119310000241", "P29_003": "16011", "P29_004": "韮崎カトリック白百合幼稚園", "P29_005": "山梨県韮崎市若宮3-10-1", "P29_006": "4", "P29_007": "0", "P29_008": "00", "P29_009": null }, "geometry": { "type": "Point", "coordinates": [ 138.453301322789201, 35.715512156979173 ] } },
{ "type": "Feature", "properties": { "P29_001": "19213", "P29_002": "A119310000250", "P29_003": "16011", "P29_004": "塩山カトリック幼稚園", "P29_005": "山梨県甲州市塩山上於曽1351", "P29_006": "4", "P29_007": "0", "P29_008": "00", "P29_009": null }, "geometry": { "type": "Point", "coordinates": [ 138.732203004488355, 35.707821999839268 ] } },
{ "type": "Feature", "properties": { "P29_001": "19206", "P29_002": "A119310000269", "P29_003": "16011", "P29_004": "学校法人猿橋幼稚園", "P29_005": "山梨県大月市猿橋町猿橋204", "P29_006": "4", "P29_007": "0", "P29_008": "00", "P29_009": null }, "geometry": { "type": "Point", "coordinates": [ 138.975414393982447, 35.614551049259262 ] } },
{ "type": "Feature", "properties": { "P29_001": "19206", "P29_002": "A119310000287", "P29_003": "16011", "P29_004": "大月キリストの教会幼稚園", "P29_005": "山梨県大月市駒橋1-9-14", "P29_006": "4", "P29_007": "0", "P29_008": "00", "P29_009": null }, "geometry": { "type": "Point", "coordinates": [ 138.950562783117164, 35.614419866307415 ] } },
{ "type": "Feature", "properties": { "P29_001": "19204", "P29_002": "A119310000296", "P29_003": "16011", "P29_004": "認定こども園ひまわり幼稚園", "P29_005": "山梨県都留市つる2-3-23", "P29_006": "4", "P29_007": "0", "P29_008": "00", "P29_009": null }, "geometry": { "type": "Point", "coordinates": [ 138.91201899720329, 35.558773997099912 ] } },
{ "type": "Feature", "properties": { "P29_001": "19204", "P29_002": "A119310000303", "P29_003": "16011", "P29_004": "幼稚園型認定こども園青藍幼稚園", "P29_005": "山梨県都留市上谷3-6-30", "P29_006": "4", "P29_007": "0", "P29_008": "00", "P29_009": null }, "geometry": { "type": "Point", "coordinates": [ 138.90790956381133, 35.550310480356053 ] } },
{ "type": "Feature", "properties": { "P29_001": "19202", "P29_002": "A119310000312", "P29_003": "16011", "P29_004": "月江寺幼稚園", "P29_005": "山梨県富士吉田市下吉田3-26-16", "P29_006": "4", "P29_007": "0", "P29_008": "00", "P29_009": null }, "geometry": { "type": "Point", "coordinates": [ 138.800468522706353, 35.493811376634099 ] } },
{ "type": "Feature", "properties": { "P29_001": "19202", "P29_002": "A119310000321", "P29_003": "16011", "P29_004": "新倉幼稚園", "P29_005": "山梨県富士吉田市浅間1-5-5", "P29_006": "4", "P29_007": "0", "P29_008": "00", "P29_009": null }, "geometry": { "type": "Point", "coordinates": [ 138.797433379163493, 35.498462034303486 ] } },
{ "type": "Feature", "properties": { "P29_001": "19202", "P29_002": "A119310000330", "P29_003": "16011", "P29_004": "聖徳幼稚園", "P29_005": "山梨県富士吉田市下吉田3-41-15", "P29_006": "4", "P29_007": "0", "P29_008": "00", "P29_009": null }, "geometry": { "type": "Point", "coordinates": [ 138.806642790206837, 35.496852216934158 ] } },
{ "type": "Feature", "properties": { "P29_001": "19202", "P29_002": "A119310000349", "P29_003": "16011", "P29_004": "小さき花幼稚園", "P29_005": "山梨県富士吉田市上吉田3-5-7", "P29_006": "4", "P29_007": "0", "P29_008": "00", "P29_009": null }, "geometry": { "type": "Point", "coordinates": [ 138.799058412654517, 35.480590055684175 ] } },
{ "type": "Feature", "properties": { "P29_001": "19346", "P29_002": "A119310000358", "P29_003": "16011", "P29_004": "市川南幼稚園", "P29_005": "山梨県西八代郡市川三郷町市川大門561", "P29_006": "4", "P29_007": "0", "P29_008": "00", "P29_009": null }, "geometry": { "type": "Point", "coordinates": [ 138.498339003895211, 35.561580998773017 ] } },
{ "type": "Feature", "properties": { "P29_001": "19201", "P29_002": "A119310000376", "P29_003": "16011", "P29_004": "山梨幼稚園", "P29_005": "山梨県甲府市塩部4-5-9", "P29_006": "4", "P29_007": "0", "P29_008": "00", "P29_009": null }, "geometry": { "type": "Point", "coordinates": [ 138.55538800554271, 35.673460996506186 ] } },
{ "type": "Feature", "properties": { "P29_001": "19201", "P29_002": "A119310000385", "P29_003": "16011", "P29_004": "屋形幼稚園", "P29_005": "山梨県甲府市屋形1-3-9", "P29_006": "4", "P29_007": "0", "P29_008": "00", "P29_009": null }, "geometry": { "type": "Point", "coordinates": [ 138.571412502253651, 35.681405755038867 ] } },
{ "type": "Feature", "properties": { "P29_001": "19368", "P29_002": "A119310000394", "P29_003": "16011", "P29_004": "鰍沢立正幼稚園", "P29_005": "山梨県南巨摩郡富士川町1163", "P29_006": "4", "P29_007": "0", "P29_008": "00", "P29_009": null }, "geometry": { "type": "Point", "coordinates": [ 138.461285001280373, 35.546839001723527 ] } },
{ "type": "Feature", "properties": { "P29_001": "19201", "P29_002": "A119310000401", "P29_003": "16011", "P29_004": "認定こども園聖愛幼稚園", "P29_005": "山梨県甲府市羽黒町618", "P29_006": "4", "P29_007": "0", "P29_008": "00", "P29_009": null }, "geometry": { "type": "Point", "coordinates": [ 138.543439908156785, 35.688984198916181 ] } },
{ "type": "Feature", "properties": { "P29_001": "19201", "P29_002": "A119310000410", "P29_003": "16011", "P29_004": "学校法人池田幼稚園", "P29_005": "山梨県甲府市新田町6-6", "P29_006": "4", "P29_007": "0", "P29_008": "00", "P29_009": null }, "geometry": { "type": "Point", "coordinates": [ 138.539207046983819, 35.664429352399097 ] } },
{ "type": "Feature", "properties": { "P29_001": "19201", "P29_002": "A119310000429", "P29_003": "16011", "P29_004": "貢川幼稚園", "P29_005": "山梨県甲府市徳行1-14-25", "P29_006": "4", "P29_007": "0", "P29_008": "00", "P29_009": null }, "geometry": { "type": "Point", "coordinates": [ 138.543666761330769, 35.653120077426543 ] } },
{ "type": "Feature", "properties": { "P29_001": "19201", "P29_002": "A119310000438", "P29_003": "16011", "P29_004": "認定こども園永照寺幼稚園", "P29_005": "山梨県甲府市高畑1-21-2", "P29_006": "4", "P29_007": "0", "P29_008": "00", "P29_009": null }, "geometry": { "type": "Point", "coordinates": [ 138.564885873032182, 35.649400132469253 ] } },
{ "type": "Feature", "properties": { "P29_001": "19211", "P29_002": "A119310000447", "P29_003": "16011", "P29_004": "石和誠心幼稚園", "P29_005": "山梨県笛吹市石和町河内505", "P29_006": "4", "P29_007": "0", "P29_008": "00", "P29_009": null }, "geometry": { "type": "Point", "coordinates": [ 138.600626287992412, 35.630998663522789 ] } },
{ "type": "Feature", "properties": { "P29_001": "19201", "P29_002": "A119310000456", "P29_003": "16011", "P29_004": "相生南幼稚園", "P29_005": "山梨県甲府市国母2-4-29", "P29_006": "4", "P29_007": "0", "P29_008": "00", "P29_009": null }, "geometry": { "type": "Point", "coordinates": [ 138.558613999620547, 35.64212399903213 ] } },
{ "type": "Feature", "properties": { "P29_001": "19210", "P29_002": "A119310000465", "P29_003": "16011", "P29_004": "竜王幼稚園", "P29_005": "山梨県甲斐市富竹新田2055", "P29_006": "4", "P29_007": "0", "P29_008": "00", "P29_009": null }, "geometry": { "type": "Point", "coordinates": [ 138.534736004057606, 35.64931400021765 ] } },
{ "type": "Feature", "properties": { "P29_001": "19212", "P29_002": "A119310000474", "P29_003": "16011", "P29_004": "島田幼稚園", "P29_005": "山梨県上野原市鶴島1968-2", "P29_006": "4", "P29_007": "0", "P29_008": "00", "P29_009": null }, "geometry": { "type": "Point", "coordinates": [ 139.119920380019039, 35.613859305248965 ] } },
{ "type": "Feature", "properties": { "P29_001": "19201", "P29_002": "A119310000483", "P29_003": "16011", "P29_004": "学校法人数野学園しらゆり幼稚園", "P29_005": "山梨県甲府市大手2-2-39", "P29_006": "4", "P29_007": "0", "P29_008": "00", "P29_009": null }, "geometry": { "type": "Point", "coordinates": [ 138.577375002371809, 35.677139003753425 ] } },
{ "type": "Feature", "properties": { "P29_001": "19366", "P29_002": "A119310000492", "P29_003": "16011", "P29_004": "南部みどり幼稚園", "P29_005": "山梨県南巨摩郡南部町南部7576", "P29_006": "4", "P29_007": "0", "P29_008": "00", "P29_009": null }, "geometry": { "type": "Point", "coordinates": [ 138.449439999260477, 35.295621004017015 ] } },
{ "type": "Feature", "properties": { "P29_001": "19210", "P29_002": "A119310000508", "P29_003": "16011", "P29_004": "富士幼稚園", "P29_005": "山梨県甲斐市島上条2228", "P29_006": "4", "P29_007": "0", "P29_008": "00", "P29_009": null }, "geometry": { "type": "Point", "coordinates": [ 138.523065737105213, 35.68967937647696 ] } },
{ "type": "Feature", "properties": { "P29_001": "19205", "P29_002": "A119310000517", "P29_003": "16011", "P29_004": "双葉幼稚園", "P29_005": "山梨県山梨市小原西733-4", "P29_006": "4", "P29_007": "0", "P29_008": "00", "P29_009": null }, "geometry": { "type": "Point", "coordinates": [ 138.692916002100446, 35.695373997423644 ] } },
{ "type": "Feature", "properties": { "P29_001": "19205", "P29_002": "A119310000526", "P29_003": "16011", "P29_004": "学校法人和光学園認定こども園くさかべ幼稚園", "P29_005": "山梨県山梨市小原東356", "P29_006": "4", "P29_007": "0", "P29_008": "00", "P29_009": null }, "geometry": { "type": "Point", "coordinates": [ 138.698251601554148, 35.698073594927472 ] } },
{ "type": "Feature", "properties": { "P29_001": "19208", "P29_002": "A119310000535", "P29_003": "16011", "P29_004": "バンビバイリンガル幼稚園", "P29_005": "山梨県南アルプス市徳永1605-2", "P29_006": "4", "P29_007": "0", "P29_008": "00", "P29_009": null }, "geometry": { "type": "Point", "coordinates": [ 138.490768004384137, 35.648143999280933 ] } }
]
}
