{
"type": "FeatureCollection",
"name": "geo_19_小規模多機能型居宅介護",
"crs": { "type": "name", "properties": { "name": "urn:ogc:def:crs:OGC:1.3:CRS84" } },
"features": [
{ "type": "Feature", "properties": { "内容": "社会福祉法人　ひかりの里　小規模多機能型居宅介護めだかの学校悠ゆう【小規模多機能型居宅介護】甲府市武田2－8－17", "url": "https://www.kaigokensaku.mhlw.go.jp/19/index.php?action_kouhyou_detail_004_kani=true&JigyosyoCd=1990100156-00&ServiceCd=730&Type=search", "url2": "http://www.hikarinosato.com" }, "geometry": { "type": "Point", "coordinates": [ 138.570714700000053, 35.6711873 ] } },
{ "type": "Feature", "properties": { "内容": "小規模多機能ホーム　わかまつ【小規模多機能型居宅介護】若松町6-35共立介護福祉センターわかまつ　2階", "url": "https://www.kaigokensaku.mhlw.go.jp/19/index.php?action_kouhyou_detail_004_kani=true&JigyosyoCd=1990100370-00&ServiceCd=730&Type=search", "url2": "https://ykf.or.jp" }, "geometry": { "type": "Point", "coordinates": [ 134.8153421, 35.5483667 ] } },
{ "type": "Feature", "properties": { "内容": "やさしい手小瀬事業所けやきの森茶論【小規模多機能型居宅介護】山梨県甲府市上町339-2", "url": "https://www.kaigokensaku.mhlw.go.jp/19/index.php?action_kouhyou_detail_004_kani=true&JigyosyoCd=1990100602-00&ServiceCd=730&Type=search", "url2": "http://www.yasashiite-kofu.co.jp" }, "geometry": { "type": "Point", "coordinates": [ 138.591484499999979, 35.6280155 ] } },
{ "type": "Feature", "properties": { "内容": "やさしい手　甲府西茶論【小規模多機能型居宅介護】山梨県甲府市上石田1-7-14", "url": "https://www.kaigokensaku.mhlw.go.jp/19/index.php?action_kouhyou_detail_004_kani=true&JigyosyoCd=1990100057-00&ServiceCd=730&Type=search", "url2": "http://ｗｗｗ.yasashiite-kofu.co.jp" }, "geometry": { "type": "Point", "coordinates": [ 138.553267, 35.6579134 ] } },
{ "type": "Feature", "properties": { "内容": "小規模多機能型居宅介護　青葉町湯らり【小規模多機能型居宅介護】甲府市青葉町14-15", "url": "https://www.kaigokensaku.mhlw.go.jp/19/index.php?action_kouhyou_detail_004_kani=true&JigyosyoCd=1990100040-00&ServiceCd=730&Type=search", "url2": "http://www.kei-you.jp" }, "geometry": { "type": "Point", "coordinates": [ 138.582357800000011, 35.6439723 ] } },
{ "type": "Feature", "properties": { "内容": "小規模多機能型居宅介護　フォーリーブス甲府【小規模多機能型居宅介護】山梨県甲府市東下条町107", "url": "https://www.kaigokensaku.mhlw.go.jp/19/index.php?action_kouhyou_detail_004_kani=true&JigyosyoCd=1990100859-00&ServiceCd=730&Type=search", "url2": null }, "geometry": { "type": "Point", "coordinates": [ 138.574399699999987, 35.6128522 ] } },
{ "type": "Feature", "properties": { "内容": "セントケア新西原【小規模多機能型居宅介護】富士吉田市新西原四丁目13番46号", "url": "https://www.kaigokensaku.mhlw.go.jp/19/index.php?action_kouhyou_detail_004_kani=true&JigyosyoCd=1991200120-00&ServiceCd=730&Type=search", "url2": null }, "geometry": { "type": "Point", "coordinates": [ 138.7806597, 35.4835828 ] } },
{ "type": "Feature", "properties": { "内容": "小規模多機能型居宅介護事業所　　よってかっせ【小規模多機能型居宅介護】山梨県　富士吉田市　下吉田2丁目２８－１９", "url": "https://www.kaigokensaku.mhlw.go.jp/19/index.php?action_kouhyou_detail_004_kani=true&JigyosyoCd=1991200021-00&ServiceCd=730&Type=search", "url2": "http://www.snhfuyoso.com" }, "geometry": { "type": "Point", "coordinates": [ 138.801924099999951, 35.4920767 ] } },
{ "type": "Feature", "properties": { "内容": "小規模多機能型居宅介護事業所しののめ【小規模多機能型居宅介護】山梨県富士吉田市小明見3-3-14", "url": "https://www.kaigokensaku.mhlw.go.jp/19/index.php?action_kouhyou_detail_004_kani=true&JigyosyoCd=1991200070-00&ServiceCd=730&Type=search", "url2": "http：//www.snhfuyoso.com" }, "geometry": { "type": "Point", "coordinates": [ 138.828698300000042, 35.4981273 ] } },
{ "type": "Feature", "properties": { "内容": "小規模多機能型居宅介護事業所みんなの家つる南【小規模多機能型居宅介護】山梨県都留市つる5-10-15　下谷交流センター2階", "url": "https://www.kaigokensaku.mhlw.go.jp/19/index.php?action_kouhyou_detail_004_kani=true&JigyosyoCd=1991100122-00&ServiceCd=730&Type=search", "url2": "https://yurinosato-web.jimdosite.com/" }, "geometry": { "type": "Point", "coordinates": [ 138.907847, 35.564131 ] } },
{ "type": "Feature", "properties": { "内容": "小規模多機能型居宅介護事業所みんなの家つる東【小規模多機能型居宅介護】山梨県都留市大原170", "url": "https://www.kaigokensaku.mhlw.go.jp/19/index.php?action_kouhyou_detail_004_kani=true&JigyosyoCd=1991100064-00&ServiceCd=730&Type=search", "url2": "https://yurinosato-web.jimdosite.com/" }, "geometry": { "type": "Point", "coordinates": [ 138.929748599999982, 35.5863644 ] } },
{ "type": "Feature", "properties": { "内容": "小規模多機能ホーム湯苗田【小規模多機能型居宅介護】山梨市牧丘町室伏２４５２", "url": "https://www.kaigokensaku.mhlw.go.jp/19/index.php?action_kouhyou_detail_004_kani=true&JigyosyoCd=1990200022-00&ServiceCd=730&Type=search", "url2": "http://www.fruits.jp/~jyukokai/" }, "geometry": { "type": "Point", "coordinates": [ 138.721706700000027, 35.7524955 ] } },
{ "type": "Feature", "properties": { "内容": "小規模多機能ホームリアン【小規模多機能型居宅介護】山梨県山梨市七日市場７１０－１コミュニティサポートリアン", "url": "https://www.kaigokensaku.mhlw.go.jp/19/index.php?action_kouhyou_detail_004_kani=true&JigyosyoCd=1990200071-00&ServiceCd=730&Type=search", "url2": "http://www.fruits.jp/~jyukokai/" }, "geometry": { "type": "Point", "coordinates": [ 138.697421, 35.7023401 ] } },
{ "type": "Feature", "properties": { "内容": "セントケア大月榮町【小規模多機能型居宅介護】山梨県大月市大月２丁目３番８号", "url": "https://www.kaigokensaku.mhlw.go.jp/19/index.php?action_kouhyou_detail_004_kani=true&JigyosyoCd=1991400100-00&ServiceCd=730&Type=search", "url2": null }, "geometry": { "type": "Point", "coordinates": [ 138.939649, 35.611732 ] } },
{ "type": "Feature", "properties": { "内容": "フルリールにらさき【小規模多機能型居宅介護】山梨県韮崎市富士見二丁目１５－２７", "url": "https://www.kaigokensaku.mhlw.go.jp/19/index.php?action_kouhyou_detail_004_kani=true&JigyosyoCd=1990900027-00&ServiceCd=730&Type=search", "url2": "https://sanseifukushikai.com" }, "geometry": { "type": "Point", "coordinates": [ 138.456708600000013, 35.7082454 ] } },
{ "type": "Feature", "properties": { "内容": "明山荘小規模多機能型居宅介護事業所【小規模多機能型居宅介護】山梨県北杜市明野町上手520", "url": "https://www.kaigokensaku.mhlw.go.jp/19/index.php?action_kouhyou_detail_004_kani=true&JigyosyoCd=1991900075-00&ServiceCd=730&Type=search", "url2": "http://www.ryokuju.com/meizan/multifunction/" }, "geometry": { "type": "Point", "coordinates": [ 138.428898773541249, 35.770689155228844 ] } },
{ "type": "Feature", "properties": { "内容": "小規模多機能型居宅介護事業所ほくと・ぬくもり【小規模多機能型居宅介護】山梨県北杜市須玉町若神子2120番地1", "url": "https://www.kaigokensaku.mhlw.go.jp/19/index.php?action_kouhyou_detail_004_kani=true&JigyosyoCd=1991900026-00&ServiceCd=730&Type=search", "url2": null }, "geometry": { "type": "Point", "coordinates": [ 138.421122100000048, 35.7912364 ] } },
{ "type": "Feature", "properties": { "内容": "小規模多機能型居宅介護ホーム　あかさか【小規模多機能型居宅介護】山梨県甲斐市竜王新町２１８８－１", "url": "https://www.kaigokensaku.mhlw.go.jp/19/index.php?action_kouhyou_detail_004_kani=true&JigyosyoCd=1991700012-00&ServiceCd=730&Type=search", "url2": null }, "geometry": { "type": "Point", "coordinates": [ 138.5073327, 35.6789988 ] } },
{ "type": "Feature", "properties": { "内容": "げんき甲斐【小規模多機能型居宅介護】山梨県甲斐市大下条９５６－１", "url": "https://www.kaigokensaku.mhlw.go.jp/19/index.php?action_kouhyou_detail_004_kani=true&JigyosyoCd=1991700020-00&ServiceCd=730&Type=search", "url2": null }, "geometry": { "type": "Point", "coordinates": [ 138.5226906, 35.675754 ] } },
{ "type": "Feature", "properties": { "内容": "寿ノ家寄りあい所みさか【小規模多機能型居宅介護】山梨県笛吹市御坂町下野原839－1", "url": "https://www.kaigokensaku.mhlw.go.jp/19/index.php?action_kouhyou_detail_004_kani=true&JigyosyoCd=1991800119-00&ServiceCd=730&Type=search", "url2": "http://www.krg.ne.jp/kotobuki/" }, "geometry": { "type": "Point", "coordinates": [ 138.667390473541218, 35.622698885414799 ] } },
{ "type": "Feature", "properties": { "内容": "小規模多機能ホームにんじん・上野原【小規模多機能型居宅介護】山梨県上野原市上野原522", "url": "https://www.kaigokensaku.mhlw.go.jp/19/index.php?action_kouhyou_detail_004_kani=true&JigyosyoCd=1992000032-00&ServiceCd=730&Type=search", "url2": "https://ninjin.or.jp/" }, "geometry": { "type": "Point", "coordinates": [ 139.118784960801804, 35.623590283625681 ] } },
{ "type": "Feature", "properties": { "内容": "多機能ケア　ウイズ【小規模多機能型居宅介護】山梨県南巨摩郡身延町小田船原37", "url": "https://www.kaigokensaku.mhlw.go.jp/19/index.php?action_kouhyou_detail_004_kani=true&JigyosyoCd=1990700153-00&ServiceCd=730&Type=search", "url2": "https://www.rengenosato.jp/" }, "geometry": { "type": "Point", "coordinates": [ 138.4112965, 35.3615379 ] } },
{ "type": "Feature", "properties": { "内容": "なじみの家　はんでこうし　天神中条【小規模多機能型居宅介護】南巨摩郡富士川町天神中条６５", "url": "https://www.kaigokensaku.mhlw.go.jp/19/index.php?action_kouhyou_detail_004_kani=true&JigyosyoCd=1990700021-00&ServiceCd=730&Type=search", "url2": "http://www.takahara-hp.or.jp" }, "geometry": { "type": "Point", "coordinates": [ 138.4574892, 35.5660894 ] } },
{ "type": "Feature", "properties": { "内容": "小規模多機能ホーム昭和【小規模多機能型居宅介護】山梨県中巨摩郡昭和町河西１１４９－２", "url": "https://www.kaigokensaku.mhlw.go.jp/19/index.php?action_kouhyou_detail_004_kani=true&JigyosyoCd=1990800029-00&ServiceCd=730&Type=search", "url2": "https://sasamotokai.net/sasanohakai" }, "geometry": { "type": "Point", "coordinates": [ 138.51982959999998, 35.6184737 ] } }
]
}
