{
"type": "FeatureCollection",
"name": "geo_19_特定施設入居者生活介護（有料老人ホーム）",
"crs": { "type": "name", "properties": { "name": "urn:ogc:def:crs:OGC:1.3:CRS84" } },
"features": [
{ "type": "Feature", "properties": { "内容": "介護付有料老人ホーム　恵信ヴィレッタ甲府【特定施設入居者生活介護（有料老人ホーム）】山梨県甲府市下飯田2丁目2-30", "url": "https://www.kaigokensaku.mhlw.go.jp/19/index.php?action_kouhyou_detail_004_kani=true&JigyosyoCd=1970102701-00&ServiceCd=331&Type=search", "url2": "http://www.villetta-kofu-jimu2@road.ocn.ne.jp" }, "geometry": { "type": "Point", "coordinates": [ 138.54904769999996, 35.6642764 ] } },
{ "type": "Feature", "properties": { "内容": "なかこの家【特定施設入居者生活介護（有料老人ホーム）】山梨県甲府市中小河原町９２番地２", "url": "https://www.kaigokensaku.mhlw.go.jp/19/index.php?action_kouhyou_detail_004_kani=true&JigyosyoCd=1970101984-00&ServiceCd=331&Type=search", "url2": "http://care-net.biz/19/nakakonoie/" }, "geometry": { "type": "Point", "coordinates": [ 138.575871900000038, 35.6321562 ] } },
{ "type": "Feature", "properties": { "内容": "介護付有料老人ホームおおさとの憩【特定施設入居者生活介護（有料老人ホーム）】山梨県甲府市大里町3375－10", "url": "https://www.kaigokensaku.mhlw.go.jp/19/index.php?action_kouhyou_detail_004_kani=true&JigyosyoCd=1970103030-00&ServiceCd=331&Type=search", "url2": "http://www.frontiernokaigo.jp" }, "geometry": { "type": "Point", "coordinates": [ 138.5680951, 35.6146872 ] } },
{ "type": "Feature", "properties": { "内容": "スローライフ山梨【特定施設入居者生活介護（有料老人ホーム）】上石森187－1", "url": "https://www.kaigokensaku.mhlw.go.jp/19/index.php?action_kouhyou_detail_004_kani=true&JigyosyoCd=1970200513-00&ServiceCd=331&Type=search", "url2": "slowlife-yamanashi@lily.ocn.ne.jp" }, "geometry": { "type": "Point", "coordinates": [ 138.697049099999987, 35.6846029 ] } },
{ "type": "Feature", "properties": { "内容": "ピースライフ山梨【特定施設入居者生活介護（有料老人ホーム）】山梨県山梨市上石森１９４", "url": "https://www.kaigokensaku.mhlw.go.jp/19/index.php?action_kouhyou_detail_004_kani=true&JigyosyoCd=1970200117-00&ServiceCd=331&Type=search", "url2": "http://www.amille.jp" }, "geometry": { "type": "Point", "coordinates": [ 138.697477099999986, 35.6843979 ] } },
{ "type": "Feature", "properties": { "内容": "有料老人ホーム　サンライフ寿【特定施設入居者生活介護（有料老人ホーム）】山梨県笛吹市石和町四日市場2031－24", "url": "https://www.kaigokensaku.mhlw.go.jp/19/index.php?action_kouhyou_detail_004_kani=true&JigyosyoCd=1970500391-00&ServiceCd=331&Type=search", "url2": "http://www.krg.ne.jp/sunlife/" }, "geometry": { "type": "Point", "coordinates": [ 138.625903200000039, 35.6462492 ] } },
{ "type": "Feature", "properties": { "内容": "介護付有料老人ホーム夢眠いさわ【特定施設入居者生活介護（有料老人ホーム）】山梨県笛吹市石和町松本416番1", "url": "https://www.kaigokensaku.mhlw.go.jp/19/index.php?action_kouhyou_detail_004_kani=true&JigyosyoCd=1971801491-00&ServiceCd=331&Type=search", "url2": "http://muminhome.jp/isawa" }, "geometry": { "type": "Point", "coordinates": [ 138.632113800000013, 35.6566041 ] } }
]
}
